{"type": "FeatureCollection", "properties": {"vrsta": "gof", "naziv": "Gof", "latinski": "Seriola dumerili", "datum": "2026-10-12", "profil": null, "panula": {"dubina_m": [15.0, 50.0], "brzina_kn": [2.5, 4.5], "sati": "zora i prvi sati poslije nje", "granica_dubine_m": 50.0}, "vertikala": {"termoklina_m": 40.0, "termoklina_C_po_m": 0.1, "dcm_m": 78.6, "dcm_odnos": 1.0, "dcm_debljina_m": 39.8, "mld_m": 23.9, "sloj_plijena_m": [45.6, 90.8], "dohvatljivost": 0.1, "objasnjenje": "Termoklina na 40 m. Sloj plijena lezi pretezno ispod 50 m, dakle izvan dohvata panule. Najveca gustina hlorofila je na 79 m (sloj debljine 40 m) - tu se skuplja sitna riba koja se hrani planktonom, pa je i najveca vjerovatnoca da su grabljivice tu negdje."}, "bezbjednost": {"nivo": "crveno", "razlog": "vjetar 18 cv, udari 24 cv", "izlazak_preporucen": false}, "napomena": "Prakticno samo SZ dio poteza (Petrovac-Bar); mutna voda obara skor.", "razlog_praznog": null}, "features": [{"type": "Feature", "geometry": {"type": "Polygon", "coordinates": [[[18.93, 42.105], [18.905, 42.1], [18.905, 42.06], [18.915, 42.05], [18.915, 42.04], [18.945, 42.01], [18.95, 41.995], [18.97, 41.995], [19.0, 41.975], [19.02, 41.975], [19.025, 41.98], [19.025, 42.01], [19.0, 42.015], [18.97, 42.035], [18.955, 42.05], [18.955, 42.07], [18.93, 42.105]]]}, "properties": {"score_mean": 34.4, "score_max": 37.6, "area_km2": 59.8, "centroid": [18.9574, 42.0349], "razlog": "bistra voda + povoljna pridnena temperatura", "dubina_panule_m": 32.5, "sst_raspon_C": 0.6, "sst_promjena_3d_C": 0.0, "upwelling": 0.0, "hladnije_C": 0.0, "izgledi": "osrednji"}}, {"type": "Feature", "geometry": {"type": "Polygon", "coordinates": [[[18.63, 41.835], [18.605, 41.83], [18.605, 41.81], [18.64, 41.765], [18.66, 41.765], [18.665, 41.79], [18.655, 41.8], [18.655, 41.81], [18.63, 41.835]]]}, "properties": {"score_mean": 3.0, "score_max": 3.1, "area_km2": 24.9, "centroid": [18.6356, 41.8004], "razlog": "bistra voda + povoljna pridnena temperatura", "dubina_panule_m": 32.5, "sst_raspon_C": 0.3, "sst_promjena_3d_C": 0.0, "upwelling": 0.0, "hladnije_C": -0.1, "izgledi": "vrlo slabi"}}]}