{"type": "FeatureCollection", "properties": {"vrsta": "gof", "naziv": "Gof", "latinski": "Seriola dumerili", "datum": "2026-09-22", "profil": null, "panula": {"dubina_m": [15.0, 50.0], "brzina_kn": [2.5, 4.5], "sati": "zora i prvi sati poslije nje", "granica_dubine_m": 50.0}, "vertikala": {"termoklina_m": 24.5, "termoklina_C_po_m": 0.2, "dcm_m": 97.9, "dcm_odnos": 1.0, "dcm_debljina_m": 39.8, "mld_m": 14.8, "sloj_plijena_m": [58.4, 108.5], "dohvatljivost": 0.0, "objasnjenje": "Termoklina na 24 m. Sloj plijena lezi pretezno ispod 50 m, dakle izvan dohvata panule. Najveca gustina hlorofila je na 98 m (sloj debljine 40 m) - tu se skuplja sitna riba koja se hrani planktonom, pa je i najveca vjerovatnoca da su grabljivice tu negdje."}, "bezbjednost": {"nivo": "crveno", "razlog": "talasi do 1.4 m, vjetar 23 cv, udari 31 cv", "izlazak_preporucen": false}, "napomena": "Prakticno samo SZ dio poteza (Petrovac-Bar); mutna voda obara skor.", "razlog_praznog": null}, "features": [{"type": "Feature", "geometry": {"type": "Polygon", "coordinates": [[[18.92, 42.125], [18.89, 42.125], [18.885, 42.12], [18.885, 42.09], [18.895, 42.08], [18.895, 42.06], [18.91, 42.045], [18.96, 42.045], [18.965, 42.05], [18.965, 42.08], [18.945, 42.09], [18.945, 42.1], [18.92, 42.125]]]}, "properties": {"score_mean": 44.0, "score_max": 51.5, "area_km2": 44.1, "centroid": [18.9227, 42.0821], "razlog": "bistra voda + povoljna pridnena temperatura", "dubina_panule_m": 32.5, "sst_raspon_C": 0.3, "sst_promjena_3d_C": -0.3, "upwelling": 0.1, "hladnije_C": 0.1, "izgledi": "dobri"}}, {"type": "Feature", "geometry": {"type": "Polygon", "coordinates": [[[19.09, 41.975], [19.065, 41.97], [19.065, 41.9], [19.07, 41.895], [19.095, 41.9], [19.095, 41.97], [19.09, 41.975]]]}, "properties": {"score_mean": 41.3, "score_max": 44.5, "area_km2": 22.1, "centroid": [19.08, 41.935], "razlog": "bistra voda + povoljna pridnena temperatura", "dubina_panule_m": 32.5, "sst_raspon_C": 0.8, "sst_promjena_3d_C": -0.3, "upwelling": 0.2, "hladnije_C": 0.2, "izgledi": "dobri"}}]}