{"type": "FeatureCollection", "properties": {"vrsta": "gof", "naziv": "Gof", "latinski": "Seriola dumerili", "datum": "2026-08-31", "profil": null, "panula": {"dubina_m": [15.0, 50.0], "brzina_kn": [2.5, 4.5], "sati": "zora i prvi sati poslije nje", "granica_dubine_m": 50.0}, "vertikala": {"termoklina_m": 11.9, "termoklina_C_po_m": 0.3, "dcm_m": 91.2, "dcm_odnos": 1.0, "dcm_debljina_m": 31.0, "mld_m": 11.9, "sloj_plijena_m": [67.5, 100.5], "dohvatljivost": 0.0, "objasnjenje": "Termoklina na 12 m. Sloj plijena lezi pretezno ispod 50 m, dakle izvan dohvata panule. Najveca gustina hlorofila je na 91 m (sloj debljine 31 m) - tu se skuplja sitna riba koja se hrani planktonom, pa je i najveca vjerovatnoca da su grabljivice tu negdje."}, "bezbjednost": {"nivo": "zeleno", "razlog": "uslovi povoljni", "izlazak_preporucen": true}, "napomena": "Prakticno samo SZ dio poteza (Petrovac-Bar); mutna voda obara skor.", "razlog_praznog": null}, "features": [{"type": "Feature", "geometry": {"type": "Polygon", "coordinates": [[[19.25, 41.845], [19.225, 41.84], [19.23, 41.815], [19.255, 41.82], [19.25, 41.845]]]}, "properties": {"score_mean": 23.2, "score_max": 25.9, "area_km2": 8.3, "centroid": [19.24, 41.83], "razlog": "bistra voda + povoljna pridnena temperatura", "dubina_panule_m": 32.5, "sst_raspon_C": 0.5, "sst_promjena_3d_C": 0.0, "upwelling": 0.3, "hladnije_C": 0.1, "izgledi": "slabi"}}, {"type": "Feature", "geometry": {"type": "Polygon", "coordinates": [[[19.2, 41.855], [19.175, 41.85], [19.165, 41.8], [19.185, 41.79], [19.185, 41.78], [19.2, 41.765], [19.23, 41.765], [19.235, 41.77], [19.235, 41.8], [19.22, 41.815], [19.195, 41.82], [19.205, 41.83], [19.2, 41.855]]]}, "properties": {"score_mean": 9.5, "score_max": 18.1, "area_km2": 36.0, "centroid": [19.1995, 41.8054], "razlog": "bistra voda + povoljna pridnena temperatura", "dubina_panule_m": 32.5, "sst_raspon_C": 0.3, "sst_promjena_3d_C": 0.0, "upwelling": 0.0, "hladnije_C": -0.1, "izgledi": "vrlo slabi"}}, {"type": "Feature", "geometry": {"type": "Polygon", "coordinates": [[[19.1, 41.915], [19.075, 41.91], [19.08, 41.885], [19.105, 41.89], [19.1, 41.915]]]}, "properties": {"score_mean": 8.6, "score_max": 20.6, "area_km2": 8.3, "centroid": [19.09, 41.9], "razlog": "bistra voda + povoljna pridnena temperatura", "dubina_panule_m": 32.5, "sst_raspon_C": 0.2, "sst_promjena_3d_C": 0.0, "upwelling": 0.0, "hladnije_C": -0.2, "izgledi": "vrlo slabi"}}, {"type": "Feature", "geometry": {"type": "Polygon", "coordinates": [[[19.06, 41.955], [19.03, 41.955], [19.025, 41.93], [19.03, 41.925], [19.06, 41.925], [19.065, 41.93], [19.06, 41.955]]]}, "properties": {"score_mean": 7.5, "score_max": 21.2, "area_km2": 11.1, "centroid": [19.045, 41.94], "razlog": "bistra voda + povoljna pridnena temperatura", "dubina_panule_m": 32.5, "sst_raspon_C": 0.4, "sst_promjena_3d_C": 0.0, "upwelling": 0.0, "hladnije_C": -0.1, "izgledi": "vrlo slabi"}}, {"type": "Feature", "geometry": {"type": "Polygon", "coordinates": [[[19.13, 41.885], [19.105, 41.88], [19.105, 41.85], [19.11, 41.845], [19.135, 41.85], [19.135, 41.88], [19.13, 41.885]]]}, "properties": {"score_mean": 5.8, "score_max": 22.4, "area_km2": 11.1, "centroid": [19.12, 41.865], "razlog": "bistra voda + povoljna pridnena temperatura", "dubina_panule_m": 32.5, "sst_raspon_C": 0.3, "sst_promjena_3d_C": 0.0, "upwelling": 0.0, "hladnije_C": -0.0, "izgledi": "vrlo slabi"}}, {"type": "Feature", "geometry": {"type": "Polygon", "coordinates": [[[18.87, 42.035], [18.84, 42.035], [18.835, 42.03], [18.835, 41.99], [18.86, 41.965], [18.87, 41.965], [18.88, 41.955], [18.91, 41.955], [18.915, 41.96], [18.915, 41.99], [18.87, 42.035]]]}, "properties": {"score_mean": 1.0, "score_max": 1.0, "area_km2": 43.3, "centroid": [18.8734, 41.994], "razlog": "bistra voda + povoljna pridnena temperatura", "dubina_panule_m": 32.5, "sst_raspon_C": 0.2, "sst_promjena_3d_C": 0.0, "upwelling": 0.2, "hladnije_C": 0.2, "izgledi": "vrlo slabi"}}]}