{"type": "FeatureCollection", "properties": {"vrsta": "gof", "naziv": "Gof", "latinski": "Seriola dumerili", "datum": "2026-09-21", "profil": null, "panula": {"dubina_m": [15.0, 50.0], "brzina_kn": [2.5, 4.5], "sati": "zora i prvi sati poslije nje", "granica_dubine_m": 50.0}, "vertikala": {"termoklina_m": 21.1, "termoklina_C_po_m": 0.2, "dcm_m": 97.9, "dcm_odnos": 1.0, "dcm_debljina_m": 39.6, "mld_m": 12.2, "sloj_plijena_m": [58.8, 106.5], "dohvatljivost": 0.0, "objasnjenje": "Termoklina na 21 m. Sloj plijena lezi pretezno ispod 50 m, dakle izvan dohvata panule. Najveca gustina hlorofila je na 98 m (sloj debljine 40 m) - tu se skuplja sitna riba koja se hrani planktonom, pa je i najveca vjerovatnoca da su grabljivice tu negdje."}, "bezbjednost": {"nivo": "crveno", "razlog": "vjetar 23 cv, udari 33 cv", "izlazak_preporucen": false}, "napomena": "Prakticno samo SZ dio poteza (Petrovac-Bar); mutna voda obara skor.", "razlog_praznog": null}, "features": [{"type": "Feature", "geometry": {"type": "Polygon", "coordinates": [[[19.07, 41.935], [19.04, 41.935], [19.035, 41.91], [19.07, 41.875], [19.09, 41.875], [19.095, 41.9], [19.07, 41.935]]]}, "properties": {"score_mean": 44.2, "score_max": 46.8, "area_km2": 24.0, "centroid": [19.0658, 41.9065], "razlog": "bistra voda + povoljna pridnena temperatura", "dubina_panule_m": 32.5, "sst_raspon_C": 0.2, "sst_promjena_3d_C": -0.3, "upwelling": 0.0, "hladnije_C": -0.0, "izgledi": "dobri"}}, {"type": "Feature", "geometry": {"type": "Polygon", "coordinates": [[[18.93, 42.095], [18.905, 42.09], [18.905, 42.07], [18.92, 42.055], [18.945, 42.06], [18.945, 42.08], [18.93, 42.095]]]}, "properties": {"score_mean": 40.2, "score_max": 44.6, "area_km2": 12.9, "centroid": [18.925, 42.075], "razlog": "bistra voda + povoljna pridnena temperatura", "dubina_panule_m": 32.5, "sst_raspon_C": 0.3, "sst_promjena_3d_C": -0.1, "upwelling": 0.0, "hladnije_C": -0.1, "izgledi": "dobri"}}, {"type": "Feature", "geometry": {"type": "Polygon", "coordinates": [[[18.93, 42.025], [18.91, 42.025], [18.895, 42.01], [18.895, 41.99], [18.92, 41.965], [18.945, 41.97], [18.945, 42.01], [18.93, 42.025]]]}, "properties": {"score_mean": 39.8, "score_max": 41.3, "area_km2": 23.0, "centroid": [18.922, 41.9956], "razlog": "bistra voda + povoljna pridnena temperatura", "dubina_panule_m": 32.5, "sst_raspon_C": 0.7, "sst_promjena_3d_C": -0.3, "upwelling": 0.2, "hladnije_C": 0.1, "izgledi": "osrednji"}}]}