{"type": "FeatureCollection", "properties": {"vrsta": "gof", "naziv": "Gof", "latinski": "Seriola dumerili", "datum": "2026-09-24", "profil": null, "panula": {"dubina_m": [15.0, 50.0], "brzina_kn": [2.5, 4.5], "sati": "zora i prvi sati poslije nje", "granica_dubine_m": 50.0}, "vertikala": {"termoklina_m": 31.8, "termoklina_C_po_m": 0.2, "dcm_m": 97.9, "dcm_odnos": 1.0, "dcm_debljina_m": 41.3, "mld_m": 20.3, "sloj_plijena_m": [64.8, 108.5], "dohvatljivost": 0.0, "objasnjenje": "Termoklina na 32 m. Sloj plijena lezi pretezno ispod 50 m, dakle izvan dohvata panule. Najveca gustina hlorofila je na 98 m (sloj debljine 41 m) - tu se skuplja sitna riba koja se hrani planktonom, pa je i najveca vjerovatnoca da su grabljivice tu negdje."}, "bezbjednost": {"nivo": "crveno", "razlog": "vjetar 16 cv, udari 26 cv", "izlazak_preporucen": false}, "napomena": "Prakticno samo SZ dio poteza (Petrovac-Bar); mutna voda obara skor.", "razlog_praznog": null}, "features": [{"type": "Feature", "geometry": {"type": "Polygon", "coordinates": [[[18.94, 42.105], [18.915, 42.1], [18.915, 42.07], [18.875, 42.03], [18.875, 42.0], [18.89, 41.985], [18.91, 41.985], [18.92, 41.975], [18.945, 41.98], [18.945, 42.1], [18.94, 42.105]]]}, "properties": {"score_mean": 36.1, "score_max": 47.2, "area_km2": 58.9, "centroid": [18.9173, 42.032], "razlog": "bistra voda + povoljna pridnena temperatura", "dubina_panule_m": 32.5, "sst_raspon_C": 0.1, "sst_promjena_3d_C": 0.1, "upwelling": 0.0, "hladnije_C": -0.0, "izgledi": "osrednji"}}, {"type": "Feature", "geometry": {"type": "Polygon", "coordinates": [[[18.79, 42.045], [18.765, 42.04], [18.765, 42.01], [18.78, 41.995], [18.805, 42.0], [18.805, 42.03], [18.79, 42.045]]]}, "properties": {"score_mean": 28.9, "score_max": 33.4, "area_km2": 16.6, "centroid": [18.785, 42.02], "razlog": "bistra voda + povoljna pridnena temperatura", "dubina_panule_m": 32.5, "sst_raspon_C": 0.3, "sst_promjena_3d_C": 0.3, "upwelling": 0.0, "hladnije_C": 0.1, "izgledi": "osrednji"}}, {"type": "Feature", "geometry": {"type": "Polygon", "coordinates": [[[18.73, 42.265], [18.7, 42.265], [18.695, 42.26], [18.695, 42.23], [18.71, 42.215], [18.735, 42.22], [18.735, 42.26], [18.73, 42.265]]]}, "properties": {"score_mean": 23.4, "score_max": 37.5, "area_km2": 17.4, "centroid": [18.7158, 42.2411], "razlog": "bistra voda + povoljna pridnena temperatura", "dubina_panule_m": 32.5, "sst_raspon_C": 0.2, "sst_promjena_3d_C": 0.1, "upwelling": 0.0, "hladnije_C": 0.1, "izgledi": "slabi"}}, {"type": "Feature", "geometry": {"type": "Polygon", "coordinates": [[[18.69, 42.305], [18.66, 42.305], [18.655, 42.3], [18.655, 42.28], [18.67, 42.265], [18.695, 42.27], [18.695, 42.3], [18.69, 42.305]]]}, "properties": {"score_mean": 23.0, "score_max": 44.2, "area_km2": 13.8, "centroid": [18.676, 42.286], "razlog": "bistra voda + povoljna pridnena temperatura", "dubina_panule_m": 32.5, "sst_raspon_C": 0.2, "sst_promjena_3d_C": 0.1, "upwelling": 0.0, "hladnije_C": 0.0, "izgledi": "slabi"}}]}