{"type": "FeatureCollection", "properties": {"vrsta": "gof", "naziv": "Gof", "latinski": "Seriola dumerili", "datum": "2026-09-20", "profil": null, "panula": {"dubina_m": [15.0, 50.0], "brzina_kn": [2.5, 4.5], "sati": "zora i prvi sati poslije nje", "granica_dubine_m": 50.0}, "vertikala": {"termoklina_m": 24.5, "termoklina_C_po_m": 0.2, "dcm_m": 97.9, "dcm_odnos": 1.0, "dcm_debljina_m": 38.1, "mld_m": 12.7, "sloj_plijena_m": [59.4, 107.4], "dohvatljivost": 0.0, "objasnjenje": "Termoklina na 24 m. Sloj plijena lezi pretezno ispod 50 m, dakle izvan dohvata panule. Najveca gustina hlorofila je na 98 m (sloj debljine 38 m) - tu se skuplja sitna riba koja se hrani planktonom, pa je i najveca vjerovatnoca da su grabljivice tu negdje."}, "bezbjednost": {"nivo": "zuto", "razlog": "vjetar 11 cv", "izlazak_preporucen": true}, "napomena": "Prakticno samo SZ dio poteza (Petrovac-Bar); mutna voda obara skor.", "razlog_praznog": null}, "features": [{"type": "Feature", "geometry": {"type": "Polygon", "coordinates": [[[19.06, 42.025], [19.0, 42.025], [18.995, 42.0], [19.01, 41.985], [19.02, 41.985], [19.05, 41.955], [19.09, 41.955], [19.095, 41.96], [19.095, 42.0], [19.08, 42.005], [19.06, 42.025]]]}, "properties": {"score_mean": 40.8, "score_max": 47.2, "area_km2": 47.9, "centroid": [19.049, 41.9925], "razlog": "bistra voda + povoljna pridnena temperatura", "dubina_panule_m": 32.5, "sst_raspon_C": 0.9, "sst_promjena_3d_C": -0.2, "upwelling": 0.0, "hladnije_C": 0.2, "izgledi": "dobri"}}, {"type": "Feature", "geometry": {"type": "Polygon", "coordinates": [[[18.86, 42.055], [18.83, 42.055], [18.825, 42.05], [18.825, 42.03], [18.85, 42.005], [18.875, 42.01], [18.875, 42.04], [18.86, 42.055]]]}, "properties": {"score_mean": 37.5, "score_max": 39.5, "area_km2": 19.3, "centroid": [18.8514, 42.0314], "razlog": "bistra voda + povoljna pridnena temperatura", "dubina_panule_m": 32.5, "sst_raspon_C": 0.8, "sst_promjena_3d_C": -0.4, "upwelling": 0.0, "hladnije_C": 0.3, "izgledi": "osrednji"}}, {"type": "Feature", "geometry": {"type": "Polygon", "coordinates": [[[18.93, 42.025], [18.91, 42.025], [18.9, 42.015], [18.89, 42.015], [18.885, 41.99], [18.89, 41.985], [18.92, 41.985], [18.935, 42.0], [18.93, 42.025]]]}, "properties": {"score_mean": 36.4, "score_max": 38.3, "area_km2": 15.7, "centroid": [18.9106, 42.0041], "razlog": "bistra voda + povoljna pridnena temperatura", "dubina_panule_m": 32.5, "sst_raspon_C": 0.8, "sst_promjena_3d_C": -0.1, "upwelling": 0.0, "hladnije_C": 0.1, "izgledi": "osrednji"}}]}