{"type": "FeatureCollection", "properties": {"vrsta": "gof", "naziv": "Gof", "latinski": "Seriola dumerili", "datum": "2026-10-11", "profil": null, "panula": {"dubina_m": [15.0, 50.0], "brzina_kn": [2.5, 4.5], "sati": "zora i prvi sati poslije nje", "granica_dubine_m": 50.0}, "vertikala": {"termoklina_m": 35.8, "termoklina_C_po_m": 0.1, "dcm_m": 78.6, "dcm_odnos": 1.0, "dcm_debljina_m": 44.5, "mld_m": 23.0, "sloj_plijena_m": [45.6, 92.1], "dohvatljivost": 0.1, "objasnjenje": "Termoklina na 36 m. Sloj plijena lezi pretezno ispod 50 m, dakle izvan dohvata panule. Najveca gustina hlorofila je na 79 m (sloj debljine 44 m) - tu se skuplja sitna riba koja se hrani planktonom, pa je i najveca vjerovatnoca da su grabljivice tu negdje."}, "bezbjednost": {"nivo": "crveno", "razlog": "talasi do 1.8 m, vjetar 18 cv, udari 24 cv", "izlazak_preporucen": false}, "napomena": "Prakticno samo SZ dio poteza (Petrovac-Bar); mutna voda obara skor.", "razlog_praznog": null}, "features": [{"type": "Feature", "geometry": {"type": "Polygon", "coordinates": [[[19.06, 42.005], [19.035, 42.0], [19.04, 41.975], [19.065, 41.98], [19.06, 42.005]]]}, "properties": {"score_mean": 34.3, "score_max": 36.6, "area_km2": 8.3, "centroid": [19.05, 41.99], "razlog": "bistra voda + povoljna pridnena temperatura", "dubina_panule_m": 32.5, "sst_raspon_C": 0.4, "sst_promjena_3d_C": 0.0, "upwelling": 0.5, "hladnije_C": 0.4, "izgledi": "osrednji"}}, {"type": "Feature", "geometry": {"type": "Polygon", "coordinates": [[[18.88, 42.165], [18.855, 42.16], [18.855, 42.13], [18.895, 42.09], [18.895, 42.08], [18.92, 42.055], [18.94, 42.055], [18.945, 42.06], [18.945, 42.1], [18.935, 42.11], [18.935, 42.12], [18.92, 42.125], [18.88, 42.165]]]}, "properties": {"score_mean": 32.4, "score_max": 39.7, "area_km2": 49.6, "centroid": [18.9024, 42.1106], "razlog": "bistra voda + povoljna pridnena temperatura", "dubina_panule_m": 32.5, "sst_raspon_C": 0.3, "sst_promjena_3d_C": 0.1, "upwelling": 0.1, "hladnije_C": 0.0, "izgledi": "osrednji"}}, {"type": "Feature", "geometry": {"type": "Polygon", "coordinates": [[[18.72, 42.265], [18.69, 42.265], [18.685, 42.26], [18.685, 42.24], [18.7, 42.225], [18.73, 42.225], [18.735, 42.23], [18.735, 42.25], [18.72, 42.265]]]}, "properties": {"score_mean": 28.6, "score_max": 35.8, "area_km2": 16.5, "centroid": [18.71, 42.245], "razlog": "bistra voda + povoljna pridnena temperatura", "dubina_panule_m": 32.5, "sst_raspon_C": 0.6, "sst_promjena_3d_C": -0.2, "upwelling": 0.0, "hladnije_C": -0.1, "izgledi": "osrednji"}}, {"type": "Feature", "geometry": {"type": "Polygon", "coordinates": [[[18.67, 41.775], [18.645, 41.77], [18.645, 41.75], [18.66, 41.735], [18.685, 41.74], [18.685, 41.76], [18.67, 41.775]]]}, "properties": {"score_mean": 2.3, "score_max": 3.1, "area_km2": 12.9, "centroid": [18.665, 41.755], "razlog": "bistra voda + povoljna pridnena temperatura", "dubina_panule_m": 32.5, "sst_raspon_C": 0.3, "sst_promjena_3d_C": 0.0, "upwelling": 0.2, "hladnije_C": 0.1, "izgledi": "vrlo slabi"}}]}