{"type": "FeatureCollection", "properties": {"vrsta": "gof", "naziv": "Gof", "latinski": "Seriola dumerili", "datum": "2026-09-15", "profil": null, "panula": {"dubina_m": [15.0, 50.0], "brzina_kn": [2.5, 4.5], "sati": "zora i prvi sati poslije nje", "granica_dubine_m": 50.0}, "vertikala": {"termoklina_m": 24.5, "termoklina_C_po_m": 0.3, "dcm_m": 97.9, "dcm_odnos": 1.0, "dcm_debljina_m": 39.8, "mld_m": 15.8, "sloj_plijena_m": [54.2, 102.9], "dohvatljivost": 0.0, "objasnjenje": "Termoklina na 24 m. Sloj plijena lezi pretezno ispod 50 m, dakle izvan dohvata panule. Najveca gustina hlorofila je na 98 m (sloj debljine 40 m) - tu se skuplja sitna riba koja se hrani planktonom, pa je i najveca vjerovatnoca da su grabljivice tu negdje."}, "bezbjednost": {"nivo": "crveno", "razlog": "vjetar 15 cv, udari 20 cv", "izlazak_preporucen": false}, "napomena": "Prakticno samo SZ dio poteza (Petrovac-Bar); mutna voda obara skor.", "razlog_praznog": null}, "features": [{"type": "Feature", "geometry": {"type": "Polygon", "coordinates": [[[19.08, 42.005], [19.055, 42.0], [19.055, 41.94], [19.045, 41.93], [19.045, 41.91], [19.065, 41.88], [19.065, 41.87], [19.08, 41.855], [19.11, 41.855], [19.12, 41.845], [19.14, 41.845], [19.145, 41.87], [19.12, 41.875], [19.095, 41.9], [19.095, 41.99], [19.08, 42.005]]]}, "properties": {"score_mean": 28.5, "score_max": 32.5, "area_km2": 68.2, "centroid": [19.0839, 41.9181], "razlog": "bistra voda + povoljna pridnena temperatura", "dubina_panule_m": 32.5, "sst_raspon_C": 0.2, "sst_promjena_3d_C": -1.0, "upwelling": 0.2, "hladnije_C": 0.1, "izgledi": "osrednji"}}, {"type": "Feature", "geometry": {"type": "Polygon", "coordinates": [[[18.945, 42.01], [18.92, 42.015], [18.915, 42.0], [18.895, 41.98], [18.895, 41.96], [18.92, 41.935], [18.945, 41.94], [18.945, 42.01]]]}, "properties": {"score_mean": 15.1, "score_max": 25.3, "area_km2": 29.5, "centroid": [18.9241, 41.9737], "razlog": "bistra voda + povoljna pridnena temperatura", "dubina_panule_m": 32.5, "sst_raspon_C": 0.8, "sst_promjena_3d_C": -0.5, "upwelling": 0.1, "hladnije_C": 0.0, "izgledi": "slabi"}}, {"type": "Feature", "geometry": {"type": "Polygon", "coordinates": [[[18.69, 42.305], [18.65, 42.305], [18.645, 42.28], [18.67, 42.255], [18.685, 42.25], [18.7, 42.215], [18.73, 42.215], [18.735, 42.22], [18.735, 42.26], [18.695, 42.27], [18.695, 42.3], [18.69, 42.305]]]}, "properties": {"score_mean": 8.3, "score_max": 20.4, "area_km2": 40.4, "centroid": [18.6925, 42.2614], "razlog": "bistra voda + povoljna pridnena temperatura", "dubina_panule_m": 32.5, "sst_raspon_C": 0.4, "sst_promjena_3d_C": -0.3, "upwelling": 0.0, "hladnije_C": -0.2, "izgledi": "vrlo slabi"}}]}