{"type": "FeatureCollection", "properties": {"vrsta": "gof", "naziv": "Gof", "latinski": "Seriola dumerili", "datum": "2026-08-30", "profil": null, "panula": {"dubina_m": [15.0, 50.0], "brzina_kn": [2.5, 4.5], "sati": "zora i prvi sati poslije nje", "granica_dubine_m": 50.0}, "vertikala": {"termoklina_m": 11.9, "termoklina_C_po_m": 0.3, "dcm_m": 91.2, "dcm_odnos": 1.0, "dcm_debljina_m": 34.9, "mld_m": 11.9, "sloj_plijena_m": [67.4, 101.8], "dohvatljivost": 0.0, "objasnjenje": "Termoklina na 12 m. Sloj plijena lezi pretezno ispod 50 m, dakle izvan dohvata panule. Najveca gustina hlorofila je na 91 m (sloj debljine 35 m) - tu se skuplja sitna riba koja se hrani planktonom, pa je i najveca vjerovatnoca da su grabljivice tu negdje."}, "bezbjednost": {"nivo": "zuto", "razlog": "vjetar 12 cv", "izlazak_preporucen": true}, "napomena": "Prakticno samo SZ dio poteza (Petrovac-Bar); mutna voda obara skor.", "razlog_praznog": null}, "features": [{"type": "Feature", "geometry": {"type": "Polygon", "coordinates": [[[19.2, 41.885], [19.18, 41.885], [19.175, 41.86], [19.2, 41.835], [19.23, 41.835], [19.235, 41.86], [19.2, 41.885]]]}, "properties": {"score_mean": 21.4, "score_max": 29.7, "area_km2": 21.2, "centroid": [19.2048, 41.8591], "razlog": "bistra voda + povoljna pridnena temperatura", "dubina_panule_m": 32.5, "sst_raspon_C": 0.7, "sst_promjena_3d_C": -0.5, "upwelling": 0.4, "hladnije_C": 0.3, "izgledi": "slabi"}}, {"type": "Feature", "geometry": {"type": "Polygon", "coordinates": [[[18.94, 42.135], [18.915, 42.13], [18.92, 42.105], [18.945, 42.11], [18.94, 42.135]]]}, "properties": {"score_mean": 18.6, "score_max": 19.3, "area_km2": 8.3, "centroid": [18.93, 42.12], "razlog": "bistra voda + povoljna pridnena temperatura", "dubina_panule_m": 32.5, "sst_raspon_C": 0.4, "sst_promjena_3d_C": -0.1, "upwelling": 0.1, "hladnije_C": 0.0, "izgledi": "slabi"}}, {"type": "Feature", "geometry": {"type": "Polygon", "coordinates": [[[19.07, 42.025], [19.045, 42.02], [19.045, 41.95], [19.06, 41.935], [19.075, 41.93], [19.075, 41.92], [19.09, 41.905], [19.11, 41.905], [19.115, 41.91], [19.115, 41.94], [19.105, 41.95], [19.105, 41.97], [19.095, 41.98], [19.095, 42.01], [19.07, 42.025]]]}, "properties": {"score_mean": 14.2, "score_max": 21.2, "area_km2": 53.4, "centroid": [19.0776, 41.9657], "razlog": "bistra voda + povoljna pridnena temperatura", "dubina_panule_m": 32.5, "sst_raspon_C": 0.4, "sst_promjena_3d_C": -0.0, "upwelling": 0.0, "hladnije_C": 0.0, "izgledi": "slabi"}}, {"type": "Feature", "geometry": {"type": "Polygon", "coordinates": [[[18.68, 42.285], [18.66, 42.285], [18.655, 42.26], [18.7, 42.205], [18.73, 42.205], [18.735, 42.21], [18.735, 42.24], [18.71, 42.245], [18.705, 42.27], [18.68, 42.285]]]}, "properties": {"score_mean": 3.7, "score_max": 16.9, "area_km2": 34.9, "centroid": [18.6953, 42.2434], "razlog": "bistra voda + povoljna pridnena temperatura", "dubina_panule_m": 32.5, "sst_raspon_C": 0.4, "sst_promjena_3d_C": -0.2, "upwelling": 0.0, "hladnije_C": -0.0, "izgledi": "vrlo slabi"}}]}