{"type": "FeatureCollection", "properties": {"vrsta": "gof", "naziv": "Gof", "latinski": "Seriola dumerili", "datum": "2026-09-23", "profil": null, "panula": {"dubina_m": [15.0, 50.0], "brzina_kn": [2.5, 4.5], "sati": "zora i prvi sati poslije nje", "granica_dubine_m": 50.0}, "vertikala": {"termoklina_m": 28.0, "termoklina_C_po_m": 0.2, "dcm_m": 97.9, "dcm_odnos": 1.0, "dcm_debljina_m": 39.8, "mld_m": 20.7, "sloj_plijena_m": [61.2, 109.0], "dohvatljivost": 0.0, "objasnjenje": "Termoklina na 28 m. Sloj plijena lezi pretezno ispod 50 m, dakle izvan dohvata panule. Najveca gustina hlorofila je na 98 m (sloj debljine 40 m) - tu se skuplja sitna riba koja se hrani planktonom, pa je i najveca vjerovatnoca da su grabljivice tu negdje."}, "bezbjednost": {"nivo": "crveno", "razlog": "talasi do 1.6 m, vjetar 16 cv, udari 26 cv", "izlazak_preporucen": false}, "napomena": "Prakticno samo SZ dio poteza (Petrovac-Bar); mutna voda obara skor.", "razlog_praznog": null}, "features": [{"type": "Feature", "geometry": {"type": "Polygon", "coordinates": [[[19.1, 41.915], [19.075, 41.91], [19.08, 41.885], [19.105, 41.89], [19.1, 41.915]]]}, "properties": {"score_mean": 42.2, "score_max": 44.9, "area_km2": 8.3, "centroid": [19.09, 41.9], "razlog": "bistra voda + povoljna pridnena temperatura", "dubina_panule_m": 32.5, "sst_raspon_C": 0.5, "sst_promjena_3d_C": 0.3, "upwelling": 0.0, "hladnije_C": 0.0, "izgledi": "dobri"}}, {"type": "Feature", "geometry": {"type": "Polygon", "coordinates": [[[18.93, 42.125], [18.9, 42.125], [18.895, 42.12], [18.895, 42.1], [18.905, 42.09], [18.905, 42.08], [18.935, 42.05], [18.93, 42.045], [18.9, 42.045], [18.885, 42.03], [18.885, 41.99], [18.91, 41.975], [18.94, 41.975], [18.955, 41.99], [18.955, 42.01], [18.945, 42.02], [18.95, 42.045], [18.99, 42.045], [18.995, 42.05], [18.995, 42.07], [18.98, 42.085], [18.96, 42.085], [18.93, 42.125]]]}, "properties": {"score_mean": 39.5, "score_max": 55.0, "area_km2": 82.8, "centroid": [18.9313, 42.048], "razlog": "bistra voda + povoljna pridnena temperatura", "dubina_panule_m": 32.5, "sst_raspon_C": 0.2, "sst_promjena_3d_C": 0.1, "upwelling": 0.0, "hladnije_C": -0.0, "izgledi": "osrednji"}}]}