{"type": "FeatureCollection", "properties": {"vrsta": "gof", "naziv": "Gof", "latinski": "Seriola dumerili", "datum": "2026-09-11", "profil": null, "panula": {"dubina_m": [15.0, 50.0], "brzina_kn": [2.5, 4.5], "sati": "zora i prvi sati poslije nje", "granica_dubine_m": 50.0}, "vertikala": {"termoklina_m": 17.8, "termoklina_C_po_m": 0.3, "dcm_m": 97.9, "dcm_odnos": 1.0, "dcm_debljina_m": 44.5, "mld_m": 11.9, "sloj_plijena_m": [54.2, 106.9], "dohvatljivost": 0.0, "objasnjenje": "Termoklina na 18 m. Sloj plijena lezi pretezno ispod 50 m, dakle izvan dohvata panule. Najveca gustina hlorofila je na 98 m (sloj debljine 44 m) - tu se skuplja sitna riba koja se hrani planktonom, pa je i najveca vjerovatnoca da su grabljivice tu negdje."}, "bezbjednost": {"nivo": "zuto", "razlog": "vjetar 12 cv", "izlazak_preporucen": true}, "napomena": "Prakticno samo SZ dio poteza (Petrovac-Bar); mutna voda obara skor.", "razlog_praznog": null}, "features": [{"type": "Feature", "geometry": {"type": "Polygon", "coordinates": [[[19.11, 41.885], [19.085, 41.88], [19.085, 41.85], [19.12, 41.815], [19.14, 41.815], [19.145, 41.82], [19.145, 41.87], [19.12, 41.875], [19.11, 41.885]]]}, "properties": {"score_mean": 16.2, "score_max": 21.3, "area_km2": 30.5, "centroid": [19.117, 41.8515], "razlog": "bistra voda + povoljna pridnena temperatura", "dubina_panule_m": 32.5, "sst_raspon_C": 0.7, "sst_promjena_3d_C": -0.4, "upwelling": 0.0, "hladnije_C": 0.1, "izgledi": "slabi"}}, {"type": "Feature", "geometry": {"type": "Polygon", "coordinates": [[[18.94, 41.965], [18.91, 41.965], [18.905, 41.96], [18.905, 41.93], [18.925, 41.91], [18.925, 41.9], [18.93, 41.895], [18.99, 41.895], [19.005, 41.91], [19.005, 41.93], [18.995, 41.94], [18.995, 41.95], [18.99, 41.955], [18.95, 41.955], [18.94, 41.965]]]}, "properties": {"score_mean": 15.0, "score_max": 16.9, "area_km2": 51.6, "centroid": [18.9541, 41.9287], "razlog": "bistra voda + povoljna pridnena temperatura", "dubina_panule_m": 32.5, "sst_raspon_C": 0.5, "sst_promjena_3d_C": -0.1, "upwelling": 0.2, "hladnije_C": 0.3, "izgledi": "slabi"}}, {"type": "Feature", "geometry": {"type": "Polygon", "coordinates": [[[18.69, 42.305], [18.65, 42.305], [18.645, 42.28], [18.685, 42.24], [18.685, 42.23], [18.7, 42.215], [18.73, 42.215], [18.735, 42.22], [18.735, 42.26], [18.71, 42.265], [18.7, 42.275], [18.69, 42.305]]]}, "properties": {"score_mean": 5.4, "score_max": 13.7, "area_km2": 43.1, "centroid": [18.6923, 42.2606], "razlog": "bistra voda + povoljna pridnena temperatura", "dubina_panule_m": 32.5, "sst_raspon_C": 0.5, "sst_promjena_3d_C": -0.1, "upwelling": 0.0, "hladnije_C": -0.2, "izgledi": "vrlo slabi"}}]}