{"type": "FeatureCollection", "properties": {"vrsta": "gof", "naziv": "Gof", "latinski": "Seriola dumerili", "datum": "2026-08-22", "panula": {"dubina_m": [15.0, 50.0], "brzina_kn": [2.5, 4.5], "granica_dubine_m": 50.0}, "vertikala": {"termoklina_m": 4.3, "termoklina_C_po_m": 0.5, "dcm_m": 91.2, "dcm_odnos": 1.0, "mld_m": 11.9, "sloj_plijena_m": [61.2, 121.2], "dohvatljivost": 0.0, "objasnjenje": "Termoklina na 4 m, sloj plijena oko 91 m — ispod dohvata panule od 50 m."}, "bezbjednost": {"nivo": "zuto", "razlog": "vjetar 12 cv", "izlazak_preporucen": true}, "napomena": "Prakticno samo SZ dio poteza (Petrovac-Bar); mutna voda obara skor."}, "features": [{"type": "Feature", "geometry": {"type": "Polygon", "coordinates": [[[19.22, 41.885], [19.17, 41.885], [19.165, 41.88], [19.165, 41.86], [19.19, 41.835], [19.2, 41.835], [19.21, 41.825], [19.235, 41.83], [19.235, 41.87], [19.22, 41.885]]]}, "properties": {"score_mean": 21.6, "score_max": 35.7, "area_km2": 31.4, "centroid": [19.2032, 41.8582], "razlog": "povoljna dubina + struktura dna", "dubina_panule_m": 32.5}}, {"type": "Feature", "geometry": {"type": "Polygon", "coordinates": [[[19.0, 42.095], [18.975, 42.09], [18.98, 42.065], [19.005, 42.07], [19.0, 42.095]]]}, "properties": {"score_mean": 20.9, "score_max": 23.4, "area_km2": 8.3, "centroid": [18.99, 42.08], "razlog": "povoljna dubina + struktura dna", "dubina_panule_m": 32.5}}, {"type": "Feature", "geometry": {"type": "Polygon", "coordinates": [[[19.08, 41.995], [19.05, 41.995], [19.045, 41.99], [19.045, 41.96], [19.09, 41.915], [19.11, 41.915], [19.115, 41.92], [19.115, 41.95], [19.085, 41.98], [19.08, 41.995]]]}, "properties": {"score_mean": 17.6, "score_max": 25.3, "area_km2": 34.1, "centroid": [19.08, 41.9559], "razlog": "povoljna dubina + ivica struje", "dubina_panule_m": 32.5}}, {"type": "Feature", "geometry": {"type": "Polygon", "coordinates": [[[19.41, 41.675], [19.385, 41.67], [19.385, 41.64], [19.39, 41.635], [19.42, 41.635], [19.425, 41.64], [19.425, 41.66], [19.41, 41.675]]]}, "properties": {"score_mean": 11.9, "score_max": 13.1, "area_km2": 13.9, "centroid": [19.404, 41.654], "razlog": "povoljna dubina + prisustvo mamca", "dubina_panule_m": 32.5}}]}