{"type": "FeatureCollection", "properties": {"vrsta": "gof", "naziv": "Gof", "latinski": "Seriola dumerili", "datum": "2026-09-29", "profil": null, "panula": {"dubina_m": [15.0, 50.0], "brzina_kn": [2.5, 4.5], "sati": "zora i prvi sati poslije nje", "granica_dubine_m": 50.0}, "vertikala": {"termoklina_m": 35.8, "termoklina_C_po_m": 0.2, "dcm_m": 97.9, "dcm_odnos": 1.0, "dcm_debljina_m": 38.0, "mld_m": 20.8, "sloj_plijena_m": [71.4, 108.5], "dohvatljivost": 0.0, "objasnjenje": "Termoklina na 36 m. Sloj plijena lezi pretezno ispod 50 m, dakle izvan dohvata panule. Najveca gustina hlorofila je na 98 m (sloj debljine 38 m) - tu se skuplja sitna riba koja se hrani planktonom, pa je i najveca vjerovatnoca da su grabljivice tu negdje."}, "bezbjednost": {"nivo": "zuto", "razlog": "vjetar 12 cv", "izlazak_preporucen": true}, "napomena": "Prakticno samo SZ dio poteza (Petrovac-Bar); mutna voda obara skor.", "razlog_praznog": null}, "features": [{"type": "Feature", "geometry": {"type": "Polygon", "coordinates": [[[18.86, 42.215], [18.835, 42.21], [18.84, 42.185], [18.865, 42.19], [18.86, 42.215]]]}, "properties": {"score_mean": 44.1, "score_max": 48.5, "area_km2": 8.3, "centroid": [18.85, 42.2], "razlog": "bistra voda + povoljna pridnena temperatura", "dubina_panule_m": 32.5, "sst_raspon_C": 0.2, "sst_promjena_3d_C": 0.0, "upwelling": 0.2, "hladnije_C": 0.2, "izgledi": "dobri"}}, {"type": "Feature", "geometry": {"type": "Polygon", "coordinates": [[[18.9, 42.175], [18.875, 42.17], [18.88, 42.145], [18.905, 42.15], [18.9, 42.175]]]}, "properties": {"score_mean": 43.8, "score_max": 46.2, "area_km2": 8.3, "centroid": [18.89, 42.16], "razlog": "bistra voda + povoljna pridnena temperatura", "dubina_panule_m": 32.5, "sst_raspon_C": 0.5, "sst_promjena_3d_C": 0.0, "upwelling": 0.0, "hladnije_C": 0.0, "izgledi": "dobri"}}, {"type": "Feature", "geometry": {"type": "Polygon", "coordinates": [[[18.69, 42.305], [18.665, 42.3], [18.67, 42.275], [18.695, 42.28], [18.69, 42.305]]]}, "properties": {"score_mean": 42.1, "score_max": 49.4, "area_km2": 8.3, "centroid": [18.68, 42.29], "razlog": "bistra voda + povoljna pridnena temperatura", "dubina_panule_m": 32.5, "sst_raspon_C": 0.6, "sst_promjena_3d_C": 0.0, "upwelling": 0.0, "hladnije_C": -0.1, "izgledi": "dobri"}}, {"type": "Feature", "geometry": {"type": "Polygon", "coordinates": [[[18.95, 42.085], [18.93, 42.085], [18.925, 42.06], [18.91, 42.055], [18.895, 42.04], [18.895, 42.02], [18.92, 41.995], [18.945, 42.0], [18.945, 42.04], [18.965, 42.05], [18.965, 42.07], [18.95, 42.085]]]}, "properties": {"score_mean": 41.9, "score_max": 47.5, "area_km2": 35.9, "centroid": [18.9303, 42.0397], "razlog": "bistra voda + povoljna pridnena temperatura", "dubina_panule_m": 32.5, "sst_raspon_C": 0.2, "sst_promjena_3d_C": 0.0, "upwelling": 0.0, "hladnije_C": 0.0, "izgledi": "dobri"}}, {"type": "Feature", "geometry": {"type": "Polygon", "coordinates": [[[18.73, 42.265], [18.7, 42.265], [18.695, 42.26], [18.695, 42.23], [18.7, 42.225], [18.73, 42.225], [18.735, 42.23], [18.735, 42.26], [18.73, 42.265]]]}, "properties": {"score_mean": 33.0, "score_max": 45.4, "area_km2": 14.7, "centroid": [18.715, 42.245], "razlog": "bistra voda + povoljna pridnena temperatura", "dubina_panule_m": 32.5, "sst_raspon_C": 0.6, "sst_promjena_3d_C": 0.0, "upwelling": 0.0, "hladnije_C": 0.0, "izgledi": "osrednji"}}]}