{"type": "FeatureCollection", "properties": {"vrsta": "gof", "naziv": "Gof", "latinski": "Seriola dumerili", "datum": "2026-09-13", "profil": null, "panula": {"dubina_m": [15.0, 50.0], "brzina_kn": [2.5, 4.5], "sati": "zora i prvi sati poslije nje", "granica_dubine_m": 50.0}, "vertikala": {"termoklina_m": 17.8, "termoklina_C_po_m": 0.2, "dcm_m": 97.9, "dcm_odnos": 1.0, "dcm_debljina_m": 42.1, "mld_m": 11.9, "sloj_plijena_m": [50.3, 99.4], "dohvatljivost": 0.0, "objasnjenje": "Termoklina na 18 m. Sloj plijena lezi pretezno ispod 50 m, dakle izvan dohvata panule. Najveca gustina hlorofila je na 98 m (sloj debljine 42 m) - tu se skuplja sitna riba koja se hrani planktonom, pa je i najveca vjerovatnoca da su grabljivice tu negdje."}, "bezbjednost": {"nivo": "zuto", "razlog": "vjetar 15 cv", "izlazak_preporucen": true}, "napomena": "Prakticno samo SZ dio poteza (Petrovac-Bar); mutna voda obara skor.", "razlog_praznog": null}, "features": [{"type": "Feature", "geometry": {"type": "Polygon", "coordinates": [[[19.1, 41.905], [19.07, 41.905], [19.065, 41.9], [19.065, 41.87], [19.08, 41.845], [19.11, 41.845], [19.115, 41.85], [19.115, 41.89], [19.1, 41.905]]]}, "properties": {"score_mean": 26.9, "score_max": 30.7, "area_km2": 24.9, "centroid": [19.0907, 41.8756], "razlog": "bistra voda + povoljna pridnena temperatura", "dubina_panule_m": 32.5, "sst_raspon_C": 1.0, "sst_promjena_3d_C": -0.8, "upwelling": 0.6, "hladnije_C": 0.5, "izgledi": "osrednji"}}, {"type": "Feature", "geometry": {"type": "Polygon", "coordinates": [[[18.94, 42.005], [18.91, 42.005], [18.9, 41.995], [18.88, 41.995], [18.87, 41.985], [18.86, 41.985], [18.855, 41.96], [18.89, 41.935], [18.94, 41.925], [18.945, 41.93], [18.945, 42.0], [18.94, 42.005]]]}, "properties": {"score_mean": 13.0, "score_max": 16.8, "area_km2": 50.7, "centroid": [18.9071, 41.9664], "razlog": "bistra voda + povoljna pridnena temperatura", "dubina_panule_m": 32.5, "sst_raspon_C": 0.6, "sst_promjena_3d_C": -0.4, "upwelling": 0.4, "hladnije_C": 0.3, "izgledi": "slabi"}}, {"type": "Feature", "geometry": {"type": "Polygon", "coordinates": [[[18.69, 42.305], [18.65, 42.305], [18.645, 42.28], [18.71, 42.215], [18.73, 42.215], [18.735, 42.22], [18.735, 42.26], [18.71, 42.265], [18.7, 42.275], [18.69, 42.305]]]}, "properties": {"score_mean": 5.4, "score_max": 13.7, "area_km2": 41.3, "centroid": [18.6922, 42.2622], "razlog": "bistra voda + povoljna pridnena temperatura", "dubina_panule_m": 32.5, "sst_raspon_C": 0.5, "sst_promjena_3d_C": 0.0, "upwelling": 0.0, "hladnije_C": -0.1, "izgledi": "vrlo slabi"}}]}