{"type": "FeatureCollection", "properties": {"vrsta": "gof", "naziv": "Gof", "latinski": "Seriola dumerili", "datum": "2026-09-03", "profil": null, "panula": {"dubina_m": [15.0, 50.0], "brzina_kn": [2.5, 4.5], "sati": "zora i prvi sati poslije nje", "granica_dubine_m": 50.0}, "vertikala": {"termoklina_m": 14.8, "termoklina_C_po_m": 0.3, "dcm_m": 91.2, "dcm_odnos": 1.0, "dcm_debljina_m": 34.9, "mld_m": 11.9, "sloj_plijena_m": [64.2, 101.8], "dohvatljivost": 0.0, "objasnjenje": "Termoklina na 15 m. Sloj plijena lezi pretezno ispod 50 m, dakle izvan dohvata panule. Najveca gustina hlorofila je na 91 m (sloj debljine 35 m) - tu se skuplja sitna riba koja se hrani planktonom, pa je i najveca vjerovatnoca da su grabljivice tu negdje."}, "bezbjednost": {"nivo": "zuto", "razlog": "vjetar 14 cv", "izlazak_preporucen": true}, "napomena": "Prakticno samo SZ dio poteza (Petrovac-Bar); mutna voda obara skor.", "razlog_praznog": null}, "features": [{"type": "Feature", "geometry": {"type": "Polygon", "coordinates": [[[19.23, 41.885], [19.2, 41.885], [19.195, 41.88], [19.195, 41.85], [19.22, 41.825], [19.23, 41.825], [19.24, 41.815], [19.28, 41.815], [19.285, 41.84], [19.28, 41.845], [19.25, 41.845], [19.235, 41.86], [19.23, 41.885]]]}, "properties": {"score_mean": 8.2, "score_max": 18.7, "area_km2": 34.2, "centroid": [19.2349, 41.8465], "razlog": "bistra voda + povoljna pridnena temperatura", "dubina_panule_m": 32.5, "sst_raspon_C": 1.5, "sst_promjena_3d_C": 0.0, "upwelling": 0.2, "hladnije_C": 0.8, "izgledi": "vrlo slabi"}}, {"type": "Feature", "geometry": {"type": "Polygon", "coordinates": [[[19.09, 42.005], [19.06, 42.005], [19.055, 42.0], [19.055, 41.96], [19.07, 41.945], [19.09, 41.945], [19.105, 41.97], [19.105, 41.99], [19.09, 42.005]]]}, "properties": {"score_mean": 7.3, "score_max": 12.7, "area_km2": 24.0, "centroid": [19.0785, 41.9765], "razlog": "bistra voda + povoljna pridnena temperatura", "dubina_panule_m": 32.5, "sst_raspon_C": 1.1, "sst_promjena_3d_C": 0.0, "upwelling": 0.6, "hladnije_C": 0.3, "izgledi": "vrlo slabi"}}]}