{"type": "FeatureCollection", "properties": {"vrsta": "gof", "naziv": "Gof", "latinski": "Seriola dumerili", "datum": "2026-08-24", "profil": null, "panula": {"dubina_m": [15.0, 50.0], "brzina_kn": [2.5, 4.5], "sati": "zora i prvi sati poslije nje", "granica_dubine_m": 50.0}, "vertikala": {"termoklina_m": 11.9, "termoklina_C_po_m": 0.1, "dcm_m": 91.2, "dcm_odnos": 1.0, "dcm_debljina_m": 38.0, "mld_m": 11.9, "sloj_plijena_m": [64.7, 104.5], "dohvatljivost": 0.0, "objasnjenje": "Termoklina na 12 m. Sloj plijena lezi pretezno ispod 50 m, dakle izvan dohvata panule. Najveca gustina hlorofila je na 91 m (sloj debljine 38 m) - tu se skuplja sitna riba koja se hrani planktonom, pa je i najveca vjerovatnoca da su grabljivice tu negdje."}, "bezbjednost": {"nivo": "crveno", "razlog": "vjetar 17 cv, udari 23 cv", "izlazak_preporucen": false}, "napomena": "Prakticno samo SZ dio poteza (Petrovac-Bar); mutna voda obara skor.", "razlog_praznog": null}, "features": [{"type": "Feature", "geometry": {"type": "Polygon", "coordinates": [[[19.18, 41.885], [19.14, 41.885], [19.135, 41.86], [19.16, 41.845], [19.17, 41.825], [19.18, 41.825], [19.19, 41.815], [19.22, 41.815], [19.235, 41.84], [19.235, 41.86], [19.21, 41.865], [19.2, 41.845], [19.195, 41.87], [19.18, 41.885]]]}, "properties": {"score_mean": 8.0, "score_max": 16.9, "area_km2": 40.6, "centroid": [19.1861, 41.8511], "razlog": "povoljna dubina + struktura dna", "dubina_panule_m": 32.5, "sst_raspon_C": 1.2, "sst_promjena_3d_C": 1.0, "upwelling": 0.0, "hladnije_C": -0.0, "izgledi": "vrlo slabi"}}, {"type": "Feature", "geometry": {"type": "Polygon", "coordinates": [[[18.72, 42.255], [18.7, 42.255], [18.665, 42.23], [18.665, 42.21], [18.68, 42.195], [18.74, 42.195], [18.745, 42.2], [18.745, 42.22], [18.72, 42.255]]]}, "properties": {"score_mean": 3.6, "score_max": 20.9, "area_km2": 35.8, "centroid": [18.7054, 42.2215], "razlog": "struktura dna + ivica struje", "dubina_panule_m": 32.5, "sst_raspon_C": 1.0, "sst_promjena_3d_C": -0.0, "upwelling": 0.0, "hladnije_C": -0.2, "izgledi": "vrlo slabi"}}, {"type": "Feature", "geometry": {"type": "Polygon", "coordinates": [[[18.99, 42.075], [18.94, 42.075], [18.935, 42.05], [18.94, 42.045], [18.99, 42.045], [18.995, 42.05], [18.99, 42.075]]]}, "properties": {"score_mean": 2.4, "score_max": 9.5, "area_km2": 16.6, "centroid": [18.965, 42.06], "razlog": "povoljna dubina + struktura dna", "dubina_panule_m": 32.5, "sst_raspon_C": 0.5, "sst_promjena_3d_C": 0.5, "upwelling": 0.0, "hladnije_C": -0.0, "izgledi": "vrlo slabi"}}]}