{"type": "FeatureCollection", "properties": {"vrsta": "gof", "naziv": "Gof", "latinski": "Seriola dumerili", "datum": "2026-10-03", "profil": null, "panula": {"dubina_m": [15.0, 50.0], "brzina_kn": [2.5, 4.5], "sati": "zora i prvi sati poslije nje", "granica_dubine_m": 50.0}, "vertikala": {"termoklina_m": 40.0, "termoklina_C_po_m": 0.1, "dcm_m": 97.9, "dcm_odnos": 1.0, "dcm_debljina_m": 39.6, "mld_m": 21.9, "sloj_plijena_m": [68.1, 111.8], "dohvatljivost": 0.0, "objasnjenje": "Termoklina na 40 m. Sloj plijena lezi pretezno ispod 50 m, dakle izvan dohvata panule. Najveca gustina hlorofila je na 98 m (sloj debljine 40 m) - tu se skuplja sitna riba koja se hrani planktonom, pa je i najveca vjerovatnoca da su grabljivice tu negdje."}, "bezbjednost": {"nivo": "zuto", "razlog": "talasi do 1.3 m", "izlazak_preporucen": true}, "napomena": "Prakticno samo SZ dio poteza (Petrovac-Bar); mutna voda obara skor.", "razlog_praznog": null}, "features": [{"type": "Feature", "geometry": {"type": "Polygon", "coordinates": [[[18.86, 42.215], [18.835, 42.21], [18.84, 42.185], [18.865, 42.19], [18.86, 42.215]]]}, "properties": {"score_mean": 36.7, "score_max": 39.9, "area_km2": 8.3, "centroid": [18.85, 42.2], "razlog": "bistra voda + povoljna pridnena temperatura", "dubina_panule_m": 32.5, "sst_raspon_C": 1.2, "sst_promjena_3d_C": -0.2, "upwelling": 0.1, "hladnije_C": 0.1, "izgledi": "osrednji"}}, {"type": "Feature", "geometry": {"type": "Polygon", "coordinates": [[[19.05, 42.045], [19.025, 42.04], [19.025, 42.02], [19.04, 42.005], [19.065, 42.01], [19.065, 42.03], [19.05, 42.045]]]}, "properties": {"score_mean": 32.6, "score_max": 39.9, "area_km2": 12.9, "centroid": [19.045, 42.025], "razlog": "bistra voda + povoljna pridnena temperatura", "dubina_panule_m": 32.5, "sst_raspon_C": 0.9, "sst_promjena_3d_C": 0.1, "upwelling": 0.0, "hladnije_C": -0.1, "izgledi": "osrednji"}}, {"type": "Feature", "geometry": {"type": "Polygon", "coordinates": [[[18.69, 42.305], [18.665, 42.3], [18.665, 42.27], [18.67, 42.265], [18.695, 42.27], [18.695, 42.3], [18.69, 42.305]]]}, "properties": {"score_mean": 27.5, "score_max": 42.4, "area_km2": 11.0, "centroid": [18.68, 42.285], "razlog": "bistra voda + povoljna pridnena temperatura", "dubina_panule_m": 32.5, "sst_raspon_C": 0.4, "sst_promjena_3d_C": -0.3, "upwelling": 0.0, "hladnije_C": 0.0, "izgledi": "osrednji"}}, {"type": "Feature", "geometry": {"type": "Polygon", "coordinates": [[[18.94, 42.135], [18.91, 42.135], [18.905, 42.13], [18.905, 42.11], [18.92, 42.095], [18.945, 42.1], [18.945, 42.13], [18.94, 42.135]]]}, "properties": {"score_mean": 26.0, "score_max": 43.4, "area_km2": 13.8, "centroid": [18.926, 42.116], "razlog": "bistra voda + povoljna pridnena temperatura", "dubina_panule_m": 32.5, "sst_raspon_C": 1.5, "sst_promjena_3d_C": 0.3, "upwelling": 0.1, "hladnije_C": 0.2, "izgledi": "osrednji"}}, {"type": "Feature", "geometry": {"type": "Polygon", "coordinates": [[[18.9, 42.175], [18.87, 42.175], [18.865, 42.17], [18.865, 42.15], [18.88, 42.135], [18.905, 42.14], [18.905, 42.17], [18.9, 42.175]]]}, "properties": {"score_mean": 23.7, "score_max": 41.7, "area_km2": 13.8, "centroid": [18.886, 42.156], "razlog": "bistra voda + povoljna pridnena temperatura", "dubina_panule_m": 32.5, "sst_raspon_C": 1.4, "sst_promjena_3d_C": 0.1, "upwelling": 0.0, "hladnije_C": -0.1, "izgledi": "slabi"}}, {"type": "Feature", "geometry": {"type": "Polygon", "coordinates": [[[18.73, 42.265], [18.7, 42.265], [18.695, 42.26], [18.695, 42.23], [18.71, 42.215], [18.735, 42.22], [18.735, 42.26], [18.73, 42.265]]]}, "properties": {"score_mean": 23.2, "score_max": 37.3, "area_km2": 17.4, "centroid": [18.7158, 42.2411], "razlog": "bistra voda + povoljna pridnena temperatura", "dubina_panule_m": 32.5, "sst_raspon_C": 0.6, "sst_promjena_3d_C": -0.5, "upwelling": 0.0, "hladnije_C": 0.1, "izgledi": "slabi"}}]}