{"type": "FeatureCollection", "properties": {"vrsta": "gof", "naziv": "Gof", "latinski": "Seriola dumerili", "datum": "2026-09-19", "profil": null, "panula": {"dubina_m": [15.0, 50.0], "brzina_kn": [2.5, 4.5], "sati": "zora i prvi sati poslije nje", "granica_dubine_m": 50.0}, "vertikala": {"termoklina_m": 24.5, "termoklina_C_po_m": 0.2, "dcm_m": 97.9, "dcm_odnos": 1.0, "dcm_debljina_m": 38.1, "mld_m": 13.1, "sloj_plijena_m": [59.4, 106.0], "dohvatljivost": 0.0, "objasnjenje": "Termoklina na 24 m. Sloj plijena lezi pretezno ispod 50 m, dakle izvan dohvata panule. Najveca gustina hlorofila je na 98 m (sloj debljine 38 m) - tu se skuplja sitna riba koja se hrani planktonom, pa je i najveca vjerovatnoca da su grabljivice tu negdje."}, "bezbjednost": {"nivo": "zuto", "razlog": "vjetar 11 cv", "izlazak_preporucen": true}, "napomena": "Prakticno samo SZ dio poteza (Petrovac-Bar); mutna voda obara skor.", "razlog_praznog": null}, "features": [{"type": "Feature", "geometry": {"type": "Polygon", "coordinates": [[[19.05, 42.035], [19.01, 42.035], [19.005, 42.01], [19.03, 42.005], [19.045, 41.99], [19.045, 41.97], [19.07, 41.945], [19.09, 41.945], [19.105, 41.97], [19.105, 41.99], [19.09, 42.005], [19.08, 42.005], [19.05, 42.035]]]}, "properties": {"score_mean": 40.3, "score_max": 48.8, "area_km2": 45.1, "centroid": [19.0596, 41.9933], "razlog": "bistra voda + povoljna pridnena temperatura", "dubina_panule_m": 32.5, "sst_raspon_C": 0.8, "sst_promjena_3d_C": -0.4, "upwelling": 0.0, "hladnije_C": 0.3, "izgledi": "dobri"}}, {"type": "Feature", "geometry": {"type": "Polygon", "coordinates": [[[18.73, 42.265], [18.705, 42.26], [18.705, 42.23], [18.71, 42.225], [18.735, 42.23], [18.735, 42.26], [18.73, 42.265]]]}, "properties": {"score_mean": 37.9, "score_max": 39.3, "area_km2": 11.0, "centroid": [18.72, 42.245], "razlog": "bistra voda + povoljna pridnena temperatura", "dubina_panule_m": 32.5, "sst_raspon_C": 0.4, "sst_promjena_3d_C": -0.2, "upwelling": 0.0, "hladnije_C": -0.1, "izgledi": "osrednji"}}, {"type": "Feature", "geometry": {"type": "Polygon", "coordinates": [[[18.69, 42.305], [18.665, 42.3], [18.67, 42.275], [18.695, 42.28], [18.69, 42.305]]]}, "properties": {"score_mean": 36.9, "score_max": 42.0, "area_km2": 8.3, "centroid": [18.68, 42.29], "razlog": "bistra voda + povoljna pridnena temperatura", "dubina_panule_m": 32.5, "sst_raspon_C": 0.5, "sst_promjena_3d_C": -0.4, "upwelling": 0.0, "hladnije_C": -0.2, "izgledi": "osrednji"}}, {"type": "Feature", "geometry": {"type": "Polygon", "coordinates": [[[18.905, 42.06], [18.88, 42.065], [18.87, 42.055], [18.85, 42.055], [18.825, 42.04], [18.825, 42.02], [18.86, 41.985], [18.89, 41.985], [18.905, 42.0], [18.905, 42.06]]]}, "properties": {"score_mean": 35.5, "score_max": 38.5, "area_km2": 46.0, "centroid": [18.8704, 42.0246], "razlog": "bistra voda + povoljna pridnena temperatura", "dubina_panule_m": 32.5, "sst_raspon_C": 0.7, "sst_promjena_3d_C": -0.8, "upwelling": 0.0, "hladnije_C": 0.4, "izgledi": "osrednji"}}]}