{"type": "FeatureCollection", "properties": {"vrsta": "gof", "naziv": "Gof", "latinski": "Seriola dumerili", "datum": "2026-09-14", "profil": null, "panula": {"dubina_m": [15.0, 50.0], "brzina_kn": [2.5, 4.5], "sati": "zora i prvi sati poslije nje", "granica_dubine_m": 50.0}, "vertikala": {"termoklina_m": 21.1, "termoklina_C_po_m": 0.3, "dcm_m": 97.9, "dcm_odnos": 1.0, "dcm_debljina_m": 41.3, "mld_m": 14.2, "sloj_plijena_m": [52.7, 102.9], "dohvatljivost": 0.0, "objasnjenje": "Termoklina na 21 m. Sloj plijena lezi pretezno ispod 50 m, dakle izvan dohvata panule. Najveca gustina hlorofila je na 98 m (sloj debljine 41 m) - tu se skuplja sitna riba koja se hrani planktonom, pa je i najveca vjerovatnoca da su grabljivice tu negdje."}, "bezbjednost": {"nivo": "crveno", "razlog": "talasi do 1.1 m, vjetar 15 cv, udari 21 cv", "izlazak_preporucen": false}, "napomena": "Prakticno samo SZ dio poteza (Petrovac-Bar); mutna voda obara skor.", "razlog_praznog": null}, "features": [{"type": "Feature", "geometry": {"type": "Polygon", "coordinates": [[[19.1, 41.905], [19.08, 41.905], [19.065, 41.89], [19.08, 41.815], [19.11, 41.815], [19.12, 41.825], [19.145, 41.83], [19.145, 41.87], [19.13, 41.875], [19.1, 41.905]]]}, "properties": {"score_mean": 15.1, "score_max": 18.0, "area_km2": 49.8, "centroid": [19.1035, 41.858], "razlog": "bistra voda + povoljna pridnena temperatura", "dubina_panule_m": 32.5, "sst_raspon_C": 0.3, "sst_promjena_3d_C": 0.8, "upwelling": 0.5, "hladnije_C": 0.2, "izgledi": "slabi"}}, {"type": "Feature", "geometry": {"type": "Polygon", "coordinates": [[[18.945, 42.01], [18.92, 42.015], [18.91, 42.005], [18.86, 42.005], [18.855, 41.98], [18.88, 41.955], [18.94, 41.955], [18.945, 41.96], [18.945, 42.01]]]}, "properties": {"score_mean": 11.9, "score_max": 14.2, "area_km2": 41.5, "centroid": [18.9044, 41.9831], "razlog": "bistra voda + povoljna pridnena temperatura", "dubina_panule_m": 32.5, "sst_raspon_C": 0.2, "sst_promjena_3d_C": 0.1, "upwelling": 0.0, "hladnije_C": 0.2, "izgledi": "vrlo slabi"}}, {"type": "Feature", "geometry": {"type": "Polygon", "coordinates": [[[18.69, 42.305], [18.65, 42.305], [18.645, 42.28], [18.685, 42.24], [18.69, 42.225], [18.7, 42.225], [18.71, 42.215], [18.73, 42.215], [18.735, 42.22], [18.735, 42.26], [18.71, 42.265], [18.7, 42.275], [18.69, 42.305]]]}, "properties": {"score_mean": 5.9, "score_max": 13.7, "area_km2": 42.2, "centroid": [18.6922, 42.2615], "razlog": "bistra voda + povoljna pridnena temperatura", "dubina_panule_m": 32.5, "sst_raspon_C": 0.3, "sst_promjena_3d_C": -0.1, "upwelling": 0.0, "hladnije_C": 0.0, "izgledi": "vrlo slabi"}}]}