{"type": "FeatureCollection", "properties": {"vrsta": "gof", "naziv": "Gof", "latinski": "Seriola dumerili", "datum": "2026-08-25", "profil": null, "panula": {"dubina_m": [15.0, 50.0], "brzina_kn": [2.5, 4.5], "sati": "zora i prvi sati poslije nje", "granica_dubine_m": 50.0}, "vertikala": {"termoklina_m": 11.9, "termoklina_C_po_m": 0.1, "dcm_m": 91.2, "dcm_odnos": 1.0, "dcm_debljina_m": 36.4, "mld_m": 11.9, "sloj_plijena_m": [64.7, 103.3], "dohvatljivost": 0.0, "objasnjenje": "Termoklina na 12 m. Sloj plijena lezi pretezno ispod 50 m, dakle izvan dohvata panule. Najveca gustina hlorofila je na 91 m (sloj debljine 36 m) - tu se skuplja sitna riba koja se hrani planktonom, pa je i najveca vjerovatnoca da su grabljivice tu negdje."}, "bezbjednost": {"nivo": "zuto", "razlog": "vjetar 12 cv", "izlazak_preporucen": true}, "napomena": "Prakticno samo SZ dio poteza (Petrovac-Bar); mutna voda obara skor.", "razlog_praznog": null}, "features": [{"type": "Feature", "geometry": {"type": "Polygon", "coordinates": [[[19.18, 41.885], [19.15, 41.885], [19.145, 41.86], [19.15, 41.855], [19.18, 41.855], [19.185, 41.86], [19.18, 41.885]]]}, "properties": {"score_mean": 8.4, "score_max": 11.4, "area_km2": 11.1, "centroid": [19.165, 41.87], "razlog": "povoljna dubina + struktura dna", "dubina_panule_m": 32.5, "sst_raspon_C": 0.9, "sst_promjena_3d_C": 0.8, "upwelling": 0.0, "hladnije_C": -0.1, "izgledi": "vrlo slabi"}}, {"type": "Feature", "geometry": {"type": "Polygon", "coordinates": [[[19.11, 41.915], [19.08, 41.915], [19.075, 41.89], [19.08, 41.885], [19.11, 41.885], [19.115, 41.89], [19.11, 41.915]]]}, "properties": {"score_mean": 5.1, "score_max": 12.6, "area_km2": 11.1, "centroid": [19.095, 41.9], "razlog": "povoljna dubina + ivica struje", "dubina_panule_m": 32.5, "sst_raspon_C": 0.7, "sst_promjena_3d_C": 0.5, "upwelling": 0.0, "hladnije_C": 0.0, "izgledi": "vrlo slabi"}}, {"type": "Feature", "geometry": {"type": "Polygon", "coordinates": [[[18.72, 42.255], [18.7, 42.255], [18.665, 42.23], [18.665, 42.21], [18.69, 42.185], [18.74, 42.185], [18.745, 42.19], [18.745, 42.22], [18.72, 42.255]]]}, "properties": {"score_mean": 3.1, "score_max": 19.4, "area_km2": 41.3, "centroid": [18.7067, 42.2173], "razlog": "struktura dna + povoljna dubina", "dubina_panule_m": 32.5, "sst_raspon_C": 0.6, "sst_promjena_3d_C": 0.6, "upwelling": 0.2, "hladnije_C": 0.1, "izgledi": "vrlo slabi"}}, {"type": "Feature", "geometry": {"type": "Polygon", "coordinates": [[[18.99, 42.075], [18.95, 42.075], [18.945, 42.05], [18.95, 42.045], [18.99, 42.045], [18.995, 42.05], [18.99, 42.075]]]}, "properties": {"score_mean": 2.2, "score_max": 7.3, "area_km2": 13.8, "centroid": [18.97, 42.06], "razlog": "povoljna dubina + struktura dna", "dubina_panule_m": 32.5, "sst_raspon_C": 0.7, "sst_promjena_3d_C": 0.7, "upwelling": 0.0, "hladnije_C": -0.2, "izgledi": "vrlo slabi"}}]}