{"type": "FeatureCollection", "properties": {"vrsta": "gof", "naziv": "Gof", "latinski": "Seriola dumerili", "datum": "2026-10-10", "profil": null, "panula": {"dubina_m": [15.0, 50.0], "brzina_kn": [2.5, 4.5], "sati": "zora i prvi sati poslije nje", "granica_dubine_m": 50.0}, "vertikala": {"termoklina_m": 31.8, "termoklina_C_po_m": 0.1, "dcm_m": 84.7, "dcm_odnos": 1.0, "dcm_debljina_m": 44.5, "mld_m": 21.8, "sloj_plijena_m": [47.0, 98.3], "dohvatljivost": 0.1, "objasnjenje": "Termoklina na 32 m. Sloj plijena lezi pretezno ispod 50 m, dakle izvan dohvata panule. Najveca gustina hlorofila je na 85 m (sloj debljine 44 m) - tu se skuplja sitna riba koja se hrani planktonom, pa je i najveca vjerovatnoca da su grabljivice tu negdje."}, "bezbjednost": {"nivo": "crveno", "razlog": "talasi do 1.1 m, vjetar 15 cv, udari 22 cv", "izlazak_preporucen": false}, "napomena": "Prakticno samo SZ dio poteza (Petrovac-Bar); mutna voda obara skor.", "razlog_praznog": null}, "features": [{"type": "Feature", "geometry": {"type": "Polygon", "coordinates": [[[19.06, 41.985], [19.03, 41.985], [19.025, 41.96], [19.03, 41.955], [19.06, 41.955], [19.065, 41.96], [19.06, 41.985]]]}, "properties": {"score_mean": 36.1, "score_max": 39.3, "area_km2": 11.1, "centroid": [19.045, 41.97], "razlog": "bistra voda + povoljna pridnena temperatura", "dubina_panule_m": 32.5, "sst_raspon_C": 0.6, "sst_promjena_3d_C": -0.5, "upwelling": 0.5, "hladnije_C": 0.2, "izgledi": "osrednji"}}, {"type": "Feature", "geometry": {"type": "Polygon", "coordinates": [[[18.9, 42.135], [18.875, 42.13], [18.875, 42.07], [18.92, 42.025], [18.94, 42.025], [18.945, 42.03], [18.945, 42.1], [18.92, 42.125], [18.91, 42.125], [18.9, 42.135]]]}, "properties": {"score_mean": 32.5, "score_max": 39.7, "area_km2": 55.2, "centroid": [18.911, 42.0815], "razlog": "bistra voda + povoljna pridnena temperatura", "dubina_panule_m": 32.5, "sst_raspon_C": 0.3, "sst_promjena_3d_C": 0.3, "upwelling": 0.1, "hladnije_C": 0.0, "izgledi": "osrednji"}}, {"type": "Feature", "geometry": {"type": "Polygon", "coordinates": [[[18.65, 42.335], [18.62, 42.335], [18.615, 42.33], [18.615, 42.31], [18.63, 42.295], [18.655, 42.3], [18.655, 42.33], [18.65, 42.335]]]}, "properties": {"score_mean": 27.6, "score_max": 32.2, "area_km2": 13.7, "centroid": [18.636, 42.316], "razlog": "bistra voda + povoljna pridnena temperatura", "dubina_panule_m": 32.5, "sst_raspon_C": 0.5, "sst_promjena_3d_C": -0.0, "upwelling": 0.0, "hladnije_C": -0.1, "izgledi": "osrednji"}}]}