{"type": "FeatureCollection", "properties": {"vrsta": "gof", "naziv": "Gof", "latinski": "Seriola dumerili", "datum": "2026-09-08", "profil": null, "panula": {"dubina_m": [15.0, 50.0], "brzina_kn": [2.5, 4.5], "sati": "zora i prvi sati poslije nje", "granica_dubine_m": 50.0}, "vertikala": {"termoklina_m": 21.1, "termoklina_C_po_m": 0.3, "dcm_m": 91.2, "dcm_odnos": 1.0, "dcm_debljina_m": 36.6, "mld_m": 12.0, "sloj_plijena_m": [59.7, 106.5], "dohvatljivost": 0.0, "objasnjenje": "Termoklina na 21 m. Sloj plijena lezi pretezno ispod 50 m, dakle izvan dohvata panule. Najveca gustina hlorofila je na 91 m (sloj debljine 37 m) - tu se skuplja sitna riba koja se hrani planktonom, pa je i najveca vjerovatnoca da su grabljivice tu negdje."}, "bezbjednost": {"nivo": "zeleno", "razlog": "uslovi povoljni", "izlazak_preporucen": true}, "napomena": "Prakticno samo SZ dio poteza (Petrovac-Bar); mutna voda obara skor.", "razlog_praznog": null}, "features": [{"type": "Feature", "geometry": {"type": "Polygon", "coordinates": [[[19.14, 41.885], [19.11, 41.885], [19.105, 41.88], [19.105, 41.85], [19.115, 41.84], [19.12, 41.815], [19.145, 41.82], [19.145, 41.88], [19.14, 41.885]]]}, "properties": {"score_mean": 10.8, "score_max": 14.0, "area_km2": 23.1, "centroid": [19.1268, 41.8524], "razlog": "bistra voda + povoljna pridnena temperatura", "dubina_panule_m": 32.5, "sst_raspon_C": 1.1, "sst_promjena_3d_C": -0.1, "upwelling": 0.0, "hladnije_C": -0.2, "izgledi": "vrlo slabi"}}, {"type": "Feature", "geometry": {"type": "Polygon", "coordinates": [[[19.1, 41.985], [19.07, 41.985], [19.055, 41.97], [19.055, 41.93], [19.065, 41.92], [19.065, 41.9], [19.08, 41.885], [19.105, 41.89], [19.105, 41.98], [19.1, 41.985]]]}, "properties": {"score_mean": 9.5, "score_max": 11.6, "area_km2": 40.6, "centroid": [19.0825, 41.9377], "razlog": "bistra voda + povoljna pridnena temperatura", "dubina_panule_m": 32.5, "sst_raspon_C": 0.2, "sst_promjena_3d_C": 0.3, "upwelling": 0.0, "hladnije_C": -0.1, "izgledi": "vrlo slabi"}}, {"type": "Feature", "geometry": {"type": "Polygon", "coordinates": [[[18.86, 42.215], [18.82, 42.215], [18.815, 42.19], [18.84, 42.165], [18.86, 42.165], [18.865, 42.15], [18.88, 42.135], [18.9, 42.135], [18.905, 42.14], [18.905, 42.17], [18.9, 42.175], [18.87, 42.175], [18.86, 42.215]]]}, "properties": {"score_mean": 4.3, "score_max": 18.1, "area_km2": 34.0, "centroid": [18.86, 42.1776], "razlog": "bistra voda + povoljna pridnena temperatura", "dubina_panule_m": 32.5, "sst_raspon_C": 1.1, "sst_promjena_3d_C": 0.3, "upwelling": 0.0, "hladnije_C": -0.2, "izgledi": "vrlo slabi"}}, {"type": "Feature", "geometry": {"type": "Polygon", "coordinates": [[[18.69, 42.305], [18.66, 42.305], [18.655, 42.3], [18.655, 42.27], [18.66, 42.265], [18.69, 42.265], [18.695, 42.27], [18.695, 42.3], [18.69, 42.305]]]}, "properties": {"score_mean": 4.2, "score_max": 8.1, "area_km2": 14.7, "centroid": [18.675, 42.285], "razlog": "bistra voda + povoljna pridnena temperatura", "dubina_panule_m": 32.5, "sst_raspon_C": 0.5, "sst_promjena_3d_C": -0.3, "upwelling": 0.0, "hladnije_C": -0.1, "izgledi": "vrlo slabi"}}, {"type": "Feature", "geometry": {"type": "Polygon", "coordinates": [[[18.73, 42.265], [18.7, 42.265], [18.695, 42.26], [18.695, 42.23], [18.71, 42.215], [18.735, 42.22], [18.735, 42.26], [18.73, 42.265]]]}, "properties": {"score_mean": 3.9, "score_max": 7.4, "area_km2": 17.4, "centroid": [18.7158, 42.2411], "razlog": "bistra voda + povoljna pridnena temperatura", "dubina_panule_m": 32.5, "sst_raspon_C": 0.5, "sst_promjena_3d_C": -0.1, "upwelling": 0.0, "hladnije_C": -0.2, "izgledi": "vrlo slabi"}}, {"type": "Feature", "geometry": {"type": "Polygon", "coordinates": [[[18.94, 42.135], [18.91, 42.135], [18.905, 42.13], [18.905, 42.11], [18.92, 42.095], [18.945, 42.1], [18.945, 42.13], [18.94, 42.135]]]}, "properties": {"score_mean": 3.7, "score_max": 6.9, "area_km2": 13.8, "centroid": [18.926, 42.116], "razlog": "bistra voda + povoljna pridnena temperatura", "dubina_panule_m": 32.5, "sst_raspon_C": 1.0, "sst_promjena_3d_C": -0.1, "upwelling": 0.0, "hladnije_C": -0.1, "izgledi": "vrlo slabi"}}]}