{"type": "FeatureCollection", "properties": {"vrsta": "gof", "naziv": "Gof", "latinski": "Seriola dumerili", "datum": "2026-09-16", "profil": null, "panula": {"dubina_m": [15.0, 50.0], "brzina_kn": [2.5, 4.5], "sati": "zora i prvi sati poslije nje", "granica_dubine_m": 50.0}, "vertikala": {"termoklina_m": 24.5, "termoklina_C_po_m": 0.2, "dcm_m": 97.9, "dcm_odnos": 1.0, "dcm_debljina_m": 37.1, "mld_m": 17.2, "sloj_plijena_m": [56.8, 103.3], "dohvatljivost": 0.0, "objasnjenje": "Termoklina na 24 m. Sloj plijena lezi pretezno ispod 50 m, dakle izvan dohvata panule. Najveca gustina hlorofila je na 98 m (sloj debljine 37 m) - tu se skuplja sitna riba koja se hrani planktonom, pa je i najveca vjerovatnoca da su grabljivice tu negdje."}, "bezbjednost": {"nivo": "zuto", "razlog": "vjetar 12 cv", "izlazak_preporucen": true}, "napomena": "Prakticno samo SZ dio poteza (Petrovac-Bar); mutna voda obara skor.", "razlog_praznog": null}, "features": [{"type": "Feature", "geometry": {"type": "Polygon", "coordinates": [[[19.13, 41.875], [19.1, 41.875], [19.095, 41.85], [19.1, 41.845], [19.13, 41.845], [19.135, 41.85], [19.13, 41.875]]]}, "properties": {"score_mean": 39.0, "score_max": 42.2, "area_km2": 11.1, "centroid": [19.115, 41.86], "razlog": "bistra voda + povoljna pridnena temperatura", "dubina_panule_m": 32.5, "sst_raspon_C": 0.5, "sst_promjena_3d_C": -0.5, "upwelling": 0.0, "hladnije_C": 0.2, "izgledi": "osrednji"}}, {"type": "Feature", "geometry": {"type": "Polygon", "coordinates": [[[19.08, 42.005], [19.055, 42.0], [19.055, 41.97], [19.065, 41.96], [19.07, 41.935], [19.095, 41.94], [19.095, 41.99], [19.08, 42.005]]]}, "properties": {"score_mean": 38.6, "score_max": 41.2, "area_km2": 22.1, "centroid": [19.0763, 41.9712], "razlog": "bistra voda + povoljna pridnena temperatura", "dubina_panule_m": 32.5, "sst_raspon_C": 0.3, "sst_promjena_3d_C": -0.5, "upwelling": 0.2, "hladnije_C": 0.0, "izgledi": "osrednji"}}, {"type": "Feature", "geometry": {"type": "Polygon", "coordinates": [[[19.09, 41.905], [19.065, 41.9], [19.07, 41.875], [19.095, 41.88], [19.09, 41.905]]]}, "properties": {"score_mean": 37.9, "score_max": 39.5, "area_km2": 8.3, "centroid": [19.08, 41.89], "razlog": "bistra voda + povoljna pridnena temperatura", "dubina_panule_m": 32.5, "sst_raspon_C": 0.2, "sst_promjena_3d_C": -0.6, "upwelling": 0.3, "hladnije_C": 0.1, "izgledi": "osrednji"}}, {"type": "Feature", "geometry": {"type": "Polygon", "coordinates": [[[18.86, 42.215], [18.835, 42.21], [18.84, 42.185], [18.865, 42.19], [18.86, 42.215]]]}, "properties": {"score_mean": 22.7, "score_max": 26.8, "area_km2": 8.3, "centroid": [18.85, 42.2], "razlog": "bistra voda + povoljna pridnena temperatura", "dubina_panule_m": 32.5, "sst_raspon_C": 0.5, "sst_promjena_3d_C": -0.5, "upwelling": 0.0, "hladnije_C": -0.1, "izgledi": "slabi"}}, {"type": "Feature", "geometry": {"type": "Polygon", "coordinates": [[[18.73, 42.265], [18.705, 42.26], [18.705, 42.23], [18.71, 42.225], [18.735, 42.23], [18.735, 42.26], [18.73, 42.265]]]}, "properties": {"score_mean": 22.4, "score_max": 23.7, "area_km2": 11.0, "centroid": [18.72, 42.245], "razlog": "bistra voda + povoljna pridnena temperatura", "dubina_panule_m": 32.5, "sst_raspon_C": 0.5, "sst_promjena_3d_C": -0.4, "upwelling": 0.0, "hladnije_C": -0.1, "izgledi": "slabi"}}, {"type": "Feature", "geometry": {"type": "Polygon", "coordinates": [[[18.945, 42.05], [18.92, 42.055], [18.91, 42.045], [18.9, 42.045], [18.875, 42.01], [18.875, 41.97], [18.89, 41.955], [18.91, 41.955], [18.92, 41.945], [18.945, 41.95], [18.945, 42.05]]]}, "properties": {"score_mean": 20.9, "score_max": 25.9, "area_km2": 58.9, "centroid": [18.9141, 41.9986], "razlog": "bistra voda + povoljna pridnena temperatura", "dubina_panule_m": 32.5, "sst_raspon_C": 0.8, "sst_promjena_3d_C": -0.7, "upwelling": 0.0, "hladnije_C": 0.1, "izgledi": "slabi"}}]}