{"type": "FeatureCollection", "properties": {"vrsta": "gof", "naziv": "Gof", "latinski": "Seriola dumerili", "datum": "2026-10-09", "profil": null, "panula": {"dubina_m": [15.0, 50.0], "brzina_kn": [2.5, 4.5], "sati": "zora i prvi sati poslije nje", "granica_dubine_m": 50.0}, "vertikala": {"termoklina_m": 31.8, "termoklina_C_po_m": 0.1, "dcm_m": 91.2, "dcm_odnos": 1.0, "dcm_debljina_m": 42.6, "mld_m": 20.4, "sloj_plijena_m": [59.4, 104.0], "dohvatljivost": 0.0, "objasnjenje": "Termoklina na 32 m. Sloj plijena lezi pretezno ispod 50 m, dakle izvan dohvata panule. Najveca gustina hlorofila je na 91 m (sloj debljine 43 m) - tu se skuplja sitna riba koja se hrani planktonom, pa je i najveca vjerovatnoca da su grabljivice tu negdje."}, "bezbjednost": {"nivo": "crveno", "razlog": "talasi do 2.1 m, vjetar 15 cv, udari 22 cv", "izlazak_preporucen": false}, "napomena": "Prakticno samo SZ dio poteza (Petrovac-Bar); mutna voda obara skor.", "razlog_praznog": null}, "features": [{"type": "Feature", "geometry": {"type": "Polygon", "coordinates": [[[18.85, 42.215], [18.81, 42.215], [18.805, 42.19], [18.81, 42.185], [18.85, 42.185], [18.855, 42.19], [18.85, 42.215]]]}, "properties": {"score_mean": 37.4, "score_max": 40.2, "area_km2": 13.8, "centroid": [18.83, 42.2], "razlog": "bistra voda + povoljna pridnena temperatura", "dubina_panule_m": 32.5, "sst_raspon_C": 0.8, "sst_promjena_3d_C": -0.1, "upwelling": 0.0, "hladnije_C": -0.0, "izgledi": "osrednji"}}, {"type": "Feature", "geometry": {"type": "Polygon", "coordinates": [[[18.92, 42.125], [18.89, 42.125], [18.885, 42.12], [18.895, 42.07], [18.91, 42.055], [18.94, 42.055], [18.97, 42.035], [19.0, 42.035], [19.005, 42.06], [18.96, 42.085], [18.95, 42.085], [18.945, 42.1], [18.92, 42.125]]]}, "properties": {"score_mean": 36.6, "score_max": 46.2, "area_km2": 51.5, "centroid": [18.9388, 42.0773], "razlog": "bistra voda + povoljna pridnena temperatura", "dubina_panule_m": 32.5, "sst_raspon_C": 0.3, "sst_promjena_3d_C": -0.1, "upwelling": 0.0, "hladnije_C": -0.0, "izgledi": "osrednji"}}, {"type": "Feature", "geometry": {"type": "Polygon", "coordinates": [[[18.7, 42.275], [18.675, 42.27], [18.675, 42.25], [18.7, 42.235], [18.72, 42.235], [18.725, 42.26], [18.7, 42.275]]]}, "properties": {"score_mean": 33.2, "score_max": 39.1, "area_km2": 14.7, "centroid": [18.7, 42.255], "razlog": "bistra voda + povoljna pridnena temperatura", "dubina_panule_m": 32.5, "sst_raspon_C": 0.6, "sst_promjena_3d_C": -0.1, "upwelling": 0.0, "hladnije_C": -0.2, "izgledi": "osrednji"}}, {"type": "Feature", "geometry": {"type": "Polygon", "coordinates": [[[18.64, 42.335], [18.61, 42.335], [18.605, 42.33], [18.605, 42.31], [18.63, 42.275], [18.655, 42.28], [18.655, 42.32], [18.64, 42.335]]]}, "properties": {"score_mean": 24.7, "score_max": 32.3, "area_km2": 22.9, "centroid": [18.632, 42.3068], "razlog": "bistra voda + povoljna pridnena temperatura", "dubina_panule_m": 32.5, "sst_raspon_C": 0.5, "sst_promjena_3d_C": -0.3, "upwelling": 0.0, "hladnije_C": -0.1, "izgledi": "slabi"}}]}