{"type": "FeatureCollection", "properties": {"vrsta": "gof", "naziv": "Gof", "latinski": "Seriola dumerili", "datum": "2026-08-23", "panula": {"dubina_m": [15.0, 50.0], "brzina_kn": [2.5, 4.5], "granica_dubine_m": 50.0}, "vertikala": {"termoklina_m": 6.7, "termoklina_C_po_m": 0.5, "dcm_m": 91.2, "dcm_odnos": 1.0, "mld_m": 11.9, "sloj_plijena_m": [54.7, 114.7], "dohvatljivost": 0.0, "objasnjenje": "Termoklina na 7 m, sloj plijena oko 91 m — ispod dohvata panule od 50 m."}, "bezbjednost": {"nivo": "zuto", "razlog": "vjetar 12 cv", "izlazak_preporucen": true}, "napomena": "Prakticno samo SZ dio poteza (Petrovac-Bar); mutna voda obara skor."}, "features": [{"type": "Feature", "geometry": {"type": "Polygon", "coordinates": [[[19.22, 41.885], [19.17, 41.885], [19.165, 41.86], [19.2, 41.825], [19.21, 41.825], [19.22, 41.815], [19.24, 41.815], [19.245, 41.82], [19.245, 41.85], [19.22, 41.885]]]}, "properties": {"score_mean": 21.0, "score_max": 36.5, "area_km2": 37.8, "centroid": [19.2078, 41.8534], "razlog": "povoljna dubina + struktura dna", "dubina_panule_m": 32.5}}, {"type": "Feature", "geometry": {"type": "Polygon", "coordinates": [[[19.0, 42.095], [18.975, 42.09], [18.98, 42.065], [19.005, 42.07], [19.0, 42.095]]]}, "properties": {"score_mean": 20.4, "score_max": 23.0, "area_km2": 8.3, "centroid": [18.99, 42.08], "razlog": "povoljna dubina + struktura dna", "dubina_panule_m": 32.5}}, {"type": "Feature", "geometry": {"type": "Polygon", "coordinates": [[[19.08, 41.995], [19.05, 41.995], [19.045, 41.99], [19.045, 41.96], [19.09, 41.915], [19.11, 41.915], [19.115, 41.92], [19.115, 41.95], [19.085, 41.98], [19.08, 41.995]]]}, "properties": {"score_mean": 17.1, "score_max": 24.6, "area_km2": 34.1, "centroid": [19.08, 41.9559], "razlog": "povoljna dubina + ivica struje", "dubina_panule_m": 32.5}}, {"type": "Feature", "geometry": {"type": "Polygon", "coordinates": [[[19.31, 41.835], [19.27, 41.835], [19.265, 41.81], [19.29, 41.795], [19.31, 41.795], [19.315, 41.8], [19.315, 41.83], [19.31, 41.835]]]}, "properties": {"score_mean": 15.1, "score_max": 19.1, "area_km2": 16.6, "centroid": [19.2917, 41.8167], "razlog": "povoljna dubina + struktura dna", "dubina_panule_m": 32.5}}, {"type": "Feature", "geometry": {"type": "Polygon", "coordinates": [[[19.485, 41.69], [19.46, 41.695], [19.455, 41.68], [19.44, 41.665], [19.43, 41.665], [19.42, 41.675], [19.39, 41.675], [19.375, 41.66], [19.375, 41.64], [19.38, 41.635], [19.44, 41.635], [19.45, 41.645], [19.48, 41.645], [19.485, 41.65], [19.485, 41.69]]]}, "properties": {"score_mean": 11.0, "score_max": 12.9, "area_km2": 39.8, "centroid": [19.4333, 41.6595], "razlog": "povoljna dubina + prisustvo mamca", "dubina_panule_m": 32.5}}]}