{"type": "FeatureCollection", "features": [{"type": "Feature", "geometry": {"type": "LineString", "coordinates": [[19.38, 41.8758], [19.35, 41.8763], [19.32, 41.885], [19.2504, 41.93], [19.23, 41.9338], [19.09, 42.0145], [19.0703, 42.05], [19.0696, 42.13], [19.05, 42.1511]]}, "properties": {"dubina_m": 20, "glavna": false}}, {"type": "Feature", "geometry": {"type": "LineString", "coordinates": [[18.994, 42.22], [18.96, 42.2467], [18.92, 42.2524], [18.9, 42.2782], [18.8749, 42.29], [18.86, 42.314], [18.81, 42.3416], [18.78, 42.3833]]}, "properties": {"dubina_m": 20, "glavna": false}}, {"type": "Feature", "geometry": {"type": "LineString", "coordinates": [[19.3315, 41.84], [19.3243, 41.85], [19.23, 41.8995], [19.12, 41.9721], [19.0653, 42.02], [19.0454, 42.05], [19.0356, 42.08], [19.04, 42.1503]]}, "properties": {"dubina_m": 40, "glavna": false}}, {"type": "Feature", "geometry": {"type": "LineString", "coordinates": [[18.9902, 42.19], [18.9617, 42.23], [18.91, 42.2554], [18.8505, 42.31], [18.7927, 42.35], [18.7671, 42.38]]}, "properties": {"dubina_m": 40, "glavna": false}}, {"type": "Feature", "geometry": {"type": "LineString", "coordinates": [[19.2841, 41.8], [19.2377, 41.85], [19.17, 41.899], [19.0274, 42.02], [19.0048, 42.05], [18.9728, 42.11], [18.9558, 42.16], [18.9146, 42.22], [18.8583, 42.28], [18.79, 42.3276], [18.7461, 42.37], [18.72, 42.3827]]}, "properties": {"dubina_m": 60, "glavna": false}}, {"type": "Feature", "geometry": {"type": "LineString", "coordinates": [[19.1963, 41.74], [19.1776, 41.8], [19.1337, 41.85], [19.024, 41.94], [18.93, 42.0018], [18.8, 42.0722], [18.771, 42.08], [18.749, 42.11], [18.74, 42.1151], [18.73, 42.1085], [18.72, 42.1183], [18.71, 42.1462], [18.68, 42.1593], [18.66, 42.1514], [18.65, 42.1536], [18.64, 42.1639], [18.64, 42.1877], [18.65, 42.1919], [18.67, 42.1656], [18.69, 42.1748], [18.7, 42.162], [18.72, 42.1572], [18.74, 42.139], [18.76, 42.1374], [18.773, 42.16], [18.7594, 42.19], [18.78, 42.2046], [18.7897, 42.25], [18.7838, 42.28], [18.7681, 42.31], [18.7395, 42.34], [18.69, 42.369], [18.68, 42.3836]]}, "properties": {"dubina_m": 80, "glavna": false}}, {"type": "Feature", "geometry": {"type": "LineString", "coordinates": [[19.0861, 41.66], [19.0754, 41.69], [19.03, 41.7089], [18.973, 41.76], [18.9509, 41.77], [18.9366, 41.79], [18.89, 41.8145], [18.82, 41.8859], [18.78, 41.8879], [18.7696, 41.91], [18.7423, 41.93], [18.7384, 41.94], [18.7357, 41.99], [18.75, 41.9963], [18.75, 42.007], [18.714, 42.02], [18.7065, 42.06], [18.7, 42.0633], [18.68, 42.0467], [18.65, 42.044], [18.64, 42.0554], [18.6316, 42.08], [18.6205, 42.18], [18.6344, 42.22], [18.6626, 42.26], [18.6644, 42.29], [18.66, 42.31], [18.6063, 42.38]]}, "properties": {"dubina_m": 100, "glavna": true}}, {"type": "Feature", "geometry": {"type": "LineString", "coordinates": [[18.9497, 41.6], [18.9442, 41.61], [18.8832, 41.66], [18.8161, 41.68], [18.79, 41.6973], [18.76, 41.7262], [18.7151, 41.79], [18.68, 41.8031], [18.63, 41.8097], [18.5582, 41.83], [18.53, 41.8447], [18.49, 41.8794], [18.4824, 41.92], [18.4864, 41.96], [18.498, 41.98], [18.5403, 42.02], [18.5615, 42.05], [18.5646, 42.07], [18.55, 42.0993], [18.5082, 42.15], [18.4807, 42.25], [18.45, 42.3119]]}, "properties": {"dubina_m": 150, "glavna": false}}, {"type": "Feature", "geometry": {"type": "LineString", "coordinates": [[18.8137, 41.6], [18.78, 41.6345], [18.6866, 41.7], [18.67, 41.706], [18.6544, 41.73], [18.62, 41.7561], [18.5902, 41.77], [18.5248, 41.82], [18.49, 41.8375], [18.45, 41.8885]]}, "properties": {"dubina_m": 200, "glavna": true}}, {"type": "Feature", "geometry": {"type": "LineString", "coordinates": [[18.7558, 41.6], [18.7509, 41.61], [18.72, 41.6322], [18.6107, 41.68], [18.58, 41.7016], [18.4963, 41.78], [18.4586, 41.83], [18.45, 41.8492]]}, "properties": {"dubina_m": 250, "glavna": false}}, {"type": "Feature", "geometry": {"type": "LineString", "coordinates": [[18.6988, 41.6], [18.6803, 41.63], [18.59, 41.6762], [18.57, 41.6984], [18.53, 41.7202], [18.4932, 41.75], [18.45, 41.7965]]}, "properties": {"dubina_m": 300, "glavna": false}}, {"type": "Feature", "geometry": {"type": "LineString", "coordinates": [[18.6491, 41.6], [18.616, 41.62], [18.58, 41.6549], [18.57, 41.684], [18.53, 41.6785], [18.5, 41.7075], [18.49, 41.7321], [18.47, 41.7457], [18.45, 41.7509]]}, "properties": {"dubina_m": 350, "glavna": false}}, {"type": "Feature", "geometry": {"type": "LineString", "coordinates": [[18.5954, 41.6], [18.5722, 41.63], [18.5652, 41.66], [18.5687, 41.67], [18.55, 41.6748], [18.5206, 41.66], [18.51, 41.6635], [18.4847, 41.69], [18.4849, 41.73], [18.45, 41.7395]]}, "properties": {"dubina_m": 400, "glavna": false}}, {"type": "Feature", "geometry": {"type": "LineString", "coordinates": [[18.5747, 41.6], [18.5569, 41.62], [18.5592, 41.64], [18.55, 41.6679], [18.51, 41.6516], [18.5, 41.6558], [18.4572, 41.69], [18.4575, 41.7], [18.48, 41.7171], [18.48, 41.7259], [18.45, 41.7359]]}, "properties": {"dubina_m": 450, "glavna": false}}, {"type": "Feature", "geometry": {"type": "LineString", "coordinates": [[18.5501, 41.6], [18.5448, 41.62], [18.5523, 41.64], [18.54, 41.6567], [18.51, 41.647], [18.4959, 41.65], [18.45, 41.6893]]}, "properties": {"dubina_m": 500, "glavna": true}}, {"type": "Feature", "geometry": {"type": "LineString", "coordinates": [[18.45, 41.7007], [18.4726, 41.72], [18.4648, 41.73], [18.45, 41.7322]]}, "properties": {"dubina_m": 500, "glavna": true}}, {"type": "Feature", "geometry": {"type": "LineString", "coordinates": [[18.5337, 41.6], [18.5469, 41.64], [18.54, 41.6511], [18.51, 41.6433], [18.49, 41.6481], [18.48, 41.6626], [18.45, 41.6797]]}, "properties": {"dubina_m": 550, "glavna": false}}, {"type": "Feature", "geometry": {"type": "LineString", "coordinates": [[18.5181, 41.6], [18.5376, 41.63], [18.54, 41.6437], [18.51, 41.6394], [18.49, 41.6445], [18.476, 41.66], [18.45, 41.6751]]}, "properties": {"dubina_m": 600, "glavna": false}}, {"type": "Feature", "geometry": {"type": "LineString", "coordinates": [[18.4953, 41.6], [18.52, 41.6123], [18.5324, 41.63], [18.53, 41.6378], [18.51, 41.6334], [18.49, 41.6409], [18.45, 41.6704]]}, "properties": {"dubina_m": 650, "glavna": false}}, {"type": "Feature", "geometry": {"type": "LineString", "coordinates": [[18.4842, 41.6], [18.4888, 41.61], [18.51, 41.6137], [18.52, 41.6187], [18.52, 41.6237], [18.48, 41.6405], [18.46, 41.6599], [18.45, 41.6625]]}, "properties": {"dubina_m": 700, "glavna": false}}, {"type": "Feature", "geometry": {"type": "LineString", "coordinates": [[18.4591, 41.6], [18.4649, 41.61], [18.5009, 41.62], [18.45, 41.6555]]}, "properties": {"dubina_m": 750, "glavna": false}}, {"type": "Feature", "geometry": {"type": "LineString", "coordinates": [[18.45, 41.6161], [18.4766, 41.62], [18.4649, 41.64], [18.45, 41.6484]]}, "properties": {"dubina_m": 800, "glavna": false}}], "potpis": "9ae5a0643e"}