{"type": "FeatureCollection", "properties": {"vrsta": "lampuga", "naziv": "Lampuga", "latinski": "Coryphaena hippurus", "datum": "2026-09-11", "profil": null, "panula": {"dubina_m": [0.0, 15.0], "brzina_kn": [5.0, 7.0], "sati": "sredina dana, uz plutajuce objekte", "granica_dubine_m": 50.0}, "vertikala": {"termoklina_m": 17.8, "termoklina_C_po_m": 0.3, "dcm_m": 97.9, "dcm_odnos": 1.0, "dcm_debljina_m": 44.5, "mld_m": 11.9, "sloj_plijena_m": [54.2, 106.9], "dohvatljivost": 0.0, "objasnjenje": "Termoklina na 18 m. Sloj plijena lezi pretezno ispod 50 m, dakle izvan dohvata panule. Najveca gustina hlorofila je na 98 m (sloj debljine 44 m) - tu se skuplja sitna riba koja se hrani planktonom, pa je i najveca vjerovatnoca da su grabljivice tu negdje."}, "bezbjednost": {"nivo": "zeleno", "razlog": "uslovi povoljni", "izlazak_preporucen": true}, "napomena": "2-5 dana nakon jakih kisa Bojana izbacuje drvene naplavine - to je predvidljiv generator pozicija.", "razlog_praznog": null}, "features": [{"type": "Feature", "geometry": {"type": "Polygon", "coordinates": [[[18.99, 41.955], [18.93, 41.955], [18.925, 41.93], [18.935, 41.92], [18.935, 41.91], [18.96, 41.885], [18.97, 41.885], [18.98, 41.875], [19.01, 41.875], [19.035, 41.89], [19.035, 41.91], [19.015, 41.93], [19.01, 41.945], [19.0, 41.945], [18.99, 41.955]]]}, "properties": {"score_mean": 33.4, "score_max": 37.9, "area_km2": 59.9, "centroid": [18.98, 41.9169], "razlog": "termalni front + povoljna dubina", "dubina_panule_m": 7.5, "sst_raspon_C": 0.6, "sst_promjena_3d_C": -0.5, "upwelling": 0.3, "hladnije_C": 0.3, "izgledi": "osrednji"}}, {"type": "Feature", "geometry": {"type": "Polygon", "coordinates": [[[19.14, 41.755], [19.11, 41.755], [19.105, 41.73], [19.11, 41.725], [19.14, 41.725], [19.145, 41.73], [19.14, 41.755]]]}, "properties": {"score_mean": 30.3, "score_max": 31.4, "area_km2": 11.1, "centroid": [19.125, 41.74], "razlog": "povoljna dubina + termalni front", "dubina_panule_m": 7.5, "sst_raspon_C": 0.5, "sst_promjena_3d_C": -0.1, "upwelling": 0.0, "hladnije_C": -0.1, "izgledi": "osrednji"}}, {"type": "Feature", "geometry": {"type": "Polygon", "coordinates": [[[18.69, 42.305], [18.65, 42.305], [18.645, 42.28], [18.685, 42.24], [18.685, 42.23], [18.7, 42.215], [18.73, 42.215], [18.735, 42.22], [18.735, 42.26], [18.71, 42.265], [18.7, 42.275], [18.69, 42.305]]]}, "properties": {"score_mean": 12.3, "score_max": 29.4, "area_km2": 43.1, "centroid": [18.6923, 42.2606], "razlog": "termalni front + povoljna dubina", "dubina_panule_m": 7.5, "sst_raspon_C": 0.7, "sst_promjena_3d_C": -0.3, "upwelling": 0.0, "hladnije_C": -0.2, "izgledi": "slabi"}}]}