{"type": "FeatureCollection", "properties": {"vrsta": "lampuga", "naziv": "Lampuga", "latinski": "Coryphaena hippurus", "datum": "2026-08-23", "panula": {"dubina_m": [0.0, 15.0], "brzina_kn": [5.0, 7.0], "granica_dubine_m": 50.0}, "vertikala": {"termoklina_m": 6.7, "termoklina_C_po_m": 0.5, "dcm_m": 91.2, "dcm_odnos": 1.0, "mld_m": 11.9, "sloj_plijena_m": [54.7, 114.7], "dohvatljivost": 0.0, "objasnjenje": "Termoklina na 7 m, sloj plijena oko 91 m — ispod dohvata panule od 50 m."}, "bezbjednost": {"nivo": "zuto", "razlog": "vjetar 12 cv", "izlazak_preporucen": true}, "napomena": "2-5 dana nakon jakih kisa Bojana izbacuje drvene naplavine — to je predvidljiv generator pozicija."}, "features": [{"type": "Feature", "geometry": {"type": "Polygon", "coordinates": [[[19.08, 41.995], [19.05, 41.995], [19.045, 41.97], [19.055, 41.96], [19.055, 41.95], [19.09, 41.915], [19.11, 41.915], [19.115, 41.92], [19.115, 41.95], [19.085, 41.98], [19.08, 41.995]]]}, "properties": {"score_mean": 12.4, "score_max": 19.0, "area_km2": 33.2, "centroid": [19.0808, 41.9558], "razlog": "povoljna dubina + termalni front", "dubina_panule_m": 7.5}}, {"type": "Feature", "geometry": {"type": "Polygon", "coordinates": [[[19.21, 41.885], [19.17, 41.885], [19.165, 41.86], [19.2, 41.825], [19.21, 41.825], [19.23, 41.805], [19.26, 41.805], [19.265, 41.83], [19.25, 41.835], [19.21, 41.885]]]}, "properties": {"score_mean": 11.3, "score_max": 17.6, "area_km2": 42.5, "centroid": [19.2137, 41.8463], "razlog": "povoljna dubina + termalni front", "dubina_panule_m": 7.5}}, {"type": "Feature", "geometry": {"type": "Polygon", "coordinates": [[[19.4, 41.685], [19.37, 41.685], [19.365, 41.68], [19.365, 41.65], [19.38, 41.635], [19.41, 41.635], [19.415, 41.64], [19.415, 41.67], [19.4, 41.685]]]}, "properties": {"score_mean": 9.4, "score_max": 10.9, "area_km2": 21.3, "centroid": [19.39, 41.66], "razlog": "povoljna dubina + smicanje struje", "dubina_panule_m": 7.5}}, {"type": "Feature", "geometry": {"type": "Polygon", "coordinates": [[[19.46, 41.785], [19.435, 41.78], [19.435, 41.73], [19.44, 41.725], [19.47, 41.725], [19.485, 41.74], [19.485, 41.77], [19.46, 41.785]]]}, "properties": {"score_mean": 7.3, "score_max": 9.6, "area_km2": 25.0, "centroid": [19.4581, 41.7541], "razlog": "povoljna dubina + gradijent hlorofila", "dubina_panule_m": 7.5}}]}