{"type": "FeatureCollection", "properties": {"vrsta": "lampuga", "naziv": "Lampuga", "latinski": "Coryphaena hippurus", "datum": "2026-09-20", "profil": null, "panula": {"dubina_m": [0.0, 15.0], "brzina_kn": [5.0, 7.0], "sati": "sredina dana, uz plutajuce objekte", "granica_dubine_m": 50.0}, "vertikala": {"termoklina_m": 24.5, "termoklina_C_po_m": 0.2, "dcm_m": 97.9, "dcm_odnos": 1.0, "dcm_debljina_m": 36.6, "mld_m": 12.7, "sloj_plijena_m": [58.4, 106.5], "dohvatljivost": 0.0, "objasnjenje": "Termoklina na 24 m. Sloj plijena lezi pretezno ispod 50 m, dakle izvan dohvata panule. Najveca gustina hlorofila je na 98 m (sloj debljine 37 m) - tu se skuplja sitna riba koja se hrani planktonom, pa je i najveca vjerovatnoca da su grabljivice tu negdje."}, "bezbjednost": {"nivo": "zuto", "razlog": "vjetar 12 cv", "izlazak_preporucen": true}, "napomena": "2-5 dana nakon jakih kisa Bojana izbacuje drvene naplavine - to je predvidljiv generator pozicija.", "razlog_praznog": null}, "features": [{"type": "Feature", "geometry": {"type": "Polygon", "coordinates": [[[19.14, 41.865], [19.1, 41.865], [19.085, 41.85], [19.085, 41.83], [19.095, 41.82], [19.095, 41.81], [19.115, 41.79], [19.12, 41.765], [19.145, 41.77], [19.145, 41.86], [19.14, 41.865]]]}, "properties": {"score_mean": 37.5, "score_max": 44.7, "area_km2": 42.5, "centroid": [19.1204, 41.8215], "razlog": "termalni front + povoljna dubina", "dubina_panule_m": 7.5, "sst_raspon_C": 1.0, "sst_promjena_3d_C": 0.0, "upwelling": 0.0, "hladnije_C": -0.0, "izgledi": "osrednji"}}, {"type": "Feature", "geometry": {"type": "Polygon", "coordinates": [[[18.94, 42.025], [18.91, 42.025], [18.89, 42.005], [18.88, 42.005], [18.875, 42.0], [18.875, 41.97], [18.92, 41.945], [18.94, 41.945], [18.945, 41.95], [18.945, 42.02], [18.94, 42.025]]]}, "properties": {"score_mean": 27.1, "score_max": 31.5, "area_km2": 41.5, "centroid": [18.9149, 41.9858], "razlog": "povoljna dubina + termalni front", "dubina_panule_m": 7.5, "sst_raspon_C": 0.3, "sst_promjena_3d_C": 0.0, "upwelling": 0.0, "hladnije_C": -0.1, "izgledi": "osrednji"}}]}