{"type": "FeatureCollection", "properties": {"vrsta": "lampuga", "naziv": "Lampuga", "latinski": "Coryphaena hippurus", "datum": "2026-09-02", "profil": null, "panula": {"dubina_m": [0.0, 15.0], "brzina_kn": [5.0, 7.0], "sati": "sredina dana, uz plutajuce objekte", "granica_dubine_m": 50.0}, "vertikala": {"termoklina_m": 14.8, "termoklina_C_po_m": 0.3, "dcm_m": 91.2, "dcm_odnos": 1.0, "dcm_debljina_m": 33.7, "mld_m": 11.9, "sloj_plijena_m": [64.9, 101.3], "dohvatljivost": 0.0, "objasnjenje": "Termoklina na 15 m. Sloj plijena lezi pretezno ispod 50 m, dakle izvan dohvata panule. Najveca gustina hlorofila je na 91 m (sloj debljine 34 m) - tu se skuplja sitna riba koja se hrani planktonom, pa je i najveca vjerovatnoca da su grabljivice tu negdje."}, "bezbjednost": {"nivo": "zuto", "razlog": "vjetar 14 cv", "izlazak_preporucen": true}, "napomena": "2-5 dana nakon jakih kisa Bojana izbacuje drvene naplavine - to je predvidljiv generator pozicija.", "razlog_praznog": null}, "features": [{"type": "Feature", "geometry": {"type": "Polygon", "coordinates": [[[19.22, 41.875], [19.19, 41.875], [19.185, 41.85], [19.2, 41.835], [19.23, 41.835], [19.235, 41.82], [19.25, 41.805], [19.27, 41.805], [19.275, 41.83], [19.26, 41.845], [19.24, 41.845], [19.235, 41.86], [19.22, 41.875]]]}, "properties": {"score_mean": 21.2, "score_max": 25.7, "area_km2": 29.5, "centroid": [19.2297, 41.8419], "razlog": "termalni front + povoljna dubina", "dubina_panule_m": 7.5, "sst_raspon_C": 0.9, "sst_promjena_3d_C": 0.0, "upwelling": 0.0, "hladnije_C": -0.1, "izgledi": "slabi"}}, {"type": "Feature", "geometry": {"type": "Polygon", "coordinates": [[[19.09, 42.005], [19.07, 42.005], [19.055, 41.99], [19.055, 41.96], [19.08, 41.935], [19.105, 41.94], [19.105, 41.98], [19.09, 42.005]]]}, "properties": {"score_mean": 20.5, "score_max": 29.2, "area_km2": 26.7, "centroid": [19.081, 41.97], "razlog": "termalni front + povoljna dubina", "dubina_panule_m": 7.5, "sst_raspon_C": 0.5, "sst_promjena_3d_C": 0.0, "upwelling": 0.0, "hladnije_C": 0.1, "izgledi": "slabi"}}, {"type": "Feature", "geometry": {"type": "Polygon", "coordinates": [[[19.02, 42.095], [18.995, 42.09], [19.0, 42.065], [19.025, 42.07], [19.02, 42.095]]]}, "properties": {"score_mean": 16.6, "score_max": 19.3, "area_km2": 8.3, "centroid": [19.01, 42.08], "razlog": "termalni front + povoljna dubina", "dubina_panule_m": 7.5, "sst_raspon_C": 0.6, "sst_promjena_3d_C": 0.0, "upwelling": 0.1, "hladnije_C": 0.1, "izgledi": "slabi"}}, {"type": "Feature", "geometry": {"type": "Polygon", "coordinates": [[[18.65, 42.325], [18.625, 42.32], [18.625, 42.3], [18.645, 42.27], [18.645, 42.26], [18.67, 42.245], [18.675, 42.23], [18.7, 42.205], [18.73, 42.205], [18.735, 42.21], [18.735, 42.25], [18.72, 42.265], [18.71, 42.265], [18.65, 42.325]]]}, "properties": {"score_mean": 4.9, "score_max": 20.2, "area_km2": 59.6, "centroid": [18.6822, 42.2622], "razlog": "termalni front + povoljna dubina", "dubina_panule_m": 7.5, "sst_raspon_C": 0.6, "sst_promjena_3d_C": 0.0, "upwelling": 0.0, "hladnije_C": -0.2, "izgledi": "vrlo slabi"}}]}