{"type": "FeatureCollection", "properties": {"vrsta": "lampuga", "naziv": "Lampuga", "latinski": "Coryphaena hippurus", "datum": "2026-08-24", "panula": {"dubina_m": [0.0, 15.0], "brzina_kn": [5.0, 7.0], "granica_dubine_m": 50.0}, "vertikala": {"termoklina_m": 6.7, "termoklina_C_po_m": 0.5, "dcm_m": 91.2, "dcm_odnos": 1.0, "mld_m": 11.9, "sloj_plijena_m": [54.7, 114.7], "dohvatljivost": 0.0, "objasnjenje": "Termoklina na 7 m, sloj plijena oko 91 m — ispod dohvata panule od 50 m."}, "bezbjednost": {"nivo": "zuto", "razlog": "vjetar 12 cv", "izlazak_preporucen": true}, "napomena": "2-5 dana nakon jakih kisa Bojana izbacuje drvene naplavine — to je predvidljiv generator pozicija."}, "features": [{"type": "Feature", "geometry": {"type": "Polygon", "coordinates": [[[19.08, 41.995], [19.05, 41.995], [19.045, 41.99], [19.045, 41.95], [19.06, 41.935], [19.075, 41.93], [19.075, 41.92], [19.09, 41.905], [19.11, 41.905], [19.115, 41.91], [19.115, 41.95], [19.085, 41.98], [19.08, 41.995]]]}, "properties": {"score_mean": 12.1, "score_max": 19.0, "area_km2": 39.6, "centroid": [19.0802, 41.9514], "razlog": "povoljna dubina + termalni front", "dubina_panule_m": 7.5}}, {"type": "Feature", "geometry": {"type": "Polygon", "coordinates": [[[19.21, 41.885], [19.18, 41.885], [19.175, 41.88], [19.175, 41.85], [19.19, 41.835], [19.2, 41.835], [19.23, 41.805], [19.25, 41.805], [19.255, 41.83], [19.21, 41.885]]]}, "properties": {"score_mean": 11.8, "score_max": 18.1, "area_km2": 36.0, "centroid": [19.2138, 41.8469], "razlog": "povoljna dubina + termalni front", "dubina_panule_m": 7.5}}, {"type": "Feature", "geometry": {"type": "Polygon", "coordinates": [[[19.03, 42.055], [19.005, 42.05], [19.01, 42.025], [19.035, 42.03], [19.03, 42.055]]]}, "properties": {"score_mean": 10.3, "score_max": 11.3, "area_km2": 8.3, "centroid": [19.02, 42.04], "razlog": "povoljna dubina + smicanje struje", "dubina_panule_m": 7.5}}, {"type": "Feature", "geometry": {"type": "Polygon", "coordinates": [[[19.41, 41.655], [19.385, 41.65], [19.39, 41.625], [19.415, 41.63], [19.41, 41.655]]]}, "properties": {"score_mean": 9.3, "score_max": 10.5, "area_km2": 8.3, "centroid": [19.4, 41.64], "razlog": "povoljna dubina + gradijent hlorofila", "dubina_panule_m": 7.5}}, {"type": "Feature", "geometry": {"type": "Polygon", "coordinates": [[[19.48, 41.775], [19.455, 41.77], [19.46, 41.745], [19.485, 41.75], [19.48, 41.775]]]}, "properties": {"score_mean": 8.3, "score_max": 9.7, "area_km2": 8.3, "centroid": [19.47, 41.76], "razlog": "povoljna dubina + termalni front", "dubina_panule_m": 7.5}}]}