{"type": "FeatureCollection", "properties": {"vrsta": "lampuga", "naziv": "Lampuga", "latinski": "Coryphaena hippurus", "datum": "2026-09-25", "profil": null, "panula": {"dubina_m": [0.0, 15.0], "brzina_kn": [5.0, 7.0], "sati": "sredina dana, uz plutajuce objekte", "granica_dubine_m": 50.0}, "vertikala": {"termoklina_m": 28.0, "termoklina_C_po_m": 0.2, "dcm_m": 91.2, "dcm_odnos": 1.0, "dcm_debljina_m": 41.3, "mld_m": 20.0, "sloj_plijena_m": [65.8, 105.3], "dohvatljivost": 0.0, "objasnjenje": "Termoklina na 28 m. Sloj plijena lezi pretezno ispod 50 m, dakle izvan dohvata panule. Najveca gustina hlorofila je na 91 m (sloj debljine 41 m) - tu se skuplja sitna riba koja se hrani planktonom, pa je i najveca vjerovatnoca da su grabljivice tu negdje."}, "bezbjednost": {"nivo": "crveno", "razlog": "vjetar 18 cv, udari 33 cv", "izlazak_preporucen": false}, "napomena": "2-5 dana nakon jakih kisa Bojana izbacuje drvene naplavine - to je predvidljiv generator pozicija.", "razlog_praznog": null}, "features": [{"type": "Feature", "geometry": {"type": "Polygon", "coordinates": [[[19.07, 42.015], [19.045, 42.01], [19.045, 41.96], [19.07, 41.925], [19.09, 41.925], [19.095, 41.93], [19.095, 41.99], [19.07, 42.015]]]}, "properties": {"score_mean": 37.6, "score_max": 45.2, "area_km2": 35.0, "centroid": [19.0705, 41.9705], "razlog": "termalni front + povoljna dubina", "dubina_panule_m": 7.5, "sst_raspon_C": 0.8, "sst_promjena_3d_C": -2.5, "upwelling": 0.3, "hladnije_C": 0.4, "izgledi": "osrednji"}}, {"type": "Feature", "geometry": {"type": "Polygon", "coordinates": [[[18.945, 42.06], [18.92, 42.065], [18.895, 42.05], [18.885, 42.02], [18.875, 42.01], [18.875, 41.98], [18.89, 41.965], [18.92, 41.965], [18.945, 41.98], [18.945, 42.06]]]}, "properties": {"score_mean": 30.6, "score_max": 33.9, "area_km2": 52.5, "centroid": [18.9135, 42.0118], "razlog": "termalni front + povoljna dubina", "dubina_panule_m": 7.5, "sst_raspon_C": 0.6, "sst_promjena_3d_C": -1.5, "upwelling": 0.0, "hladnije_C": -0.2, "izgledi": "osrednji"}}, {"type": "Feature", "geometry": {"type": "Polygon", "coordinates": [[[18.69, 42.305], [18.66, 42.305], [18.655, 42.3], [18.655, 42.28], [18.67, 42.265], [18.695, 42.27], [18.695, 42.3], [18.69, 42.305]]]}, "properties": {"score_mean": 25.5, "score_max": 43.4, "area_km2": 13.8, "centroid": [18.676, 42.286], "razlog": "termalni front + povoljna dubina", "dubina_panule_m": 7.5, "sst_raspon_C": 0.9, "sst_promjena_3d_C": -1.7, "upwelling": 0.4, "hladnije_C": 0.3, "izgledi": "osrednji"}}, {"type": "Feature", "geometry": {"type": "Polygon", "coordinates": [[[18.73, 42.265], [18.7, 42.265], [18.695, 42.26], [18.695, 42.23], [18.71, 42.215], [18.735, 42.22], [18.735, 42.26], [18.73, 42.265]]]}, "properties": {"score_mean": 21.1, "score_max": 40.0, "area_km2": 17.4, "centroid": [18.7158, 42.2411], "razlog": "povoljna dubina + termalni front", "dubina_panule_m": 7.5, "sst_raspon_C": 0.4, "sst_promjena_3d_C": -1.8, "upwelling": 0.0, "hladnije_C": 0.4, "izgledi": "slabi"}}, {"type": "Feature", "geometry": {"type": "Polygon", "coordinates": [[[18.93, 41.885], [18.89, 41.885], [18.885, 41.88], [18.885, 41.84], [18.9, 41.825], [18.91, 41.825], [18.92, 41.805], [18.945, 41.81], [18.945, 41.86], [18.93, 41.885]]]}, "properties": {"score_mean": 1.6, "score_max": 1.8, "area_km2": 36.0, "centroid": [18.9167, 41.8485], "razlog": "povoljna dubina + termalni front", "dubina_panule_m": 7.5, "sst_raspon_C": 0.4, "sst_promjena_3d_C": -1.6, "upwelling": 0.3, "hladnije_C": 0.1, "izgledi": "vrlo slabi"}}]}