{"type": "FeatureCollection", "properties": {"vrsta": "lampuga", "naziv": "Lampuga", "latinski": "Coryphaena hippurus", "datum": "2026-09-05", "profil": null, "panula": {"dubina_m": [0.0, 15.0], "brzina_kn": [5.0, 7.0], "sati": "sredina dana, uz plutajuce objekte", "granica_dubine_m": 50.0}, "vertikala": {"termoklina_m": 17.8, "termoklina_C_po_m": 0.4, "dcm_m": 91.2, "dcm_odnos": 1.0, "dcm_debljina_m": 42.6, "mld_m": 11.9, "sloj_plijena_m": [58.3, 102.9], "dohvatljivost": 0.0, "objasnjenje": "Termoklina na 18 m. Sloj plijena lezi pretezno ispod 50 m, dakle izvan dohvata panule. Najveca gustina hlorofila je na 91 m (sloj debljine 43 m) - tu se skuplja sitna riba koja se hrani planktonom, pa je i najveca vjerovatnoca da su grabljivice tu negdje."}, "bezbjednost": {"nivo": "zuto", "razlog": "vjetar 12 cv", "izlazak_preporucen": true}, "napomena": "2-5 dana nakon jakih kisa Bojana izbacuje drvene naplavine - to je predvidljiv generator pozicija.", "razlog_praznog": null}, "features": [{"type": "Feature", "geometry": {"type": "Polygon", "coordinates": [[[19.09, 41.995], [19.06, 41.995], [19.055, 41.99], [19.055, 41.96], [19.08, 41.935], [19.105, 41.94], [19.105, 41.97], [19.09, 41.995]]]}, "properties": {"score_mean": 22.5, "score_max": 24.6, "area_km2": 23.0, "centroid": [19.0804, 41.966], "razlog": "termalni front + povoljna dubina", "dubina_panule_m": 7.5, "sst_raspon_C": 0.5, "sst_promjena_3d_C": -0.2, "upwelling": 0.5, "hladnije_C": 0.4, "izgledi": "slabi"}}, {"type": "Feature", "geometry": {"type": "Polygon", "coordinates": [[[18.86, 42.215], [18.835, 42.21], [18.84, 42.185], [18.865, 42.19], [18.86, 42.215]]]}, "properties": {"score_mean": 14.5, "score_max": 15.6, "area_km2": 8.3, "centroid": [18.85, 42.2], "razlog": "termalni front + povoljna dubina", "dubina_panule_m": 7.5, "sst_raspon_C": 1.2, "sst_promjena_3d_C": 0.3, "upwelling": 0.0, "hladnije_C": -0.1, "izgledi": "slabi"}}, {"type": "Feature", "geometry": {"type": "Polygon", "coordinates": [[[18.73, 42.265], [18.7, 42.265], [18.695, 42.26], [18.695, 42.23], [18.71, 42.215], [18.735, 42.22], [18.735, 42.26], [18.73, 42.265]]]}, "properties": {"score_mean": 13.3, "score_max": 22.4, "area_km2": 17.4, "centroid": [18.7158, 42.2411], "razlog": "termalni front + povoljna dubina", "dubina_panule_m": 7.5, "sst_raspon_C": 0.8, "sst_promjena_3d_C": -0.0, "upwelling": 0.0, "hladnije_C": 0.2, "izgledi": "slabi"}}, {"type": "Feature", "geometry": {"type": "Polygon", "coordinates": [[[18.69, 42.305], [18.66, 42.305], [18.655, 42.3], [18.655, 42.28], [18.67, 42.265], [18.695, 42.27], [18.695, 42.3], [18.69, 42.305]]]}, "properties": {"score_mean": 13.0, "score_max": 24.3, "area_km2": 13.8, "centroid": [18.676, 42.286], "razlog": "termalni front + povoljna dubina", "dubina_panule_m": 7.5, "sst_raspon_C": 0.7, "sst_promjena_3d_C": -0.1, "upwelling": 0.0, "hladnije_C": 0.3, "izgledi": "slabi"}}, {"type": "Feature", "geometry": {"type": "Polygon", "coordinates": [[[18.94, 42.135], [18.915, 42.13], [18.92, 42.105], [18.945, 42.11], [18.94, 42.135]]]}, "properties": {"score_mean": 11.0, "score_max": 12.6, "area_km2": 8.3, "centroid": [18.93, 42.12], "razlog": "termalni front + povoljna dubina", "dubina_panule_m": 7.5, "sst_raspon_C": 0.8, "sst_promjena_3d_C": 0.6, "upwelling": 0.0, "hladnije_C": -0.1, "izgledi": "vrlo slabi"}}]}