{"type": "FeatureCollection", "properties": {"vrsta": "lampuga", "naziv": "Lampuga", "latinski": "Coryphaena hippurus", "datum": "2026-10-01", "profil": null, "panula": {"dubina_m": [0.0, 15.0], "brzina_kn": [5.0, 7.0], "sati": "sredina dana, uz plutajuce objekte", "granica_dubine_m": 50.0}, "vertikala": {"termoklina_m": 35.8, "termoklina_C_po_m": 0.1, "dcm_m": 91.2, "dcm_odnos": 1.0, "dcm_debljina_m": 40.7, "mld_m": 19.3, "sloj_plijena_m": [65.7, 111.0], "dohvatljivost": 0.0, "objasnjenje": "Termoklina na 36 m. Sloj plijena lezi pretezno ispod 50 m, dakle izvan dohvata panule. Najveca gustina hlorofila je na 91 m (sloj debljine 41 m) - tu se skuplja sitna riba koja se hrani planktonom, pa je i najveca vjerovatnoca da su grabljivice tu negdje."}, "bezbjednost": {"nivo": "zuto", "razlog": "talasi do 1.0 m", "izlazak_preporucen": true}, "napomena": "2-5 dana nakon jakih kisa Bojana izbacuje drvene naplavine - to je predvidljiv generator pozicija.", "razlog_praznog": null}, "features": [{"type": "Feature", "geometry": {"type": "Polygon", "coordinates": [[[18.86, 42.215], [18.83, 42.215], [18.825, 42.21], [18.825, 42.18], [18.84, 42.165], [18.85, 42.165], [18.855, 42.15], [18.88, 42.125], [18.9, 42.125], [18.91, 42.095], [18.94, 42.095], [18.945, 42.1], [18.945, 42.13], [18.94, 42.135], [18.91, 42.135], [18.905, 42.14], [18.905, 42.17], [18.9, 42.175], [18.87, 42.175], [18.86, 42.215]]]}, "properties": {"score_mean": 17.3, "score_max": 37.9, "area_km2": 51.4, "centroid": [18.8825, 42.1545], "razlog": "termalni front + povoljna dubina", "dubina_panule_m": 7.5, "sst_raspon_C": 1.2, "sst_promjena_3d_C": -0.2, "upwelling": 0.0, "hladnije_C": 0.3, "izgledi": "slabi"}}, {"type": "Feature", "geometry": {"type": "Polygon", "coordinates": [[[18.66, 42.315], [18.635, 42.31], [18.635, 42.28], [18.675, 42.24], [18.675, 42.23], [18.7, 42.205], [18.73, 42.205], [18.735, 42.21], [18.735, 42.26], [18.71, 42.265], [18.695, 42.28], [18.69, 42.305], [18.67, 42.305], [18.66, 42.315]]]}, "properties": {"score_mean": 11.8, "score_max": 42.8, "area_km2": 57.8, "centroid": [18.6873, 42.2597], "razlog": "povoljna dubina + termalni front", "dubina_panule_m": 7.5, "sst_raspon_C": 0.8, "sst_promjena_3d_C": -0.3, "upwelling": 0.0, "hladnije_C": -0.1, "izgledi": "vrlo slabi"}}, {"type": "Feature", "geometry": {"type": "Polygon", "coordinates": [[[18.94, 42.015], [18.91, 42.015], [18.885, 42.0], [18.885, 41.96], [18.9, 41.955], [18.92, 41.935], [18.945, 41.94], [18.945, 42.01], [18.94, 42.015]]]}, "properties": {"score_mean": 8.3, "score_max": 12.1, "area_km2": 37.8, "centroid": [18.918, 41.9771], "razlog": "povoljna dubina + termalni front", "dubina_panule_m": 7.5, "sst_raspon_C": 0.4, "sst_promjena_3d_C": 0.2, "upwelling": 0.1, "hladnije_C": 0.3, "izgledi": "vrlo slabi"}}, {"type": "Feature", "geometry": {"type": "Polygon", "coordinates": [[[18.92, 41.835], [18.89, 41.835], [18.885, 41.83], [18.885, 41.79], [18.92, 41.765], [18.94, 41.765], [18.945, 41.77], [18.945, 41.81], [18.92, 41.835]]]}, "properties": {"score_mean": 1.8, "score_max": 2.0, "area_km2": 32.3, "centroid": [18.9151, 41.8009], "razlog": "termalni front + povoljna dubina", "dubina_panule_m": 7.5, "sst_raspon_C": 0.7, "sst_promjena_3d_C": -0.2, "upwelling": 0.0, "hladnije_C": -0.3, "izgledi": "vrlo slabi"}}]}