{"type": "FeatureCollection", "properties": {"vrsta": "lampuga", "naziv": "Lampuga", "latinski": "Coryphaena hippurus", "datum": "2026-09-01", "profil": null, "panula": {"dubina_m": [0.0, 15.0], "brzina_kn": [5.0, 7.0], "sati": "sredina dana, uz plutajuce objekte", "granica_dubine_m": 50.0}, "vertikala": {"termoklina_m": 11.9, "termoklina_C_po_m": 0.3, "dcm_m": 91.2, "dcm_odnos": 1.0, "dcm_debljina_m": 31.0, "mld_m": 11.9, "sloj_plijena_m": [67.1, 100.5], "dohvatljivost": 0.0, "objasnjenje": "Termoklina na 12 m. Sloj plijena lezi pretezno ispod 50 m, dakle izvan dohvata panule. Najveca gustina hlorofila je na 91 m (sloj debljine 31 m) - tu se skuplja sitna riba koja se hrani planktonom, pa je i najveca vjerovatnoca da su grabljivice tu negdje."}, "bezbjednost": {"nivo": "zuto", "razlog": "vjetar 14 cv", "izlazak_preporucen": true}, "napomena": "2-5 dana nakon jakih kisa Bojana izbacuje drvene naplavine - to je predvidljiv generator pozicija.", "razlog_praznog": null}, "features": [{"type": "Feature", "geometry": {"type": "Polygon", "coordinates": [[[19.09, 42.015], [19.06, 42.015], [19.055, 42.01], [19.055, 41.96], [19.08, 41.935], [19.105, 41.94], [19.105, 42.0], [19.09, 42.015]]]}, "properties": {"score_mean": 28.8, "score_max": 35.2, "area_km2": 33.2, "centroid": [19.0808, 41.9767], "razlog": "termalni front + povoljna dubina", "dubina_panule_m": 7.5, "sst_raspon_C": 0.5, "sst_promjena_3d_C": -0.2, "upwelling": 0.7, "hladnije_C": 0.5, "izgledi": "osrednji"}}, {"type": "Feature", "geometry": {"type": "Polygon", "coordinates": [[[18.94, 42.135], [18.915, 42.13], [18.92, 42.105], [18.945, 42.11], [18.94, 42.135]]]}, "properties": {"score_mean": 21.6, "score_max": 23.2, "area_km2": 8.3, "centroid": [18.93, 42.12], "razlog": "povoljna dubina + termalni front", "dubina_panule_m": 7.5, "sst_raspon_C": 0.3, "sst_promjena_3d_C": 0.3, "upwelling": 0.0, "hladnije_C": 0.1, "izgledi": "slabi"}}, {"type": "Feature", "geometry": {"type": "Polygon", "coordinates": [[[19.02, 42.095], [18.995, 42.09], [19.0, 42.065], [19.025, 42.07], [19.02, 42.095]]]}, "properties": {"score_mean": 18.9, "score_max": 21.2, "area_km2": 8.3, "centroid": [19.01, 42.08], "razlog": "povoljna dubina + termalni front", "dubina_panule_m": 7.5, "sst_raspon_C": 0.4, "sst_promjena_3d_C": 0.5, "upwelling": 0.0, "hladnije_C": 0.0, "izgledi": "slabi"}}, {"type": "Feature", "geometry": {"type": "Polygon", "coordinates": [[[18.66, 42.315], [18.635, 42.31], [18.635, 42.28], [18.685, 42.23], [18.685, 42.22], [18.7, 42.205], [18.73, 42.205], [18.735, 42.21], [18.735, 42.26], [18.71, 42.265], [18.695, 42.28], [18.69, 42.305], [18.67, 42.305], [18.66, 42.315]]]}, "properties": {"score_mean": 6.1, "score_max": 18.6, "area_km2": 56.9, "centroid": [18.6874, 42.2602], "razlog": "povoljna dubina + smicanje struje", "dubina_panule_m": 7.5, "sst_raspon_C": 0.2, "sst_promjena_3d_C": 0.2, "upwelling": 0.0, "hladnije_C": 0.0, "izgledi": "vrlo slabi"}}]}