{"type": "FeatureCollection", "properties": {"vrsta": "lampuga", "naziv": "Lampuga", "latinski": "Coryphaena hippurus", "datum": "2026-10-12", "profil": null, "panula": {"dubina_m": [0.0, 15.0], "brzina_kn": [5.0, 7.0], "sati": "sredina dana, uz plutajuce objekte", "granica_dubine_m": 50.0}, "vertikala": {"termoklina_m": 40.0, "termoklina_C_po_m": 0.1, "dcm_m": 78.6, "dcm_odnos": 1.0, "dcm_debljina_m": 39.8, "mld_m": 23.9, "sloj_plijena_m": [45.6, 90.8], "dohvatljivost": 0.1, "objasnjenje": "Termoklina na 40 m. Sloj plijena lezi pretezno ispod 50 m, dakle izvan dohvata panule. Najveca gustina hlorofila je na 79 m (sloj debljine 40 m) - tu se skuplja sitna riba koja se hrani planktonom, pa je i najveca vjerovatnoca da su grabljivice tu negdje."}, "bezbjednost": {"nivo": "crveno", "razlog": "vjetar 18 cv, udari 24 cv", "izlazak_preporucen": false}, "napomena": "2-5 dana nakon jakih kisa Bojana izbacuje drvene naplavine - to je predvidljiv generator pozicija.", "razlog_praznog": null}, "features": [{"type": "Feature", "geometry": {"type": "Polygon", "coordinates": [[[18.95, 42.075], [18.92, 42.075], [18.915, 42.07], [18.915, 42.05], [18.925, 42.04], [18.925, 42.03], [18.945, 42.01], [18.95, 41.995], [19.0, 41.985], [19.015, 42.0], [19.015, 42.04], [18.99, 42.055], [18.97, 42.055], [18.95, 42.075]]]}, "properties": {"score_mean": 27.2, "score_max": 31.6, "area_km2": 55.2, "centroid": [18.9672, 42.0302], "razlog": "povoljna dubina + termalni front", "dubina_panule_m": 7.5, "sst_raspon_C": 0.6, "sst_promjena_3d_C": 0.0, "upwelling": 0.0, "hladnije_C": 0.0, "izgledi": "osrednji"}}, {"type": "Feature", "geometry": {"type": "Polygon", "coordinates": [[[18.65, 41.825], [18.62, 41.825], [18.615, 41.82], [18.615, 41.79], [18.65, 41.755], [18.67, 41.755], [18.675, 41.76], [18.675, 41.79], [18.65, 41.825]]]}, "properties": {"score_mean": 3.1, "score_max": 3.9, "area_km2": 29.6, "centroid": [18.6456, 41.7916], "razlog": "povoljna dubina + termalni front", "dubina_panule_m": 7.5, "sst_raspon_C": 0.4, "sst_promjena_3d_C": 0.0, "upwelling": 0.0, "hladnije_C": -0.1, "izgledi": "vrlo slabi"}}]}