{"type": "FeatureCollection", "properties": {"vrsta": "lampuga", "naziv": "Lampuga", "latinski": "Coryphaena hippurus", "datum": "2026-10-09", "profil": null, "panula": {"dubina_m": [0.0, 15.0], "brzina_kn": [5.0, 7.0], "sati": "sredina dana, uz plutajuce objekte", "granica_dubine_m": 50.0}, "vertikala": {"termoklina_m": 31.8, "termoklina_C_po_m": 0.1, "dcm_m": 91.2, "dcm_odnos": 1.0, "dcm_debljina_m": 42.6, "mld_m": 21.5, "sloj_plijena_m": [59.4, 104.0], "dohvatljivost": 0.0, "objasnjenje": "Termoklina na 32 m. Sloj plijena lezi pretezno ispod 50 m, dakle izvan dohvata panule. Najveca gustina hlorofila je na 91 m (sloj debljine 43 m) - tu se skuplja sitna riba koja se hrani planktonom, pa je i najveca vjerovatnoca da su grabljivice tu negdje."}, "bezbjednost": {"nivo": "crveno", "razlog": "talasi do 2.2 m, vjetar 16 cv, udari 22 cv", "izlazak_preporucen": false}, "napomena": "2-5 dana nakon jakih kisa Bojana izbacuje drvene naplavine - to je predvidljiv generator pozicija.", "razlog_praznog": null}, "features": [{"type": "Feature", "geometry": {"type": "Polygon", "coordinates": [[[18.84, 42.215], [18.81, 42.215], [18.805, 42.19], [18.81, 42.185], [18.84, 42.185], [18.845, 42.19], [18.84, 42.215]]]}, "properties": {"score_mean": 37.6, "score_max": 41.1, "area_km2": 11.0, "centroid": [18.825, 42.2], "razlog": "termalni front + povoljna dubina", "dubina_panule_m": 7.5, "sst_raspon_C": 1.3, "sst_promjena_3d_C": -0.3, "upwelling": 0.0, "hladnije_C": -0.0, "izgledi": "osrednji"}}, {"type": "Feature", "geometry": {"type": "Polygon", "coordinates": [[[18.64, 42.335], [18.6, 42.335], [18.595, 42.33], [18.595, 42.3], [18.63, 42.265], [18.65, 42.265], [18.7, 42.235], [18.72, 42.235], [18.725, 42.26], [18.69, 42.275], [18.655, 42.31], [18.655, 42.32], [18.64, 42.335]]]}, "properties": {"score_mean": 29.2, "score_max": 40.5, "area_km2": 55.9, "centroid": [18.6528, 42.2864], "razlog": "termalni front + povoljna dubina", "dubina_panule_m": 7.5, "sst_raspon_C": 0.4, "sst_promjena_3d_C": -0.3, "upwelling": 0.0, "hladnije_C": -0.3, "izgledi": "osrednji"}}, {"type": "Feature", "geometry": {"type": "Polygon", "coordinates": [[[19.0, 42.075], [18.96, 42.075], [18.955, 42.07], [18.955, 42.05], [18.98, 42.005], [19.01, 42.005], [19.025, 42.02], [19.025, 42.04], [19.0, 42.075]]]}, "properties": {"score_mean": 25.0, "score_max": 31.5, "area_km2": 35.0, "centroid": [18.9905, 42.0413], "razlog": "povoljna dubina + termalni front", "dubina_panule_m": 7.5, "sst_raspon_C": 0.4, "sst_promjena_3d_C": -0.3, "upwelling": 0.0, "hladnije_C": -0.0, "izgledi": "osrednji"}}, {"type": "Feature", "geometry": {"type": "Polygon", "coordinates": [[[19.03, 41.985], [19.005, 41.98], [19.01, 41.955], [19.035, 41.96], [19.03, 41.985]]]}, "properties": {"score_mean": 24.6, "score_max": 28.2, "area_km2": 8.3, "centroid": [19.02, 41.97], "razlog": "povoljna dubina + termalni front", "dubina_panule_m": 7.5, "sst_raspon_C": 0.3, "sst_promjena_3d_C": -0.6, "upwelling": 0.0, "hladnije_C": -0.0, "izgledi": "slabi"}}]}