{"type": "FeatureCollection", "properties": {"vrsta": "lampuga", "naziv": "Lampuga", "latinski": "Coryphaena hippurus", "datum": "2026-10-08", "profil": null, "panula": {"dubina_m": [0.0, 15.0], "brzina_kn": [5.0, 7.0], "sati": "sredina dana, uz plutajuce objekte", "granica_dubine_m": 50.0}, "vertikala": {"termoklina_m": 28.0, "termoklina_C_po_m": 0.1, "dcm_m": 91.2, "dcm_odnos": 1.0, "dcm_debljina_m": 36.6, "mld_m": 20.6, "sloj_plijena_m": [67.1, 105.3], "dohvatljivost": 0.0, "objasnjenje": "Termoklina na 28 m. Sloj plijena lezi pretezno ispod 50 m, dakle izvan dohvata panule. Najveca gustina hlorofila je na 91 m (sloj debljine 37 m) - tu se skuplja sitna riba koja se hrani planktonom, pa je i najveca vjerovatnoca da su grabljivice tu negdje."}, "bezbjednost": {"nivo": "crveno", "razlog": "vjetar 16 cv, udari 22 cv", "izlazak_preporucen": false}, "napomena": "2-5 dana nakon jakih kisa Bojana izbacuje drvene naplavine - to je predvidljiv generator pozicija.", "razlog_praznog": null}, "features": [{"type": "Feature", "geometry": {"type": "Polygon", "coordinates": [[[18.65, 42.345], [18.58, 42.345], [18.575, 42.32], [18.59, 42.305], [18.65, 42.305], [18.655, 42.31], [18.655, 42.34], [18.65, 42.345]]]}, "properties": {"score_mean": 24.4, "score_max": 39.3, "area_km2": 28.4, "centroid": [18.6161, 42.3255], "razlog": "termalni front + povoljna dubina", "dubina_panule_m": 7.5, "sst_raspon_C": 0.8, "sst_promjena_3d_C": 0.1, "upwelling": 0.0, "hladnije_C": -0.2, "izgledi": "slabi"}}, {"type": "Feature", "geometry": {"type": "Polygon", "coordinates": [[[18.94, 42.135], [18.915, 42.13], [18.92, 42.105], [18.945, 42.11], [18.94, 42.135]]]}, "properties": {"score_mean": 24.3, "score_max": 28.9, "area_km2": 8.3, "centroid": [18.93, 42.12], "razlog": "povoljna dubina + termalni front", "dubina_panule_m": 7.5, "sst_raspon_C": 0.3, "sst_promjena_3d_C": -0.1, "upwelling": 0.0, "hladnije_C": 0.1, "izgledi": "slabi"}}, {"type": "Feature", "geometry": {"type": "Polygon", "coordinates": [[[18.69, 42.295], [18.67, 42.295], [18.655, 42.28], [18.655, 42.23], [18.67, 42.215], [18.73, 42.215], [18.735, 42.22], [18.735, 42.26], [18.71, 42.265], [18.695, 42.28], [18.69, 42.295]]]}, "properties": {"score_mean": 22.9, "score_max": 40.2, "area_km2": 46.8, "centroid": [18.6918, 42.2494], "razlog": "povoljna dubina + termalni front", "dubina_panule_m": 7.5, "sst_raspon_C": 0.8, "sst_promjena_3d_C": -0.2, "upwelling": 0.0, "hladnije_C": -0.2, "izgledi": "slabi"}}, {"type": "Feature", "geometry": {"type": "Polygon", "coordinates": [[[19.015, 42.03], [18.99, 42.035], [18.97, 42.015], [18.92, 42.025], [18.895, 42.0], [18.895, 41.97], [18.9, 41.965], [18.94, 41.965], [18.95, 41.985], [18.97, 41.985], [18.985, 41.97], [18.99, 41.955], [19.01, 41.955], [19.015, 41.96], [19.015, 42.03]]]}, "properties": {"score_mean": 22.6, "score_max": 35.9, "area_km2": 59.9, "centroid": [18.9605, 41.9951], "razlog": "povoljna dubina + termalni front", "dubina_panule_m": 7.5, "sst_raspon_C": 0.3, "sst_promjena_3d_C": -0.3, "upwelling": 0.0, "hladnije_C": -0.1, "izgledi": "slabi"}}, {"type": "Feature", "geometry": {"type": "Polygon", "coordinates": [[[18.9, 42.175], [18.87, 42.175], [18.865, 42.17], [18.865, 42.15], [18.88, 42.135], [18.905, 42.14], [18.905, 42.17], [18.9, 42.175]]]}, "properties": {"score_mean": 20.2, "score_max": 35.9, "area_km2": 13.8, "centroid": [18.886, 42.156], "razlog": "povoljna dubina + termalni front", "dubina_panule_m": 7.5, "sst_raspon_C": 0.5, "sst_promjena_3d_C": -0.1, "upwelling": 0.2, "hladnije_C": 0.1, "izgledi": "slabi"}}, {"type": "Feature", "geometry": {"type": "Polygon", "coordinates": [[[18.86, 42.215], [18.74, 42.215], [18.735, 42.19], [18.74, 42.185], [18.83, 42.185], [18.84, 42.175], [18.86, 42.175], [18.865, 42.18], [18.865, 42.21], [18.86, 42.215]]]}, "properties": {"score_mean": 18.4, "score_max": 41.5, "area_km2": 38.6, "centroid": [18.8036, 42.1986], "razlog": "termalni front + povoljna dubina", "dubina_panule_m": 7.5, "sst_raspon_C": 1.3, "sst_promjena_3d_C": -0.0, "upwelling": 0.0, "hladnije_C": -0.2, "izgledi": "slabi"}}]}