{"type": "FeatureCollection", "properties": {"vrsta": "lampuga", "naziv": "Lampuga", "latinski": "Coryphaena hippurus", "datum": "2026-09-10", "profil": null, "panula": {"dubina_m": [0.0, 15.0], "brzina_kn": [5.0, 7.0], "sati": "sredina dana, uz plutajuce objekte", "granica_dubine_m": 50.0}, "vertikala": {"termoklina_m": 17.8, "termoklina_C_po_m": 0.3, "dcm_m": 97.9, "dcm_odnos": 1.0, "dcm_debljina_m": 44.5, "mld_m": 11.9, "sloj_plijena_m": [55.6, 108.5], "dohvatljivost": 0.0, "objasnjenje": "Termoklina na 18 m. Sloj plijena lezi pretezno ispod 50 m, dakle izvan dohvata panule. Najveca gustina hlorofila je na 98 m (sloj debljine 44 m) - tu se skuplja sitna riba koja se hrani planktonom, pa je i najveca vjerovatnoca da su grabljivice tu negdje."}, "bezbjednost": {"nivo": "zuto", "razlog": "vjetar 12 cv", "izlazak_preporucen": true}, "napomena": "2-5 dana nakon jakih kisa Bojana izbacuje drvene naplavine - to je predvidljiv generator pozicija.", "razlog_praznog": null}, "features": [{"type": "Feature", "geometry": {"type": "Polygon", "coordinates": [[[19.14, 41.805], [19.07, 41.805], [19.065, 41.8], [19.065, 41.76], [19.11, 41.715], [19.14, 41.715], [19.145, 41.72], [19.145, 41.8], [19.14, 41.805]]]}, "properties": {"score_mean": 28.9, "score_max": 36.5, "area_km2": 57.3, "centroid": [19.109, 41.7648], "razlog": "termalni front + povoljna dubina", "dubina_panule_m": 7.5, "sst_raspon_C": 0.8, "sst_promjena_3d_C": -0.5, "upwelling": 0.0, "hladnije_C": 0.2, "izgledi": "osrednji"}}, {"type": "Feature", "geometry": {"type": "Polygon", "coordinates": [[[18.92, 42.135], [18.895, 42.13], [18.895, 42.11], [18.91, 42.095], [18.935, 42.1], [18.935, 42.12], [18.92, 42.135]]]}, "properties": {"score_mean": 12.2, "score_max": 16.7, "area_km2": 12.9, "centroid": [18.915, 42.115], "razlog": "termalni front + povoljna dubina", "dubina_panule_m": 7.5, "sst_raspon_C": 1.2, "sst_promjena_3d_C": -0.5, "upwelling": 0.2, "hladnije_C": 0.1, "izgledi": "slabi"}}, {"type": "Feature", "geometry": {"type": "Polygon", "coordinates": [[[18.945, 42.01], [18.92, 42.015], [18.885, 41.99], [18.885, 41.95], [18.92, 41.925], [18.945, 41.93], [18.945, 42.01]]]}, "properties": {"score_mean": 10.5, "score_max": 22.6, "area_km2": 42.4, "centroid": [18.918, 41.97], "razlog": "povoljna dubina + termalni front", "dubina_panule_m": 7.5, "sst_raspon_C": 0.5, "sst_promjena_3d_C": 0.1, "upwelling": 0.0, "hladnije_C": -0.0, "izgledi": "vrlo slabi"}}, {"type": "Feature", "geometry": {"type": "Polygon", "coordinates": [[[18.64, 42.345], [18.615, 42.34], [18.615, 42.32], [18.635, 42.3], [18.635, 42.29], [18.675, 42.25], [18.675, 42.24], [18.7, 42.215], [18.73, 42.215], [18.735, 42.22], [18.735, 42.26], [18.71, 42.265], [18.695, 42.28], [18.695, 42.3], [18.67, 42.305], [18.64, 42.345]]]}, "properties": {"score_mean": 8.1, "score_max": 21.9, "area_km2": 59.6, "centroid": [18.6777, 42.276], "razlog": "termalni front + povoljna dubina", "dubina_panule_m": 7.5, "sst_raspon_C": 0.7, "sst_promjena_3d_C": -0.2, "upwelling": 0.0, "hladnije_C": -0.1, "izgledi": "vrlo slabi"}}]}