{"type": "FeatureCollection", "properties": {"vrsta": "lampuga", "naziv": "Lampuga", "latinski": "Coryphaena hippurus", "datum": "2026-08-29", "profil": null, "panula": {"dubina_m": [0.0, 15.0], "brzina_kn": [5.0, 7.0], "sati": "sredina dana, uz plutajuce objekte", "granica_dubine_m": 50.0}, "vertikala": {"termoklina_m": 11.9, "termoklina_C_po_m": 0.2, "dcm_m": 91.2, "dcm_odnos": 1.0, "dcm_debljina_m": 33.7, "mld_m": 11.9, "sloj_plijena_m": [67.1, 100.5], "dohvatljivost": 0.0, "objasnjenje": "Termoklina na 12 m. Sloj plijena lezi pretezno ispod 50 m, dakle izvan dohvata panule. Najveca gustina hlorofila je na 91 m (sloj debljine 34 m) - tu se skuplja sitna riba koja se hrani planktonom, pa je i najveca vjerovatnoca da su grabljivice tu negdje."}, "bezbjednost": {"nivo": "zeleno", "razlog": "uslovi povoljni", "izlazak_preporucen": true}, "napomena": "2-5 dana nakon jakih kisa Bojana izbacuje drvene naplavine - to je predvidljiv generator pozicija.", "razlog_praznog": null}, "features": [{"type": "Feature", "geometry": {"type": "Polygon", "coordinates": [[[19.25, 41.845], [19.225, 41.84], [19.23, 41.815], [19.255, 41.82], [19.25, 41.845]]]}, "properties": {"score_mean": 13.2, "score_max": 15.5, "area_km2": 8.3, "centroid": [19.24, 41.83], "razlog": "povoljna dubina + termalni front", "dubina_panule_m": 7.5, "sst_raspon_C": 0.5, "sst_promjena_3d_C": -0.9, "upwelling": 0.3, "hladnije_C": 0.1, "izgledi": "slabi"}}, {"type": "Feature", "geometry": {"type": "Polygon", "coordinates": [[[19.2, 41.855], [19.175, 41.85], [19.175, 41.83], [19.155, 41.82], [19.155, 41.8], [19.17, 41.795], [19.2, 41.765], [19.23, 41.765], [19.235, 41.77], [19.235, 41.8], [19.22, 41.815], [19.195, 41.82], [19.205, 41.83], [19.2, 41.855]]]}, "properties": {"score_mean": 4.1, "score_max": 11.3, "area_km2": 39.7, "centroid": [19.1963, 41.8053], "razlog": "povoljna dubina + termalni front", "dubina_panule_m": 7.5, "sst_raspon_C": 0.3, "sst_promjena_3d_C": -0.7, "upwelling": 0.0, "hladnije_C": -0.1, "izgledi": "vrlo slabi"}}, {"type": "Feature", "geometry": {"type": "Polygon", "coordinates": [[[19.06, 41.955], [19.02, 41.955], [19.015, 41.95], [19.015, 41.92], [19.04, 41.915], [19.05, 41.925], [19.06, 41.925], [19.065, 41.93], [19.06, 41.955]]]}, "properties": {"score_mean": 3.0, "score_max": 14.4, "area_km2": 16.6, "centroid": [19.0383, 41.9367], "razlog": "povoljna dubina + termalni front", "dubina_panule_m": 7.5, "sst_raspon_C": 0.4, "sst_promjena_3d_C": -0.5, "upwelling": 0.0, "hladnije_C": -0.1, "izgledi": "vrlo slabi"}}, {"type": "Feature", "geometry": {"type": "Polygon", "coordinates": [[[19.1, 41.915], [19.08, 41.915], [19.07, 41.905], [19.06, 41.905], [19.055, 41.88], [19.06, 41.875], [19.09, 41.875], [19.095, 41.85], [19.11, 41.835], [19.13, 41.835], [19.135, 41.84], [19.135, 41.88], [19.12, 41.895], [19.11, 41.895], [19.1, 41.915]]]}, "properties": {"score_mean": 2.5, "score_max": 14.6, "area_km2": 35.1, "centroid": [19.1, 41.8774], "razlog": "povoljna dubina + termalni front", "dubina_panule_m": 7.5, "sst_raspon_C": 0.3, "sst_promjena_3d_C": -0.6, "upwelling": 0.0, "hladnije_C": -0.0, "izgledi": "vrlo slabi"}}]}