{"type": "FeatureCollection", "properties": {"vrsta": "lampuga", "naziv": "Lampuga", "latinski": "Coryphaena hippurus", "datum": "2026-09-13", "profil": null, "panula": {"dubina_m": [0.0, 15.0], "brzina_kn": [5.0, 7.0], "sati": "sredina dana, uz plutajuce objekte", "granica_dubine_m": 50.0}, "vertikala": {"termoklina_m": 17.8, "termoklina_C_po_m": 0.2, "dcm_m": 97.9, "dcm_odnos": 1.0, "dcm_debljina_m": 42.1, "mld_m": 11.9, "sloj_plijena_m": [50.3, 99.4], "dohvatljivost": 0.0, "objasnjenje": "Termoklina na 18 m. Sloj plijena lezi pretezno ispod 50 m, dakle izvan dohvata panule. Najveca gustina hlorofila je na 98 m (sloj debljine 42 m) - tu se skuplja sitna riba koja se hrani planktonom, pa je i najveca vjerovatnoca da su grabljivice tu negdje."}, "bezbjednost": {"nivo": "zuto", "razlog": "vjetar 15 cv", "izlazak_preporucen": true}, "napomena": "2-5 dana nakon jakih kisa Bojana izbacuje drvene naplavine - to je predvidljiv generator pozicija.", "razlog_praznog": null}, "features": [{"type": "Feature", "geometry": {"type": "Polygon", "coordinates": [[[19.09, 41.905], [19.06, 41.905], [19.055, 41.9], [19.055, 41.86], [19.07, 41.835], [19.1, 41.835], [19.105, 41.84], [19.105, 41.89], [19.09, 41.905]]]}, "properties": {"score_mean": 40.0, "score_max": 44.9, "area_km2": 29.5, "centroid": [19.0806, 41.8706], "razlog": "termalni front + povoljna dubina", "dubina_panule_m": 7.5, "sst_raspon_C": 1.2, "sst_promjena_3d_C": -0.8, "upwelling": 0.0, "hladnije_C": 0.5, "izgledi": "dobri"}}, {"type": "Feature", "geometry": {"type": "Polygon", "coordinates": [[[18.945, 42.0], [18.92, 42.005], [18.91, 41.995], [18.86, 41.985], [18.855, 41.96], [18.87, 41.945], [18.88, 41.945], [18.91, 41.925], [18.94, 41.925], [18.945, 41.93], [18.945, 42.0]]]}, "properties": {"score_mean": 23.8, "score_max": 29.0, "area_km2": 49.8, "centroid": [18.9076, 41.9646], "razlog": "termalni front + povoljna dubina", "dubina_panule_m": 7.5, "sst_raspon_C": 0.5, "sst_promjena_3d_C": -0.1, "upwelling": 0.4, "hladnije_C": 0.2, "izgledi": "slabi"}}, {"type": "Feature", "geometry": {"type": "Polygon", "coordinates": [[[18.69, 42.305], [18.65, 42.305], [18.645, 42.28], [18.71, 42.215], [18.73, 42.215], [18.735, 42.22], [18.735, 42.26], [18.71, 42.265], [18.7, 42.275], [18.69, 42.305]]]}, "properties": {"score_mean": 11.4, "score_max": 23.7, "area_km2": 41.3, "centroid": [18.6922, 42.2622], "razlog": "povoljna dubina + termalni front", "dubina_panule_m": 7.5, "sst_raspon_C": 0.5, "sst_promjena_3d_C": 0.0, "upwelling": 0.0, "hladnije_C": -0.1, "izgledi": "vrlo slabi"}}]}