{"type": "FeatureCollection", "properties": {"vrsta": "lampuga", "naziv": "Lampuga", "latinski": "Coryphaena hippurus", "datum": "2026-09-30", "profil": null, "panula": {"dubina_m": [0.0, 15.0], "brzina_kn": [5.0, 7.0], "sati": "sredina dana, uz plutajuce objekte", "granica_dubine_m": 50.0}, "vertikala": {"termoklina_m": 31.8, "termoklina_C_po_m": 0.2, "dcm_m": 91.2, "dcm_odnos": 1.0, "dcm_debljina_m": 41.3, "mld_m": 18.2, "sloj_plijena_m": [63.6, 106.7], "dohvatljivost": 0.0, "objasnjenje": "Termoklina na 32 m. Sloj plijena lezi pretezno ispod 50 m, dakle izvan dohvata panule. Najveca gustina hlorofila je na 91 m (sloj debljine 41 m) - tu se skuplja sitna riba koja se hrani planktonom, pa je i najveca vjerovatnoca da su grabljivice tu negdje."}, "bezbjednost": {"nivo": "zuto", "razlog": "vjetar 13 cv", "izlazak_preporucen": true}, "napomena": "2-5 dana nakon jakih kisa Bojana izbacuje drvene naplavine - to je predvidljiv generator pozicija.", "razlog_praznog": null}, "features": [{"type": "Feature", "geometry": {"type": "Polygon", "coordinates": [[[19.05, 42.035], [19.025, 42.03], [19.025, 42.0], [19.045, 41.99], [19.05, 41.975], [19.07, 41.975], [19.075, 42.0], [19.05, 42.035]]]}, "properties": {"score_mean": 36.6, "score_max": 38.9, "area_km2": 20.3, "centroid": [19.0495, 42.0055], "razlog": "termalni front + povoljna dubina", "dubina_panule_m": 7.5, "sst_raspon_C": 0.5, "sst_promjena_3d_C": 0.1, "upwelling": 0.0, "hladnije_C": -0.2, "izgledi": "osrednji"}}, {"type": "Feature", "geometry": {"type": "Polygon", "coordinates": [[[18.86, 42.215], [18.83, 42.215], [18.825, 42.21], [18.825, 42.19], [18.84, 42.175], [18.865, 42.18], [18.865, 42.21], [18.86, 42.215]]]}, "properties": {"score_mean": 20.6, "score_max": 34.3, "area_km2": 13.8, "centroid": [18.846, 42.196], "razlog": "termalni front + povoljna dubina", "dubina_panule_m": 7.5, "sst_raspon_C": 1.2, "sst_promjena_3d_C": -0.5, "upwelling": 0.0, "hladnije_C": 0.5, "izgledi": "slabi"}}, {"type": "Feature", "geometry": {"type": "Polygon", "coordinates": [[[18.9, 42.175], [18.87, 42.175], [18.865, 42.17], [18.865, 42.15], [18.88, 42.135], [18.905, 42.14], [18.905, 42.17], [18.9, 42.175]]]}, "properties": {"score_mean": 19.7, "score_max": 32.9, "area_km2": 13.8, "centroid": [18.886, 42.156], "razlog": "termalni front + povoljna dubina", "dubina_panule_m": 7.5, "sst_raspon_C": 0.9, "sst_promjena_3d_C": -0.7, "upwelling": 0.2, "hladnije_C": 0.3, "izgledi": "slabi"}}, {"type": "Feature", "geometry": {"type": "Polygon", "coordinates": [[[18.945, 42.02], [18.92, 42.025], [18.895, 42.0], [18.895, 41.98], [18.91, 41.955], [18.94, 41.955], [18.945, 41.96], [18.945, 42.02]]]}, "properties": {"score_mean": 19.2, "score_max": 31.6, "area_km2": 27.6, "centroid": [18.923, 41.989], "razlog": "povoljna dubina + termalni front", "dubina_panule_m": 7.5, "sst_raspon_C": 0.4, "sst_promjena_3d_C": -0.5, "upwelling": 0.2, "hladnije_C": 0.3, "izgledi": "slabi"}}, {"type": "Feature", "geometry": {"type": "Polygon", "coordinates": [[[18.94, 42.135], [18.91, 42.135], [18.905, 42.13], [18.905, 42.11], [18.92, 42.095], [18.945, 42.1], [18.945, 42.13], [18.94, 42.135]]]}, "properties": {"score_mean": 16.5, "score_max": 33.0, "area_km2": 13.8, "centroid": [18.926, 42.116], "razlog": "povoljna dubina + termalni front", "dubina_panule_m": 7.5, "sst_raspon_C": 0.4, "sst_promjena_3d_C": -0.9, "upwelling": 0.0, "hladnije_C": 0.1, "izgledi": "slabi"}}, {"type": "Feature", "geometry": {"type": "Polygon", "coordinates": [[[18.66, 42.315], [18.635, 42.31], [18.635, 42.28], [18.685, 42.23], [18.685, 42.22], [18.7, 42.205], [18.73, 42.205], [18.735, 42.21], [18.735, 42.26], [18.71, 42.265], [18.695, 42.28], [18.69, 42.305], [18.67, 42.305], [18.66, 42.315]]]}, "properties": {"score_mean": 10.9, "score_max": 38.5, "area_km2": 56.9, "centroid": [18.6874, 42.2602], "razlog": "povoljna dubina + termalni front", "dubina_panule_m": 7.5, "sst_raspon_C": 0.8, "sst_promjena_3d_C": -0.3, "upwelling": 0.0, "hladnije_C": -0.1, "izgledi": "vrlo slabi"}}]}