{"type": "FeatureCollection", "properties": {"vrsta": "lampuga", "naziv": "Lampuga", "latinski": "Coryphaena hippurus", "datum": "2026-08-31", "profil": null, "panula": {"dubina_m": [0.0, 15.0], "brzina_kn": [5.0, 7.0], "sati": "sredina dana, uz plutajuce objekte", "granica_dubine_m": 50.0}, "vertikala": {"termoklina_m": 11.9, "termoklina_C_po_m": 0.3, "dcm_m": 91.2, "dcm_odnos": 1.0, "dcm_debljina_m": 33.7, "mld_m": 11.9, "sloj_plijena_m": [67.4, 100.5], "dohvatljivost": 0.0, "objasnjenje": "Termoklina na 12 m. Sloj plijena lezi pretezno ispod 50 m, dakle izvan dohvata panule. Najveca gustina hlorofila je na 91 m (sloj debljine 34 m) - tu se skuplja sitna riba koja se hrani planktonom, pa je i najveca vjerovatnoca da su grabljivice tu negdje."}, "bezbjednost": {"nivo": "zuto", "razlog": "vjetar 12 cv", "izlazak_preporucen": true}, "napomena": "2-5 dana nakon jakih kisa Bojana izbacuje drvene naplavine - to je predvidljiv generator pozicija.", "razlog_praznog": null}, "features": [{"type": "Feature", "geometry": {"type": "Polygon", "coordinates": [[[18.86, 42.215], [18.835, 42.21], [18.84, 42.185], [18.865, 42.19], [18.86, 42.215]]]}, "properties": {"score_mean": 12.8, "score_max": 13.8, "area_km2": 8.3, "centroid": [18.85, 42.2], "razlog": "termalni front + povoljna dubina", "dubina_panule_m": 7.5, "sst_raspon_C": 0.6, "sst_promjena_3d_C": 0.4, "upwelling": 0.3, "hladnije_C": 0.1, "izgledi": "slabi"}}, {"type": "Feature", "geometry": {"type": "Polygon", "coordinates": [[[19.21, 41.875], [19.185, 41.87], [19.185, 41.84], [19.19, 41.835], [19.22, 41.825], [19.25, 41.805], [19.28, 41.805], [19.285, 41.81], [19.28, 41.835], [19.26, 41.835], [19.25, 41.845], [19.24, 41.845], [19.21, 41.875]]]}, "properties": {"score_mean": 12.0, "score_max": 14.3, "area_km2": 34.2, "centroid": [19.2314, 41.8373], "razlog": "termalni front + povoljna dubina", "dubina_panule_m": 7.5, "sst_raspon_C": 0.7, "sst_promjena_3d_C": 0.3, "upwelling": 0.1, "hladnije_C": 0.1, "izgledi": "slabi"}}, {"type": "Feature", "geometry": {"type": "Polygon", "coordinates": [[[19.07, 42.025], [19.045, 42.02], [19.045, 41.96], [19.055, 41.95], [19.055, 41.94], [19.075, 41.93], [19.075, 41.92], [19.09, 41.905], [19.11, 41.905], [19.115, 41.91], [19.115, 41.94], [19.105, 41.95], [19.105, 41.97], [19.095, 41.98], [19.095, 42.01], [19.07, 42.025]]]}, "properties": {"score_mean": 10.7, "score_max": 14.8, "area_km2": 52.5, "centroid": [19.0781, 41.966], "razlog": "povoljna dubina + termalni front", "dubina_panule_m": 7.5, "sst_raspon_C": 0.4, "sst_promjena_3d_C": 0.5, "upwelling": 0.0, "hladnije_C": 0.0, "izgledi": "vrlo slabi"}}, {"type": "Feature", "geometry": {"type": "Polygon", "coordinates": [[[18.66, 42.305], [18.635, 42.3], [18.635, 42.28], [18.645, 42.27], [18.645, 42.26], [18.67, 42.245], [18.675, 42.23], [18.7, 42.205], [18.73, 42.205], [18.735, 42.21], [18.735, 42.24], [18.71, 42.245], [18.705, 42.27], [18.67, 42.285], [18.66, 42.305]]]}, "properties": {"score_mean": 2.0, "score_max": 11.5, "area_km2": 44.0, "centroid": [18.6856, 42.2523], "razlog": "povoljna dubina + termalni front", "dubina_panule_m": 7.5, "sst_raspon_C": 0.5, "sst_promjena_3d_C": 0.5, "upwelling": 0.0, "hladnije_C": -0.0, "izgledi": "vrlo slabi"}}]}