{"type": "FeatureCollection", "properties": {"vrsta": "lampuga", "naziv": "Lampuga", "latinski": "Coryphaena hippurus", "datum": "2026-09-03", "profil": null, "panula": {"dubina_m": [0.0, 15.0], "brzina_kn": [5.0, 7.0], "sati": "sredina dana, uz plutajuce objekte", "granica_dubine_m": 50.0}, "vertikala": {"termoklina_m": 14.8, "termoklina_C_po_m": 0.3, "dcm_m": 91.2, "dcm_odnos": 1.0, "dcm_debljina_m": 46.5, "mld_m": 11.9, "sloj_plijena_m": [59.7, 108.2], "dohvatljivost": 0.0, "objasnjenje": "Termoklina na 15 m. Sloj plijena lezi pretezno ispod 50 m, dakle izvan dohvata panule. Najveca gustina hlorofila je na 91 m (sloj debljine 46 m) - tu se skuplja sitna riba koja se hrani planktonom, pa je i najveca vjerovatnoca da su grabljivice tu negdje."}, "bezbjednost": {"nivo": "zuto", "razlog": "vjetar 14 cv", "izlazak_preporucen": true}, "napomena": "2-5 dana nakon jakih kisa Bojana izbacuje drvene naplavine - to je predvidljiv generator pozicija.", "razlog_praznog": null}, "features": [{"type": "Feature", "geometry": {"type": "Polygon", "coordinates": [[[19.08, 42.025], [19.055, 42.02], [19.055, 41.95], [19.08, 41.935], [19.1, 41.935], [19.105, 41.94], [19.105, 42.0], [19.08, 42.025]]]}, "properties": {"score_mean": 32.4, "score_max": 37.1, "area_km2": 36.8, "centroid": [19.0795, 41.9792], "razlog": "termalni front + povoljna dubina", "dubina_panule_m": 7.5, "sst_raspon_C": 0.5, "sst_promjena_3d_C": -0.9, "upwelling": 0.7, "hladnije_C": 0.5, "izgledi": "osrednji"}}, {"type": "Feature", "geometry": {"type": "Polygon", "coordinates": [[[18.86, 42.215], [18.835, 42.21], [18.84, 42.185], [18.865, 42.19], [18.86, 42.215]]]}, "properties": {"score_mean": 16.2, "score_max": 17.4, "area_km2": 8.3, "centroid": [18.85, 42.2], "razlog": "povoljna dubina + termalni front", "dubina_panule_m": 7.5, "sst_raspon_C": 0.5, "sst_promjena_3d_C": -0.6, "upwelling": 0.0, "hladnije_C": -0.2, "izgledi": "slabi"}}, {"type": "Feature", "geometry": {"type": "Polygon", "coordinates": [[[18.94, 42.135], [18.915, 42.13], [18.92, 42.105], [18.945, 42.11], [18.94, 42.135]]]}, "properties": {"score_mean": 14.6, "score_max": 16.1, "area_km2": 8.3, "centroid": [18.93, 42.12], "razlog": "povoljna dubina + termalni front", "dubina_panule_m": 7.5, "sst_raspon_C": 0.3, "sst_promjena_3d_C": -0.8, "upwelling": 0.0, "hladnije_C": 0.1, "izgledi": "slabi"}}, {"type": "Feature", "geometry": {"type": "Polygon", "coordinates": [[[18.73, 42.265], [18.7, 42.265], [18.695, 42.26], [18.695, 42.23], [18.7, 42.225], [18.73, 42.225], [18.735, 42.23], [18.735, 42.26], [18.73, 42.265]]]}, "properties": {"score_mean": 13.4, "score_max": 19.0, "area_km2": 14.7, "centroid": [18.715, 42.245], "razlog": "povoljna dubina + termalni front", "dubina_panule_m": 7.5, "sst_raspon_C": 0.2, "sst_promjena_3d_C": -0.7, "upwelling": 0.0, "hladnije_C": 0.1, "izgledi": "slabi"}}, {"type": "Feature", "geometry": {"type": "Polygon", "coordinates": [[[18.9, 42.175], [18.875, 42.17], [18.88, 42.145], [18.905, 42.15], [18.9, 42.175]]]}, "properties": {"score_mean": 13.1, "score_max": 15.1, "area_km2": 8.3, "centroid": [18.89, 42.16], "razlog": "termalni front + povoljna dubina", "dubina_panule_m": 7.5, "sst_raspon_C": 0.6, "sst_promjena_3d_C": -0.6, "upwelling": 0.0, "hladnije_C": -0.2, "izgledi": "slabi"}}, {"type": "Feature", "geometry": {"type": "Polygon", "coordinates": [[[18.69, 42.305], [18.66, 42.305], [18.655, 42.3], [18.655, 42.28], [18.67, 42.265], [18.695, 42.27], [18.695, 42.3], [18.69, 42.305]]]}, "properties": {"score_mean": 11.2, "score_max": 18.9, "area_km2": 13.8, "centroid": [18.676, 42.286], "razlog": "povoljna dubina + smicanje struje", "dubina_panule_m": 7.5, "sst_raspon_C": 0.3, "sst_promjena_3d_C": -0.7, "upwelling": 0.0, "hladnije_C": 0.0, "izgledi": "vrlo slabi"}}]}