{"type": "FeatureCollection", "properties": {"vrsta": "lampuga", "naziv": "Lampuga", "latinski": "Coryphaena hippurus", "datum": "2026-10-10", "profil": null, "panula": {"dubina_m": [0.0, 15.0], "brzina_kn": [5.0, 7.0], "sati": "sredina dana, uz plutajuce objekte", "granica_dubine_m": 50.0}, "vertikala": {"termoklina_m": 31.8, "termoklina_C_po_m": 0.1, "dcm_m": 84.7, "dcm_odnos": 1.0, "dcm_debljina_m": 45.3, "mld_m": 20.9, "sloj_plijena_m": [47.0, 98.3], "dohvatljivost": 0.1, "objasnjenje": "Termoklina na 32 m. Sloj plijena lezi pretezno ispod 50 m, dakle izvan dohvata panule. Najveca gustina hlorofila je na 85 m (sloj debljine 45 m) - tu se skuplja sitna riba koja se hrani planktonom, pa je i najveca vjerovatnoca da su grabljivice tu negdje."}, "bezbjednost": {"nivo": "crveno", "razlog": "talasi do 1.1 m, vjetar 18 cv, udari 24 cv", "izlazak_preporucen": false}, "napomena": "2-5 dana nakon jakih kisa Bojana izbacuje drvene naplavine - to je predvidljiv generator pozicija.", "razlog_praznog": null}, "features": [{"type": "Feature", "geometry": {"type": "Polygon", "coordinates": [[[18.63, 42.345], [18.56, 42.345], [18.545, 42.33], [18.545, 42.31], [18.55, 42.305], [18.58, 42.305], [18.59, 42.295], [18.65, 42.295], [18.655, 42.32], [18.63, 42.345]]]}, "properties": {"score_mean": 29.6, "score_max": 37.5, "area_km2": 43.1, "centroid": [18.6011, 42.3202], "razlog": "povoljna dubina + termalni front", "dubina_panule_m": 7.5, "sst_raspon_C": 0.5, "sst_promjena_3d_C": -0.1, "upwelling": 0.0, "hladnije_C": -0.1, "izgledi": "osrednji"}}, {"type": "Feature", "geometry": {"type": "Polygon", "coordinates": [[[18.95, 42.085], [18.92, 42.085], [18.915, 42.08], [18.915, 42.05], [18.94, 42.025], [18.97, 42.025], [18.99, 42.005], [19.01, 42.005], [19.015, 42.01], [19.015, 42.05], [18.99, 42.075], [18.96, 42.075], [18.95, 42.085]]]}, "properties": {"score_mean": 26.3, "score_max": 32.4, "area_km2": 50.6, "centroid": [18.9669, 42.0478], "razlog": "povoljna dubina + termalni front", "dubina_panule_m": 7.5, "sst_raspon_C": 0.5, "sst_promjena_3d_C": -0.1, "upwelling": 0.0, "hladnije_C": 0.0, "izgledi": "osrednji"}}]}