{"type": "FeatureCollection", "properties": {"vrsta": "lampuga", "naziv": "Lampuga", "latinski": "Coryphaena hippurus", "datum": "2026-08-22", "panula": {"dubina_m": [0.0, 15.0], "brzina_kn": [5.0, 7.0], "granica_dubine_m": 50.0}, "vertikala": {"termoklina_m": 11.9, "termoklina_C_po_m": 0.1, "dcm_m": 91.2, "dcm_odnos": 1.0, "dcm_debljina_m": 39.8, "mld_m": 11.9, "sloj_plijena_m": [64.2, 107.6], "dohvatljivost": 0.0, "objasnjenje": "Termoklina na 12 m. Sloj plijena leži pretežno ispod 50 m, dakle izvan dohvata panule. Najveća gustina hlorofila je na 91 m (sloj debljine 40 m) — tu se skuplja sitna riba koja se hrani planktonom, pa je i najveća vjerovatnoća da su grabljivice tu negdje."}, "bezbjednost": {"nivo": "zuto", "razlog": "vjetar 12 cv", "izlazak_preporucen": true}, "napomena": "2-5 dana nakon jakih kisa Bojana izbacuje drvene naplavine — to je predvidljiv generator pozicija."}, "features": [{"type": "Feature", "geometry": {"type": "Polygon", "coordinates": [[[18.9, 42.175], [18.875, 42.17], [18.88, 42.145], [18.905, 42.15], [18.9, 42.175]]]}, "properties": {"score_mean": 14.1, "score_max": 16.1, "area_km2": 8.3, "centroid": [18.89, 42.16], "razlog": "povoljna dubina + termalni front", "dubina_panule_m": 7.5, "sst_raspon_C": 0.8, "sst_promjena_3d_C": 0.1, "upwelling": 0.2, "hladnije_C": 0.1, "izgledi": "slabi"}}, {"type": "Feature", "geometry": {"type": "Polygon", "coordinates": [[[18.94, 42.135], [18.915, 42.13], [18.92, 42.105], [18.945, 42.11], [18.94, 42.135]]]}, "properties": {"score_mean": 13.4, "score_max": 16.1, "area_km2": 8.3, "centroid": [18.93, 42.12], "razlog": "povoljna dubina + termalni front", "dubina_panule_m": 7.5, "sst_raspon_C": 0.4, "sst_promjena_3d_C": 0.3, "upwelling": 0.2, "hladnije_C": 0.1, "izgledi": "slabi"}}, {"type": "Feature", "geometry": {"type": "Polygon", "coordinates": [[[19.22, 41.885], [19.19, 41.885], [19.175, 41.87], [19.175, 41.85], [19.2, 41.825], [19.21, 41.825], [19.22, 41.815], [19.24, 41.815], [19.245, 41.84], [19.235, 41.85], [19.235, 41.87], [19.22, 41.885]]]}, "properties": {"score_mean": 12.8, "score_max": 17.2, "area_km2": 33.2, "centroid": [19.2108, 41.8514], "razlog": "termalni front + povoljna dubina", "dubina_panule_m": 7.5, "sst_raspon_C": 1.2, "sst_promjena_3d_C": 1.5, "upwelling": 0.0, "hladnije_C": 0.3, "izgledi": "slabi"}}, {"type": "Feature", "geometry": {"type": "Polygon", "coordinates": [[[19.06, 42.015], [19.035, 42.01], [19.035, 41.96], [19.05, 41.935], [19.06, 41.935], [19.085, 41.91], [19.09, 41.895], [19.11, 41.895], [19.115, 41.9], [19.115, 41.95], [19.085, 41.98], [19.085, 41.99], [19.065, 42.0], [19.06, 42.015]]]}, "properties": {"score_mean": 9.9, "score_max": 19.7, "area_km2": 53.5, "centroid": [19.0747, 41.9553], "razlog": "termalni front + povoljna dubina", "dubina_panule_m": 7.5, "sst_raspon_C": 0.9, "sst_promjena_3d_C": 1.4, "upwelling": 0.1, "hladnije_C": 0.0, "izgledi": "vrlo slabi"}}, {"type": "Feature", "geometry": {"type": "Polygon", "coordinates": [[[19.0, 42.095], [18.975, 42.09], [18.975, 42.06], [18.98, 42.055], [19.005, 42.06], [19.005, 42.09], [19.0, 42.095]]]}, "properties": {"score_mean": 8.6, "score_max": 17.0, "area_km2": 11.0, "centroid": [18.99, 42.075], "razlog": "povoljna dubina + termalni front", "dubina_panule_m": 7.5, "sst_raspon_C": 0.4, "sst_promjena_3d_C": 0.6, "upwelling": 0.5, "hladnije_C": 0.2, "izgledi": "vrlo slabi"}}, {"type": "Feature", "geometry": {"type": "Polygon", "coordinates": [[[18.7, 42.275], [18.675, 42.27], [18.675, 42.22], [18.7, 42.195], [18.74, 42.195], [18.745, 42.22], [18.73, 42.235], [18.715, 42.24], [18.715, 42.26], [18.7, 42.275]]]}, "properties": {"score_mean": 2.5, "score_max": 15.9, "area_km2": 35.8, "centroid": [18.7051, 42.2305], "razlog": "termalni front + povoljna dubina", "dubina_panule_m": 7.5, "sst_raspon_C": 0.8, "sst_promjena_3d_C": -0.9, "upwelling": 0.6, "hladnije_C": 0.3, "izgledi": "vrlo slabi"}}]}