{"type": "FeatureCollection", "properties": {"vrsta": "lampuga", "naziv": "Lampuga", "latinski": "Coryphaena hippurus", "datum": "2026-09-24", "profil": null, "panula": {"dubina_m": [0.0, 15.0], "brzina_kn": [5.0, 7.0], "sati": "sredina dana, uz plutajuce objekte", "granica_dubine_m": 50.0}, "vertikala": {"termoklina_m": 28.0, "termoklina_C_po_m": 0.2, "dcm_m": 97.9, "dcm_odnos": 1.0, "dcm_debljina_m": 43.0, "mld_m": 19.2, "sloj_plijena_m": [61.2, 107.6], "dohvatljivost": 0.0, "objasnjenje": "Termoklina na 28 m. Sloj plijena lezi pretezno ispod 50 m, dakle izvan dohvata panule. Najveca gustina hlorofila je na 98 m (sloj debljine 43 m) - tu se skuplja sitna riba koja se hrani planktonom, pa je i najveca vjerovatnoca da su grabljivice tu negdje."}, "bezbjednost": {"nivo": "crveno", "razlog": "vjetar 23 cv, udari 31 cv", "izlazak_preporucen": false}, "napomena": "2-5 dana nakon jakih kisa Bojana izbacuje drvene naplavine - to je predvidljiv generator pozicija.", "razlog_praznog": null}, "features": [{"type": "Feature", "geometry": {"type": "Polygon", "coordinates": [[[19.08, 41.965], [19.06, 41.965], [19.045, 41.95], [19.045, 41.93], [19.06, 41.915], [19.09, 41.915], [19.095, 41.92], [19.095, 41.95], [19.08, 41.965]]]}, "properties": {"score_mean": 37.1, "score_max": 42.5, "area_km2": 20.3, "centroid": [19.0709, 41.9391], "razlog": "termalni front + povoljna dubina", "dubina_panule_m": 7.5, "sst_raspon_C": 0.7, "sst_promjena_3d_C": 0.0, "upwelling": 0.2, "hladnije_C": 0.1, "izgledi": "osrednji"}}, {"type": "Feature", "geometry": {"type": "Polygon", "coordinates": [[[18.94, 42.025], [18.9, 42.025], [18.895, 42.02], [18.895, 41.99], [18.9, 41.985], [18.94, 41.985], [18.945, 41.99], [18.945, 42.02], [18.94, 42.025]]]}, "properties": {"score_mean": 26.2, "score_max": 29.0, "area_km2": 18.4, "centroid": [18.92, 42.005], "razlog": "povoljna dubina + smicanje struje", "dubina_panule_m": 7.5, "sst_raspon_C": 0.2, "sst_promjena_3d_C": 0.0, "upwelling": 0.0, "hladnije_C": -0.0, "izgledi": "osrednji"}}, {"type": "Feature", "geometry": {"type": "Polygon", "coordinates": [[[18.8, 42.055], [18.77, 42.055], [18.765, 42.05], [18.765, 42.03], [18.78, 42.015], [18.81, 42.015], [18.815, 42.02], [18.815, 42.04], [18.8, 42.055]]]}, "properties": {"score_mean": 24.4, "score_max": 33.2, "area_km2": 16.6, "centroid": [18.79, 42.035], "razlog": "povoljna dubina + termalni front", "dubina_panule_m": 7.5, "sst_raspon_C": 0.4, "sst_promjena_3d_C": 0.0, "upwelling": 0.3, "hladnije_C": 0.2, "izgledi": "slabi"}}]}