{"type": "FeatureCollection", "properties": {"vrsta": "lampuga", "naziv": "Lampuga", "latinski": "Coryphaena hippurus", "datum": "2026-10-11", "profil": null, "panula": {"dubina_m": [0.0, 15.0], "brzina_kn": [5.0, 7.0], "sati": "sredina dana, uz plutajuce objekte", "granica_dubine_m": 50.0}, "vertikala": {"termoklina_m": 35.8, "termoklina_C_po_m": 0.1, "dcm_m": 78.6, "dcm_odnos": 1.0, "dcm_debljina_m": 44.5, "mld_m": 23.0, "sloj_plijena_m": [45.6, 92.1], "dohvatljivost": 0.1, "objasnjenje": "Termoklina na 36 m. Sloj plijena lezi pretezno ispod 50 m, dakle izvan dohvata panule. Najveca gustina hlorofila je na 79 m (sloj debljine 44 m) - tu se skuplja sitna riba koja se hrani planktonom, pa je i najveca vjerovatnoca da su grabljivice tu negdje."}, "bezbjednost": {"nivo": "crveno", "razlog": "talasi do 1.8 m, vjetar 18 cv, udari 24 cv", "izlazak_preporucen": false}, "napomena": "2-5 dana nakon jakih kisa Bojana izbacuje drvene naplavine - to je predvidljiv generator pozicija.", "razlog_praznog": null}, "features": [{"type": "Feature", "geometry": {"type": "Polygon", "coordinates": [[[18.94, 42.095], [18.915, 42.09], [18.92, 42.065], [18.945, 42.07], [18.94, 42.095]]]}, "properties": {"score_mean": 27.2, "score_max": 29.4, "area_km2": 8.3, "centroid": [18.93, 42.08], "razlog": "povoljna dubina + termalni front", "dubina_panule_m": 7.5, "sst_raspon_C": 0.3, "sst_promjena_3d_C": 0.0, "upwelling": 0.0, "hladnije_C": -0.0, "izgledi": "osrednji"}}, {"type": "Feature", "geometry": {"type": "Polygon", "coordinates": [[[18.72, 42.265], [18.695, 42.26], [18.7, 42.235], [18.725, 42.24], [18.72, 42.265]]]}, "properties": {"score_mean": 26.2, "score_max": 32.2, "area_km2": 8.3, "centroid": [18.71, 42.25], "razlog": "termalni front + povoljna dubina", "dubina_panule_m": 7.5, "sst_raspon_C": 0.6, "sst_promjena_3d_C": -0.2, "upwelling": 0.0, "hladnije_C": -0.1, "izgledi": "osrednji"}}, {"type": "Feature", "geometry": {"type": "Polygon", "coordinates": [[[18.85, 42.195], [18.825, 42.19], [18.825, 42.16], [18.86, 42.125], [18.88, 42.125], [18.885, 42.15], [18.855, 42.18], [18.85, 42.195]]]}, "properties": {"score_mean": 24.8, "score_max": 28.8, "area_km2": 24.8, "centroid": [18.8533, 42.1589], "razlog": "povoljna dubina + termalni front", "dubina_panule_m": 7.5, "sst_raspon_C": 0.5, "sst_promjena_3d_C": 0.1, "upwelling": 0.0, "hladnije_C": -0.0, "izgledi": "slabi"}}]}