{"type": "FeatureCollection", "properties": {"vrsta": "lampuga", "naziv": "Lampuga", "latinski": "Coryphaena hippurus", "datum": "2026-09-21", "profil": null, "panula": {"dubina_m": [0.0, 15.0], "brzina_kn": [5.0, 7.0], "sati": "sredina dana, uz plutajuce objekte", "granica_dubine_m": 50.0}, "vertikala": {"termoklina_m": 24.5, "termoklina_C_po_m": 0.2, "dcm_m": 97.9, "dcm_odnos": 1.0, "dcm_debljina_m": 39.6, "mld_m": 12.3, "sloj_plijena_m": [59.4, 108.5], "dohvatljivost": 0.0, "objasnjenje": "Termoklina na 24 m. Sloj plijena lezi pretezno ispod 50 m, dakle izvan dohvata panule. Najveca gustina hlorofila je na 98 m (sloj debljine 40 m) - tu se skuplja sitna riba koja se hrani planktonom, pa je i najveca vjerovatnoca da su grabljivice tu negdje."}, "bezbjednost": {"nivo": "zuto", "razlog": "vjetar 11 cv", "izlazak_preporucen": true}, "napomena": "2-5 dana nakon jakih kisa Bojana izbacuje drvene naplavine - to je predvidljiv generator pozicija.", "razlog_praznog": null}, "features": [{"type": "Feature", "geometry": {"type": "Polygon", "coordinates": [[[19.06, 41.985], [19.0, 41.985], [18.995, 41.98], [18.995, 41.95], [19.01, 41.925], [19.06, 41.925], [19.065, 41.93], [19.065, 41.94], [19.075, 41.95], [19.075, 41.97], [19.06, 41.985]]]}, "properties": {"score_mean": 36.3, "score_max": 39.1, "area_km2": 39.6, "centroid": [19.0342, 41.9563], "razlog": "termalni front + povoljna dubina", "dubina_panule_m": 7.5, "sst_raspon_C": 0.9, "sst_promjena_3d_C": 0.0, "upwelling": 0.0, "hladnije_C": -0.1, "izgledi": "osrednji"}}, {"type": "Feature", "geometry": {"type": "Polygon", "coordinates": [[[19.14, 41.835], [19.1, 41.835], [19.095, 41.83], [19.105, 41.78], [19.12, 41.765], [19.145, 41.77], [19.145, 41.83], [19.14, 41.835]]]}, "properties": {"score_mean": 35.8, "score_max": 39.2, "area_km2": 27.7, "centroid": [19.123, 41.803], "razlog": "termalni front + povoljna dubina", "dubina_panule_m": 7.5, "sst_raspon_C": 1.1, "sst_promjena_3d_C": 0.0, "upwelling": 0.0, "hladnije_C": -0.1, "izgledi": "osrednji"}}, {"type": "Feature", "geometry": {"type": "Polygon", "coordinates": [[[18.91, 42.035], [18.89, 42.035], [18.875, 42.02], [18.875, 41.98], [18.91, 41.955], [18.94, 41.955], [18.945, 41.96], [18.945, 42.01], [18.93, 42.015], [18.91, 42.035]]]}, "properties": {"score_mean": 32.8, "score_max": 37.2, "area_km2": 42.4, "centroid": [18.9102, 41.9937], "razlog": "termalni front + povoljna dubina", "dubina_panule_m": 7.5, "sst_raspon_C": 0.8, "sst_promjena_3d_C": 0.0, "upwelling": 0.0, "hladnije_C": 0.0, "izgledi": "osrednji"}}]}