{"type": "FeatureCollection", "properties": {"vrsta": "lampuga", "naziv": "Lampuga", "latinski": "Coryphaena hippurus", "datum": "2026-09-23", "profil": null, "panula": {"dubina_m": [0.0, 15.0], "brzina_kn": [5.0, 7.0], "sati": "sredina dana, uz plutajuce objekte", "granica_dubine_m": 50.0}, "vertikala": {"termoklina_m": 24.5, "termoklina_C_po_m": 0.2, "dcm_m": 97.9, "dcm_odnos": 1.0, "dcm_debljina_m": 41.6, "mld_m": 18.7, "sloj_plijena_m": [59.4, 108.5], "dohvatljivost": 0.0, "objasnjenje": "Termoklina na 24 m. Sloj plijena lezi pretezno ispod 50 m, dakle izvan dohvata panule. Najveca gustina hlorofila je na 98 m (sloj debljine 42 m) - tu se skuplja sitna riba koja se hrani planktonom, pa je i najveca vjerovatnoca da su grabljivice tu negdje."}, "bezbjednost": {"nivo": "crveno", "razlog": "talasi do 1.6 m, vjetar 23 cv, udari 31 cv", "izlazak_preporucen": false}, "napomena": "2-5 dana nakon jakih kisa Bojana izbacuje drvene naplavine - to je predvidljiv generator pozicija.", "razlog_praznog": null}, "features": [{"type": "Feature", "geometry": {"type": "Polygon", "coordinates": [[[19.09, 41.955], [19.06, 41.955], [19.055, 41.95], [19.055, 41.91], [19.07, 41.895], [19.095, 41.9], [19.095, 41.95], [19.09, 41.955]]]}, "properties": {"score_mean": 38.5, "score_max": 42.5, "area_km2": 21.2, "centroid": [19.0757, 41.9261], "razlog": "termalni front + povoljna dubina", "dubina_panule_m": 7.5, "sst_raspon_C": 0.8, "sst_promjena_3d_C": 0.0, "upwelling": 0.4, "hladnije_C": 0.2, "izgledi": "osrednji"}}, {"type": "Feature", "geometry": {"type": "Polygon", "coordinates": [[[18.94, 42.045], [18.91, 42.045], [18.895, 42.03], [18.885, 42.0], [18.875, 41.99], [18.875, 41.97], [18.89, 41.945], [18.94, 41.945], [18.945, 41.95], [18.945, 42.04], [18.94, 42.045]]]}, "properties": {"score_mean": 31.3, "score_max": 39.3, "area_km2": 54.3, "centroid": [18.9147, 41.9917], "razlog": "povoljna dubina + termalni front", "dubina_panule_m": 7.5, "sst_raspon_C": 0.2, "sst_promjena_3d_C": 0.5, "upwelling": 0.0, "hladnije_C": -0.0, "izgledi": "osrednji"}}, {"type": "Feature", "geometry": {"type": "Polygon", "coordinates": [[[18.82, 42.105], [18.795, 42.1], [18.8, 42.075], [18.825, 42.08], [18.82, 42.105]]]}, "properties": {"score_mean": 20.1, "score_max": 24.6, "area_km2": 8.3, "centroid": [18.81, 42.09], "razlog": "termalni front + povoljna dubina", "dubina_panule_m": 7.5, "sst_raspon_C": 0.6, "sst_promjena_3d_C": 0.1, "upwelling": 0.0, "hladnije_C": -0.0, "izgledi": "slabi"}}]}