{"type": "FeatureCollection", "properties": {"vrsta": "lica", "naziv": "Lica", "latinski": "Lichia amia", "datum": "2026-09-11", "profil": null, "panula": {"dubina_m": [0.0, 8.0], "brzina_kn": [3.0, 5.0], "sati": "zora i sumrak", "granica_dubine_m": 50.0}, "vertikala": {"termoklina_m": 17.8, "termoklina_C_po_m": 0.3, "dcm_m": 97.9, "dcm_odnos": 1.0, "dcm_debljina_m": 44.5, "mld_m": 11.9, "sloj_plijena_m": [54.2, 106.9], "dohvatljivost": 0.0, "objasnjenje": "Termoklina na 18 m. Sloj plijena lezi pretezno ispod 50 m, dakle izvan dohvata panule. Najveca gustina hlorofila je na 98 m (sloj debljine 44 m) - tu se skuplja sitna riba koja se hrani planktonom, pa je i najveca vjerovatnoca da su grabljivice tu negdje."}, "bezbjednost": {"nivo": "zuto", "razlog": "vjetar 12 cv", "izlazak_preporucen": true}, "napomena": "Proljece i septembar, najvise uz Bojanu. Kod Volujice se nekad lovila, zadnjih godina je skoro nema.", "razlog_praznog": null}, "features": [{"type": "Feature", "geometry": {"type": "Polygon", "coordinates": [[[19.14, 41.875], [19.1, 41.875], [19.095, 41.87], [19.095, 41.83], [19.075, 41.82], [19.075, 41.79], [19.08, 41.785], [19.14, 41.785], [19.145, 41.79], [19.145, 41.87], [19.14, 41.875]]]}, "properties": {"score_mean": 12.4, "score_max": 15.0, "area_km2": 48.9, "centroid": [19.1147, 41.8262], "razlog": "zora/sumrak + prisustvo mamca", "dubina_panule_m": 4.0, "sst_raspon_C": 0.5, "sst_promjena_3d_C": -0.2, "upwelling": 0.0, "hladnije_C": -0.0, "izgledi": "slabi"}}, {"type": "Feature", "geometry": {"type": "Polygon", "coordinates": [[[18.94, 41.965], [18.9, 41.965], [18.895, 41.96], [18.895, 41.93], [18.93, 41.895], [18.99, 41.895], [18.995, 41.9], [18.995, 41.93], [18.98, 41.945], [18.95, 41.945], [18.94, 41.965]]]}, "properties": {"score_mean": 11.8, "score_max": 14.2, "area_km2": 48.9, "centroid": [18.9438, 41.9277], "razlog": "zora/sumrak + prisustvo mamca", "dubina_panule_m": 4.0, "sst_raspon_C": 0.5, "sst_promjena_3d_C": -0.1, "upwelling": 0.4, "hladnije_C": 0.3, "izgledi": "vrlo slabi"}}, {"type": "Feature", "geometry": {"type": "Polygon", "coordinates": [[[18.87, 42.215], [18.84, 42.215], [18.835, 42.19], [18.84, 42.185], [18.87, 42.185], [18.875, 42.19], [18.87, 42.215]]]}, "properties": {"score_mean": 9.1, "score_max": 9.7, "area_km2": 11.0, "centroid": [18.855, 42.2], "razlog": "zora/sumrak + prisustvo mamca", "dubina_panule_m": 4.0, "sst_raspon_C": 0.3, "sst_promjena_3d_C": -0.1, "upwelling": 0.1, "hladnije_C": 0.1, "izgledi": "vrlo slabi"}}, {"type": "Feature", "geometry": {"type": "Polygon", "coordinates": [[[18.7, 42.315], [18.65, 42.315], [18.645, 42.31], [18.645, 42.28], [18.71, 42.215], [18.74, 42.215], [18.745, 42.22], [18.745, 42.27], [18.74, 42.275], [18.71, 42.275], [18.7, 42.315]]]}, "properties": {"score_mean": 4.4, "score_max": 9.6, "area_km2": 57.8, "centroid": [18.6968, 42.2668], "razlog": "zora/sumrak + prisustvo mamca", "dubina_panule_m": 4.0, "sst_raspon_C": 0.5, "sst_promjena_3d_C": -0.1, "upwelling": 0.0, "hladnije_C": -0.1, "izgledi": "vrlo slabi"}}]}