{"type": "FeatureCollection", "properties": {"vrsta": "lica", "naziv": "Lica", "latinski": "Lichia amia", "datum": "2026-09-06", "profil": null, "panula": {"dubina_m": [0.0, 8.0], "brzina_kn": [3.0, 5.0], "sati": "zora i sumrak", "granica_dubine_m": 50.0}, "vertikala": {"termoklina_m": 14.8, "termoklina_C_po_m": 0.4, "dcm_m": 91.2, "dcm_odnos": 1.0, "dcm_debljina_m": 41.6, "mld_m": 11.9, "sloj_plijena_m": [57.8, 101.5], "dohvatljivost": 0.0, "objasnjenje": "Termoklina na 15 m. Sloj plijena lezi pretezno ispod 50 m, dakle izvan dohvata panule. Najveca gustina hlorofila je na 91 m (sloj debljine 42 m) - tu se skuplja sitna riba koja se hrani planktonom, pa je i najveca vjerovatnoca da su grabljivice tu negdje."}, "bezbjednost": {"nivo": "zuto", "razlog": "vjetar 13 cv", "izlazak_preporucen": true}, "napomena": "Proljece i septembar, najvise uz Bojanu. Kod Volujice se nekad lovila, zadnjih godina je skoro nema.", "razlog_praznog": null}, "features": [{"type": "Feature", "geometry": {"type": "Polygon", "coordinates": [[[19.11, 41.975], [19.08, 41.975], [19.075, 41.97], [19.075, 41.92], [19.09, 41.895], [19.12, 41.895], [19.125, 41.9], [19.125, 41.93], [19.115, 41.94], [19.115, 41.97], [19.11, 41.975]]]}, "properties": {"score_mean": 12.1, "score_max": 17.2, "area_km2": 31.3, "centroid": [19.0988, 41.9344], "razlog": "zora/sumrak + prisustvo mamca", "dubina_panule_m": 4.0, "sst_raspon_C": 1.0, "sst_promjena_3d_C": -0.3, "upwelling": 0.5, "hladnije_C": 0.2, "izgledi": "slabi"}}, {"type": "Feature", "geometry": {"type": "Polygon", "coordinates": [[[18.87, 42.225], [18.84, 42.225], [18.835, 42.22], [18.835, 42.19], [18.84, 42.185], [18.87, 42.185], [18.875, 42.19], [18.875, 42.22], [18.87, 42.225]]]}, "properties": {"score_mean": 10.5, "score_max": 14.0, "area_km2": 14.7, "centroid": [18.855, 42.205], "razlog": "zora/sumrak + prisustvo mamca", "dubina_panule_m": 4.0, "sst_raspon_C": 1.0, "sst_promjena_3d_C": -0.2, "upwelling": 0.0, "hladnije_C": 0.4, "izgledi": "vrlo slabi"}}, {"type": "Feature", "geometry": {"type": "Polygon", "coordinates": [[[18.74, 42.275], [18.71, 42.275], [18.705, 42.27], [18.705, 42.23], [18.71, 42.225], [18.74, 42.225], [18.745, 42.23], [18.745, 42.27], [18.74, 42.275]]]}, "properties": {"score_mean": 2.8, "score_max": 3.9, "area_km2": 18.3, "centroid": [18.725, 42.25], "razlog": "zora/sumrak + prisustvo mamca", "dubina_panule_m": 4.0, "sst_raspon_C": 0.5, "sst_promjena_3d_C": 0.1, "upwelling": 0.0, "hladnije_C": -0.3, "izgledi": "vrlo slabi"}}, {"type": "Feature", "geometry": {"type": "Polygon", "coordinates": [[[18.69, 42.315], [18.665, 42.31], [18.665, 42.29], [18.68, 42.275], [18.705, 42.28], [18.705, 42.3], [18.69, 42.315]]]}, "properties": {"score_mean": 2.4, "score_max": 3.2, "area_km2": 12.8, "centroid": [18.685, 42.295], "razlog": "zora/sumrak + prisustvo mamca", "dubina_panule_m": 4.0, "sst_raspon_C": 0.8, "sst_promjena_3d_C": 0.1, "upwelling": 0.0, "hladnije_C": -0.4, "izgledi": "vrlo slabi"}}, {"type": "Feature", "geometry": {"type": "Polygon", "coordinates": [[[18.66, 42.345], [18.635, 42.34], [18.64, 42.315], [18.665, 42.32], [18.66, 42.345]]]}, "properties": {"score_mean": 2.0, "score_max": 3.5, "area_km2": 8.2, "centroid": [18.65, 42.33], "razlog": "zora/sumrak + prisustvo mamca", "dubina_panule_m": 4.0, "sst_raspon_C": 1.2, "sst_promjena_3d_C": -0.2, "upwelling": 0.0, "hladnije_C": -0.1, "izgledi": "vrlo slabi"}}]}