{"type": "FeatureCollection", "properties": {"vrsta": "lica", "naziv": "Lica", "latinski": "Lichia amia", "datum": "2026-10-11", "profil": null, "panula": {"dubina_m": [0.0, 8.0], "brzina_kn": [3.0, 5.0], "sati": "zora i sumrak", "granica_dubine_m": 50.0}, "vertikala": {"termoklina_m": 35.8, "termoklina_C_po_m": 0.1, "dcm_m": 78.6, "dcm_odnos": 1.0, "dcm_debljina_m": 43.4, "mld_m": 25.1, "sloj_plijena_m": [45.6, 92.5], "dohvatljivost": 0.1, "objasnjenje": "Termoklina na 36 m. Sloj plijena lezi pretezno ispod 50 m, dakle izvan dohvata panule. Najveca gustina hlorofila je na 79 m (sloj debljine 43 m) - tu se skuplja sitna riba koja se hrani planktonom, pa je i najveca vjerovatnoca da su grabljivice tu negdje."}, "bezbjednost": {"nivo": "crveno", "razlog": "talasi do 1.4 m, vjetar 15 cv, udari 22 cv", "izlazak_preporucen": false}, "napomena": "Proljece i septembar, najvise uz Bojanu. Kod Volujice se nekad lovila, zadnjih godina je skoro nema.", "razlog_praznog": null}, "features": [{"type": "Feature", "geometry": {"type": "Polygon", "coordinates": [[[19.04, 41.995], [19.015, 41.99], [19.015, 41.96], [19.03, 41.945], [19.06, 41.945], [19.065, 41.97], [19.04, 41.995]]]}, "properties": {"score_mean": 13.7, "score_max": 15.6, "area_km2": 19.3, "centroid": [19.0386, 41.9686], "razlog": "zora/sumrak + prisustvo mamca", "dubina_panule_m": 4.0, "sst_raspon_C": 0.6, "sst_promjena_3d_C": 0.0, "upwelling": 0.5, "hladnije_C": 0.2, "izgledi": "slabi"}}, {"type": "Feature", "geometry": {"type": "Polygon", "coordinates": [[[18.87, 42.165], [18.845, 42.16], [18.845, 42.14], [18.855, 42.13], [18.855, 42.12], [18.885, 42.11], [18.885, 42.09], [18.915, 42.06], [18.92, 42.045], [18.94, 42.045], [18.945, 42.05], [18.945, 42.08], [18.925, 42.1], [18.92, 42.115], [18.895, 42.12], [18.895, 42.14], [18.87, 42.165]]]}, "properties": {"score_mean": 10.9, "score_max": 12.6, "area_km2": 44.1, "centroid": [18.8971, 42.1058], "razlog": "zora/sumrak + prisustvo mamca", "dubina_panule_m": 4.0, "sst_raspon_C": 0.4, "sst_promjena_3d_C": 0.0, "upwelling": 0.3, "hladnije_C": 0.1, "izgledi": "vrlo slabi"}}, {"type": "Feature", "geometry": {"type": "Polygon", "coordinates": [[[18.67, 41.775], [18.645, 41.77], [18.645, 41.75], [18.66, 41.735], [18.685, 41.74], [18.685, 41.76], [18.67, 41.775]]]}, "properties": {"score_mean": 1.4, "score_max": 1.6, "area_km2": 12.9, "centroid": [18.665, 41.755], "razlog": "zora/sumrak + prisustvo mamca", "dubina_panule_m": 4.0, "sst_raspon_C": 0.4, "sst_promjena_3d_C": 0.0, "upwelling": 0.3, "hladnije_C": 0.2, "izgledi": "vrlo slabi"}}]}