{"type": "FeatureCollection", "properties": {"vrsta": "lica", "naziv": "Lica", "latinski": "Lichia amia", "datum": "2026-09-17", "profil": null, "panula": {"dubina_m": [0.0, 8.0], "brzina_kn": [3.0, 5.0], "sati": "zora i sumrak", "granica_dubine_m": 50.0}, "vertikala": {"termoklina_m": 24.5, "termoklina_C_po_m": 0.2, "dcm_m": 97.9, "dcm_odnos": 1.0, "dcm_debljina_m": 35.1, "mld_m": 16.6, "sloj_plijena_m": [58.4, 104.5], "dohvatljivost": 0.0, "objasnjenje": "Termoklina na 24 m. Sloj plijena lezi pretezno ispod 50 m, dakle izvan dohvata panule. Najveca gustina hlorofila je na 98 m (sloj debljine 35 m) - tu se skuplja sitna riba koja se hrani planktonom, pa je i najveca vjerovatnoca da su grabljivice tu negdje."}, "bezbjednost": {"nivo": "zeleno", "razlog": "uslovi povoljni", "izlazak_preporucen": true}, "napomena": "Proljece i septembar, najvise uz Bojanu. Kod Volujice se nekad lovila, zadnjih godina je skoro nema.", "razlog_praznog": null}, "features": [{"type": "Feature", "geometry": {"type": "Polygon", "coordinates": [[[19.105, 42.0], [19.08, 42.005], [19.055, 41.98], [19.055, 41.97], [19.045, 41.96], [19.045, 41.93], [19.07, 41.905], [19.1, 41.905], [19.105, 41.91], [19.105, 42.0]]]}, "properties": {"score_mean": 32.2, "score_max": 35.5, "area_km2": 46.1, "centroid": [19.079, 41.9526], "razlog": "zora/sumrak + prisustvo mamca", "dubina_panule_m": 4.0, "sst_raspon_C": 0.9, "sst_promjena_3d_C": -0.7, "upwelling": 0.5, "hladnije_C": 0.4, "izgledi": "osrednji"}}, {"type": "Feature", "geometry": {"type": "Polygon", "coordinates": [[[18.73, 42.275], [18.705, 42.27], [18.705, 42.24], [18.71, 42.235], [18.74, 42.235], [18.745, 42.24], [18.745, 42.26], [18.73, 42.275]]]}, "properties": {"score_mean": 23.3, "score_max": 24.3, "area_km2": 13.8, "centroid": [18.724, 42.254], "razlog": "zora/sumrak + prisustvo mamca", "dubina_panule_m": 4.0, "sst_raspon_C": 0.3, "sst_promjena_3d_C": -1.0, "upwelling": 0.2, "hladnije_C": 0.2, "izgledi": "slabi"}}, {"type": "Feature", "geometry": {"type": "Polygon", "coordinates": [[[18.7, 42.305], [18.675, 42.3], [18.68, 42.275], [18.705, 42.28], [18.7, 42.305]]]}, "properties": {"score_mean": 21.9, "score_max": 24.1, "area_km2": 8.3, "centroid": [18.69, 42.29], "razlog": "zora/sumrak + prisustvo mamca", "dubina_panule_m": 4.0, "sst_raspon_C": 0.5, "sst_promjena_3d_C": -0.8, "upwelling": 0.0, "hladnije_C": -0.1, "izgledi": "slabi"}}, {"type": "Feature", "geometry": {"type": "Polygon", "coordinates": [[[18.93, 42.055], [18.91, 42.055], [18.885, 42.03], [18.885, 42.0], [18.87, 41.985], [18.855, 41.98], [18.86, 41.955], [18.91, 41.955], [18.925, 41.97], [18.925, 42.0], [18.945, 42.02], [18.945, 42.04], [18.93, 42.055]]]}, "properties": {"score_mean": 20.7, "score_max": 23.2, "area_km2": 49.7, "centroid": [18.9033, 42.0011], "razlog": "zora/sumrak + prisustvo mamca", "dubina_panule_m": 4.0, "sst_raspon_C": 0.4, "sst_promjena_3d_C": -0.3, "upwelling": 0.0, "hladnije_C": 0.0, "izgledi": "slabi"}}]}