{"type": "FeatureCollection", "properties": {"vrsta": "lica", "naziv": "Lica", "latinski": "Lichia amia", "datum": "2026-09-23", "profil": null, "panula": {"dubina_m": [0.0, 8.0], "brzina_kn": [3.0, 5.0], "sati": "zora i sumrak", "granica_dubine_m": 50.0}, "vertikala": {"termoklina_m": 28.0, "termoklina_C_po_m": 0.2, "dcm_m": 97.9, "dcm_odnos": 1.0, "dcm_debljina_m": 39.8, "mld_m": 20.7, "sloj_plijena_m": [61.2, 109.0], "dohvatljivost": 0.0, "objasnjenje": "Termoklina na 28 m. Sloj plijena lezi pretezno ispod 50 m, dakle izvan dohvata panule. Najveca gustina hlorofila je na 98 m (sloj debljine 40 m) - tu se skuplja sitna riba koja se hrani planktonom, pa je i najveca vjerovatnoca da su grabljivice tu negdje."}, "bezbjednost": {"nivo": "crveno", "razlog": "talasi do 1.6 m, vjetar 16 cv, udari 26 cv", "izlazak_preporucen": false}, "napomena": "Proljece i septembar, najvise uz Bojanu. Kod Volujice se nekad lovila, zadnjih godina je skoro nema.", "razlog_praznog": null}, "features": [{"type": "Feature", "geometry": {"type": "Polygon", "coordinates": [[[19.09, 41.965], [19.065, 41.96], [19.065, 41.89], [19.09, 41.875], [19.11, 41.875], [19.12, 41.855], [19.14, 41.855], [19.145, 41.88], [19.115, 41.89], [19.115, 41.94], [19.09, 41.965]]]}, "properties": {"score_mean": 28.8, "score_max": 34.8, "area_km2": 45.2, "centroid": [19.0969, 41.9102], "razlog": "zora/sumrak + prisustvo mamca", "dubina_panule_m": 4.0, "sst_raspon_C": 0.6, "sst_promjena_3d_C": 0.3, "upwelling": 0.0, "hladnije_C": 0.1, "izgledi": "osrednji"}}, {"type": "Feature", "geometry": {"type": "Polygon", "coordinates": [[[18.69, 42.315], [18.665, 42.31], [18.665, 42.29], [18.68, 42.275], [18.705, 42.28], [18.705, 42.3], [18.69, 42.315]]]}, "properties": {"score_mean": 26.0, "score_max": 27.5, "area_km2": 12.8, "centroid": [18.685, 42.295], "razlog": "zora/sumrak + prisustvo mamca", "dubina_panule_m": 4.0, "sst_raspon_C": 0.2, "sst_promjena_3d_C": -0.0, "upwelling": 0.0, "hladnije_C": 0.1, "izgledi": "osrednji"}}, {"type": "Feature", "geometry": {"type": "Polygon", "coordinates": [[[18.81, 42.075], [18.785, 42.07], [18.79, 42.045], [18.815, 42.05], [18.81, 42.075]]]}, "properties": {"score_mean": 25.6, "score_max": 27.1, "area_km2": 8.3, "centroid": [18.8, 42.06], "razlog": "zora/sumrak + prisustvo mamca", "dubina_panule_m": 4.0, "sst_raspon_C": 0.2, "sst_promjena_3d_C": 0.2, "upwelling": 0.1, "hladnije_C": 0.1, "izgledi": "osrednji"}}, {"type": "Feature", "geometry": {"type": "Polygon", "coordinates": [[[18.91, 42.035], [18.885, 42.03], [18.885, 42.02], [18.875, 42.01], [18.875, 41.99], [18.9, 41.975], [18.94, 41.975], [18.945, 41.98], [18.945, 42.02], [18.92, 42.025], [18.91, 42.035]]]}, "properties": {"score_mean": 23.9, "score_max": 25.4, "area_km2": 32.2, "centroid": [18.9114, 42.0031], "razlog": "zora/sumrak + prisustvo mamca", "dubina_panule_m": 4.0, "sst_raspon_C": 0.1, "sst_promjena_3d_C": 0.4, "upwelling": 0.0, "hladnije_C": -0.0, "izgledi": "slabi"}}, {"type": "Feature", "geometry": {"type": "Polygon", "coordinates": [[[18.73, 42.275], [18.705, 42.27], [18.705, 42.24], [18.71, 42.235], [18.74, 42.235], [18.745, 42.24], [18.745, 42.26], [18.73, 42.275]]]}, "properties": {"score_mean": 23.4, "score_max": 24.7, "area_km2": 13.8, "centroid": [18.724, 42.254], "razlog": "zora/sumrak + prisustvo mamca", "dubina_panule_m": 4.0, "sst_raspon_C": 0.2, "sst_promjena_3d_C": 0.1, "upwelling": 0.0, "hladnije_C": 0.0, "izgledi": "slabi"}}, {"type": "Feature", "geometry": {"type": "Polygon", "coordinates": [[[18.94, 42.135], [18.9, 42.135], [18.895, 42.13], [18.895, 42.1], [18.92, 42.075], [18.945, 42.08], [18.945, 42.13], [18.94, 42.135]]]}, "properties": {"score_mean": 22.3, "score_max": 26.7, "area_km2": 24.8, "centroid": [18.9219, 42.1074], "razlog": "zora/sumrak + prisustvo mamca", "dubina_panule_m": 4.0, "sst_raspon_C": 0.3, "sst_promjena_3d_C": 0.1, "upwelling": 0.1, "hladnije_C": 0.1, "izgledi": "slabi"}}]}