{"type": "FeatureCollection", "properties": {"vrsta": "lica", "naziv": "Lica", "latinski": "Lichia amia", "datum": "2026-09-21", "profil": null, "panula": {"dubina_m": [0.0, 8.0], "brzina_kn": [3.0, 5.0], "sati": "zora i sumrak", "granica_dubine_m": 50.0}, "vertikala": {"termoklina_m": 24.5, "termoklina_C_po_m": 0.2, "dcm_m": 97.9, "dcm_odnos": 1.0, "dcm_debljina_m": 39.6, "mld_m": 12.1, "sloj_plijena_m": [59.4, 108.5], "dohvatljivost": 0.0, "objasnjenje": "Termoklina na 24 m. Sloj plijena lezi pretezno ispod 50 m, dakle izvan dohvata panule. Najveca gustina hlorofila je na 98 m (sloj debljine 40 m) - tu se skuplja sitna riba koja se hrani planktonom, pa je i najveca vjerovatnoca da su grabljivice tu negdje."}, "bezbjednost": {"nivo": "crveno", "razlog": "vjetar 21 cv, udari 30 cv", "izlazak_preporucen": false}, "napomena": "Proljece i septembar, najvise uz Bojanu. Kod Volujice se nekad lovila, zadnjih godina je skoro nema.", "razlog_praznog": null}, "features": [{"type": "Feature", "geometry": {"type": "Polygon", "coordinates": [[[19.14, 41.815], [19.115, 41.81], [19.115, 41.78], [19.12, 41.775], [19.145, 41.78], [19.145, 41.81], [19.14, 41.815]]]}, "properties": {"score_mean": 28.2, "score_max": 32.7, "area_km2": 11.1, "centroid": [19.13, 41.795], "razlog": "zora/sumrak + prisustvo mamca", "dubina_panule_m": 4.0, "sst_raspon_C": 0.7, "sst_promjena_3d_C": 0.2, "upwelling": 0.0, "hladnije_C": -0.1, "izgledi": "osrednji"}}, {"type": "Feature", "geometry": {"type": "Polygon", "coordinates": [[[19.1, 42.005], [19.07, 42.005], [19.035, 41.97], [19.035, 41.95], [19.05, 41.935], [19.1, 41.935], [19.105, 41.94], [19.105, 42.0], [19.1, 42.005]]]}, "properties": {"score_mean": 26.9, "score_max": 31.6, "area_km2": 38.7, "centroid": [19.074, 41.9674], "razlog": "zora/sumrak + prisustvo mamca", "dubina_panule_m": 4.0, "sst_raspon_C": 0.7, "sst_promjena_3d_C": 0.1, "upwelling": 0.1, "hladnije_C": 0.2, "izgledi": "osrednji"}}, {"type": "Feature", "geometry": {"type": "Polygon", "coordinates": [[[18.92, 42.025], [18.88, 42.025], [18.875, 42.02], [18.875, 41.98], [18.88, 41.975], [18.89, 41.975], [18.9, 41.965], [18.94, 41.965], [18.945, 41.97], [18.945, 42.01], [18.92, 42.025]]]}, "properties": {"score_mean": 25.7, "score_max": 29.1, "area_km2": 35.0, "centroid": [18.91, 41.995], "razlog": "zora/sumrak + prisustvo mamca", "dubina_panule_m": 4.0, "sst_raspon_C": 0.4, "sst_promjena_3d_C": 0.1, "upwelling": 0.0, "hladnije_C": 0.1, "izgledi": "osrednji"}}, {"type": "Feature", "geometry": {"type": "Polygon", "coordinates": [[[18.835, 42.1], [18.81, 42.105], [18.795, 42.09], [18.795, 42.07], [18.81, 42.055], [18.835, 42.06], [18.835, 42.1]]]}, "properties": {"score_mean": 21.9, "score_max": 23.1, "area_km2": 16.6, "centroid": [18.8167, 42.08], "razlog": "zora/sumrak + prisustvo mamca", "dubina_panule_m": 4.0, "sst_raspon_C": 0.2, "sst_promjena_3d_C": 0.1, "upwelling": 0.0, "hladnije_C": -0.0, "izgledi": "slabi"}}]}