{"type": "FeatureCollection", "properties": {"vrsta": "lica", "naziv": "Lica", "latinski": "Lichia amia", "datum": "2026-09-03", "profil": null, "panula": {"dubina_m": [0.0, 8.0], "brzina_kn": [3.0, 5.0], "sati": "zora i sumrak", "granica_dubine_m": 50.0}, "vertikala": {"termoklina_m": 14.8, "termoklina_C_po_m": 0.3, "dcm_m": 91.2, "dcm_odnos": 1.0, "dcm_debljina_m": 34.9, "mld_m": 11.9, "sloj_plijena_m": [64.2, 101.8], "dohvatljivost": 0.0, "objasnjenje": "Termoklina na 15 m. Sloj plijena lezi pretezno ispod 50 m, dakle izvan dohvata panule. Najveca gustina hlorofila je na 91 m (sloj debljine 35 m) - tu se skuplja sitna riba koja se hrani planktonom, pa je i najveca vjerovatnoca da su grabljivice tu negdje."}, "bezbjednost": {"nivo": "zuto", "razlog": "vjetar 14 cv", "izlazak_preporucen": true}, "napomena": "Proljece i septembar, najvise uz Bojanu. Kod Volujice se nekad lovila, zadnjih godina je skoro nema.", "razlog_praznog": null}, "features": [{"type": "Feature", "geometry": {"type": "Polygon", "coordinates": [[[19.08, 42.005], [19.04, 42.005], [19.035, 42.0], [19.035, 41.96], [19.05, 41.935], [19.08, 41.935], [19.085, 41.94], [19.095, 41.99], [19.08, 42.005]]]}, "properties": {"score_mean": 10.6, "score_max": 18.5, "area_km2": 33.2, "centroid": [19.0636, 41.9722], "razlog": "zora/sumrak + prisustvo mamca", "dubina_panule_m": 4.0, "sst_raspon_C": 0.8, "sst_promjena_3d_C": -0.5, "upwelling": 0.5, "hladnije_C": 0.3, "izgledi": "vrlo slabi"}}, {"type": "Feature", "geometry": {"type": "Polygon", "coordinates": [[[19.27, 41.855], [19.2, 41.855], [19.195, 41.83], [19.25, 41.795], [19.27, 41.795], [19.275, 41.8], [19.275, 41.85], [19.27, 41.855]]]}, "properties": {"score_mean": 7.2, "score_max": 12.0, "area_km2": 35.1, "centroid": [19.2405, 41.8297], "razlog": "zora/sumrak + prisustvo mamca", "dubina_panule_m": 4.0, "sst_raspon_C": 0.6, "sst_promjena_3d_C": -0.3, "upwelling": 0.4, "hladnije_C": 0.2, "izgledi": "vrlo slabi"}}, {"type": "Feature", "geometry": {"type": "Polygon", "coordinates": [[[19.04, 42.075], [19.0, 42.075], [18.995, 42.07], [18.995, 42.05], [19.01, 42.025], [19.04, 42.025], [19.045, 42.03], [19.045, 42.07], [19.04, 42.075]]]}, "properties": {"score_mean": 7.2, "score_max": 11.7, "area_km2": 21.2, "centroid": [19.0217, 42.0513], "razlog": "zora/sumrak + prisustvo mamca", "dubina_panule_m": 4.0, "sst_raspon_C": 0.5, "sst_promjena_3d_C": -0.6, "upwelling": 0.4, "hladnije_C": 0.1, "izgledi": "vrlo slabi"}}, {"type": "Feature", "geometry": {"type": "Polygon", "coordinates": [[[19.18, 41.875], [19.155, 41.87], [19.16, 41.845], [19.185, 41.85], [19.18, 41.875]]]}, "properties": {"score_mean": 6.0, "score_max": 7.5, "area_km2": 8.3, "centroid": [19.17, 41.86], "razlog": "zora/sumrak + prisustvo mamca", "dubina_panule_m": 4.0, "sst_raspon_C": 0.5, "sst_promjena_3d_C": -1.1, "upwelling": 0.1, "hladnije_C": 0.1, "izgledi": "vrlo slabi"}}]}