{"type": "FeatureCollection", "properties": {"vrsta": "lica", "naziv": "Lica", "latinski": "Lichia amia", "datum": "2026-09-15", "profil": null, "panula": {"dubina_m": [0.0, 8.0], "brzina_kn": [3.0, 5.0], "sati": "zora i sumrak", "granica_dubine_m": 50.0}, "vertikala": {"termoklina_m": 24.5, "termoklina_C_po_m": 0.3, "dcm_m": 97.9, "dcm_odnos": 1.0, "dcm_debljina_m": 39.8, "mld_m": 16.2, "sloj_plijena_m": [54.2, 102.9], "dohvatljivost": 0.0, "objasnjenje": "Termoklina na 24 m. Sloj plijena lezi pretezno ispod 50 m, dakle izvan dohvata panule. Najveca gustina hlorofila je na 98 m (sloj debljine 40 m) - tu se skuplja sitna riba koja se hrani planktonom, pa je i najveca vjerovatnoca da su grabljivice tu negdje."}, "bezbjednost": {"nivo": "zuto", "razlog": "vjetar 12 cv", "izlazak_preporucen": true}, "napomena": "Proljece i septembar, najvise uz Bojanu. Kod Volujice se nekad lovila, zadnjih godina je skoro nema.", "razlog_praznog": null}, "features": [{"type": "Feature", "geometry": {"type": "Polygon", "coordinates": [[[18.9, 41.995], [18.87, 41.995], [18.865, 41.97], [18.915, 41.93], [18.92, 41.905], [18.94, 41.905], [18.945, 41.91], [18.945, 41.98], [18.94, 41.985], [18.91, 41.985], [18.9, 41.995]]]}, "properties": {"score_mean": 17.7, "score_max": 24.2, "area_km2": 42.4, "centroid": [18.912, 41.957], "razlog": "zora/sumrak + prisustvo mamca", "dubina_panule_m": 4.0, "sst_raspon_C": 0.6, "sst_promjena_3d_C": -1.0, "upwelling": 0.0, "hladnije_C": -0.1, "izgledi": "slabi"}}, {"type": "Feature", "geometry": {"type": "Polygon", "coordinates": [[[18.7, 42.315], [18.65, 42.315], [18.645, 42.31], [18.645, 42.28], [18.69, 42.245], [18.695, 42.23], [18.71, 42.215], [18.74, 42.215], [18.745, 42.22], [18.745, 42.27], [18.74, 42.275], [18.71, 42.275], [18.7, 42.315]]]}, "properties": {"score_mean": 9.2, "score_max": 16.1, "area_km2": 55.0, "centroid": [18.6977, 42.2677], "razlog": "zora/sumrak + prisustvo mamca", "dubina_panule_m": 4.0, "sst_raspon_C": 0.5, "sst_promjena_3d_C": -0.7, "upwelling": 0.0, "hladnije_C": -0.2, "izgledi": "vrlo slabi"}}]}