{"type": "FeatureCollection", "properties": {"vrsta": "lica", "naziv": "Lica", "latinski": "Lichia amia", "datum": "2026-09-02", "profil": null, "panula": {"dubina_m": [0.0, 8.0], "brzina_kn": [3.0, 5.0], "sati": "zora i sumrak", "granica_dubine_m": 50.0}, "vertikala": {"termoklina_m": 14.8, "termoklina_C_po_m": 0.3, "dcm_m": 91.2, "dcm_odnos": 1.0, "dcm_debljina_m": 41.6, "mld_m": 11.9, "sloj_plijena_m": [62.2, 108.0], "dohvatljivost": 0.0, "objasnjenje": "Termoklina na 15 m. Sloj plijena lezi pretezno ispod 50 m, dakle izvan dohvata panule. Najveca gustina hlorofila je na 91 m (sloj debljine 42 m) - tu se skuplja sitna riba koja se hrani planktonom, pa je i najveca vjerovatnoca da su grabljivice tu negdje."}, "bezbjednost": {"nivo": "zuto", "razlog": "vjetar 14 cv", "izlazak_preporucen": true}, "napomena": "Proljece i septembar, najvise uz Bojanu. Kod Volujice se nekad lovila, zadnjih godina je skoro nema.", "razlog_praznog": null}, "features": [{"type": "Feature", "geometry": {"type": "Polygon", "coordinates": [[[19.08, 42.035], [19.055, 42.03], [19.055, 41.99], [19.065, 41.98], [19.075, 41.95], [19.09, 41.935], [19.11, 41.935], [19.115, 41.94], [19.115, 42.01], [19.08, 42.035]]]}, "properties": {"score_mean": 14.2, "score_max": 18.8, "area_km2": 43.3, "centroid": [19.0872, 41.9872], "razlog": "zora/sumrak + prisustvo mamca", "dubina_panule_m": 4.0, "sst_raspon_C": 0.7, "sst_promjena_3d_C": -0.8, "upwelling": 0.7, "hladnije_C": 0.5, "izgledi": "slabi"}}, {"type": "Feature", "geometry": {"type": "Polygon", "coordinates": [[[18.69, 42.315], [18.665, 42.31], [18.665, 42.28], [18.67, 42.275], [18.7, 42.275], [18.705, 42.28], [18.705, 42.3], [18.69, 42.315]]]}, "properties": {"score_mean": 6.7, "score_max": 7.1, "area_km2": 13.7, "centroid": [18.684, 42.294], "razlog": "zora/sumrak + prisustvo mamca", "dubina_panule_m": 4.0, "sst_raspon_C": 0.3, "sst_promjena_3d_C": -0.3, "upwelling": 0.1, "hladnije_C": 0.0, "izgledi": "vrlo slabi"}}, {"type": "Feature", "geometry": {"type": "Polygon", "coordinates": [[[18.73, 42.275], [18.705, 42.27], [18.705, 42.24], [18.71, 42.235], [18.74, 42.235], [18.745, 42.24], [18.745, 42.26], [18.73, 42.275]]]}, "properties": {"score_mean": 6.3, "score_max": 7.0, "area_km2": 13.8, "centroid": [18.724, 42.254], "razlog": "zora/sumrak + prisustvo mamca", "dubina_panule_m": 4.0, "sst_raspon_C": 0.2, "sst_promjena_3d_C": -0.4, "upwelling": 0.0, "hladnije_C": 0.1, "izgledi": "vrlo slabi"}}, {"type": "Feature", "geometry": {"type": "Polygon", "coordinates": [[[18.87, 42.225], [18.83, 42.225], [18.825, 42.22], [18.825, 42.19], [18.85, 42.175], [18.87, 42.175], [18.875, 42.15], [18.89, 42.135], [18.905, 42.13], [18.905, 42.11], [18.92, 42.095], [18.94, 42.095], [18.945, 42.1], [18.945, 42.14], [18.915, 42.15], [18.915, 42.17], [18.9, 42.185], [18.875, 42.19], [18.875, 42.22], [18.87, 42.225]]]}, "properties": {"score_mean": 2.6, "score_max": 5.3, "area_km2": 54.2, "centroid": [18.8876, 42.1641], "razlog": "zora/sumrak + prisustvo mamca", "dubina_panule_m": 4.0, "sst_raspon_C": 0.6, "sst_promjena_3d_C": -0.0, "upwelling": 0.0, "hladnije_C": -0.2, "izgledi": "vrlo slabi"}}]}