{"type": "FeatureCollection", "properties": {"vrsta": "lica", "naziv": "Lica", "latinski": "Lichia amia", "datum": "2026-09-20", "profil": null, "panula": {"dubina_m": [0.0, 8.0], "brzina_kn": [3.0, 5.0], "sati": "zora i sumrak", "granica_dubine_m": 50.0}, "vertikala": {"termoklina_m": 24.5, "termoklina_C_po_m": 0.2, "dcm_m": 97.9, "dcm_odnos": 1.0, "dcm_debljina_m": 38.1, "mld_m": 12.7, "sloj_plijena_m": [59.4, 107.4], "dohvatljivost": 0.0, "objasnjenje": "Termoklina na 24 m. Sloj plijena lezi pretezno ispod 50 m, dakle izvan dohvata panule. Najveca gustina hlorofila je na 98 m (sloj debljine 38 m) - tu se skuplja sitna riba koja se hrani planktonom, pa je i najveca vjerovatnoca da su grabljivice tu negdje."}, "bezbjednost": {"nivo": "zuto", "razlog": "vjetar 11 cv", "izlazak_preporucen": true}, "napomena": "Proljece i septembar, najvise uz Bojanu. Kod Volujice se nekad lovila, zadnjih godina je skoro nema.", "razlog_praznog": null}, "features": [{"type": "Feature", "geometry": {"type": "Polygon", "coordinates": [[[19.14, 41.815], [19.11, 41.815], [19.1, 41.805], [19.08, 41.805], [19.075, 41.8], [19.075, 41.77], [19.12, 41.745], [19.14, 41.745], [19.145, 41.75], [19.145, 41.81], [19.14, 41.815]]]}, "properties": {"score_mean": 31.6, "score_max": 39.4, "area_km2": 37.0, "centroid": [19.1143, 41.7817], "razlog": "zora/sumrak + prisustvo mamca", "dubina_panule_m": 4.0, "sst_raspon_C": 1.0, "sst_promjena_3d_C": 0.4, "upwelling": 0.4, "hladnije_C": 0.2, "izgledi": "osrednji"}}, {"type": "Feature", "geometry": {"type": "Polygon", "coordinates": [[[19.09, 42.015], [19.065, 42.01], [19.065, 41.98], [19.07, 41.975], [19.1, 41.975], [19.105, 41.98], [19.105, 42.0], [19.09, 42.015]]]}, "properties": {"score_mean": 28.2, "score_max": 33.8, "area_km2": 13.8, "centroid": [19.084, 41.994], "razlog": "zora/sumrak + prisustvo mamca", "dubina_panule_m": 4.0, "sst_raspon_C": 0.8, "sst_promjena_3d_C": -0.3, "upwelling": 0.0, "hladnije_C": 0.4, "izgledi": "osrednji"}}, {"type": "Feature", "geometry": {"type": "Polygon", "coordinates": [[[18.85, 42.055], [18.82, 42.055], [18.815, 42.03], [18.83, 42.025], [18.845, 42.01], [18.85, 41.995], [18.87, 41.995], [18.875, 42.0], [18.875, 42.03], [18.85, 42.055]]]}, "properties": {"score_mean": 26.0, "score_max": 29.1, "area_km2": 23.0, "centroid": [18.8476, 42.0276], "razlog": "zora/sumrak + prisustvo mamca", "dubina_panule_m": 4.0, "sst_raspon_C": 0.8, "sst_promjena_3d_C": -0.4, "upwelling": 0.0, "hladnije_C": 0.3, "izgledi": "osrednji"}}, {"type": "Feature", "geometry": {"type": "Polygon", "coordinates": [[[18.91, 42.005], [18.885, 42.0], [18.89, 41.975], [18.915, 41.98], [18.91, 42.005]]]}, "properties": {"score_mean": 25.7, "score_max": 27.7, "area_km2": 8.3, "centroid": [18.9, 41.99], "razlog": "zora/sumrak + prisustvo mamca", "dubina_panule_m": 4.0, "sst_raspon_C": 0.8, "sst_promjena_3d_C": -0.1, "upwelling": 0.0, "hladnije_C": 0.1, "izgledi": "osrednji"}}]}