{"type": "FeatureCollection", "properties": {"vrsta": "lica", "naziv": "Lica", "latinski": "Lichia amia", "datum": "2026-09-10", "profil": null, "panula": {"dubina_m": [0.0, 8.0], "brzina_kn": [3.0, 5.0], "sati": "zora i sumrak", "granica_dubine_m": 50.0}, "vertikala": {"termoklina_m": 17.8, "termoklina_C_po_m": 0.3, "dcm_m": 97.9, "dcm_odnos": 1.0, "dcm_debljina_m": 44.5, "mld_m": 11.9, "sloj_plijena_m": [56.8, 108.5], "dohvatljivost": 0.0, "objasnjenje": "Termoklina na 18 m. Sloj plijena lezi pretezno ispod 50 m, dakle izvan dohvata panule. Najveca gustina hlorofila je na 98 m (sloj debljine 44 m) - tu se skuplja sitna riba koja se hrani planktonom, pa je i najveca vjerovatnoca da su grabljivice tu negdje."}, "bezbjednost": {"nivo": "zeleno", "razlog": "uslovi povoljni", "izlazak_preporucen": true}, "napomena": "Proljece i septembar, najvise uz Bojanu. Kod Volujice se nekad lovila, zadnjih godina je skoro nema.", "razlog_praznog": null}, "features": [{"type": "Feature", "geometry": {"type": "Polygon", "coordinates": [[[19.01, 41.935], [18.97, 41.935], [18.965, 41.93], [18.965, 41.9], [18.98, 41.885], [19.03, 41.885], [19.035, 41.89], [19.035, 41.91], [19.01, 41.935]]]}, "properties": {"score_mean": 16.8, "score_max": 18.5, "area_km2": 28.6, "centroid": [18.9984, 41.909], "razlog": "zora/sumrak + prisustvo mamca", "dubina_panule_m": 4.0, "sst_raspon_C": 0.6, "sst_promjena_3d_C": -0.9, "upwelling": 0.1, "hladnije_C": 0.3, "izgledi": "slabi"}}, {"type": "Feature", "geometry": {"type": "Polygon", "coordinates": [[[19.145, 41.77], [19.12, 41.775], [19.095, 41.76], [19.095, 41.73], [19.11, 41.705], [19.13, 41.705], [19.145, 41.72], [19.145, 41.77]]]}, "properties": {"score_mean": 16.2, "score_max": 18.2, "area_km2": 27.7, "centroid": [19.1217, 41.7407], "razlog": "zora/sumrak + prisustvo mamca", "dubina_panule_m": 4.0, "sst_raspon_C": 0.5, "sst_promjena_3d_C": -0.5, "upwelling": 0.0, "hladnije_C": -0.1, "izgledi": "slabi"}}, {"type": "Feature", "geometry": {"type": "Polygon", "coordinates": [[[18.87, 42.225], [18.84, 42.225], [18.825, 42.21], [18.825, 42.19], [18.84, 42.175], [18.87, 42.175], [18.875, 42.18], [18.875, 42.22], [18.87, 42.225]]]}, "properties": {"score_mean": 8.0, "score_max": 11.4, "area_km2": 21.1, "centroid": [18.8517, 42.2], "razlog": "zora/sumrak + prisustvo mamca", "dubina_panule_m": 4.0, "sst_raspon_C": 0.7, "sst_promjena_3d_C": -0.4, "upwelling": 0.1, "hladnije_C": 0.0, "izgledi": "vrlo slabi"}}, {"type": "Feature", "geometry": {"type": "Polygon", "coordinates": [[[18.7, 42.315], [18.65, 42.315], [18.645, 42.31], [18.645, 42.28], [18.67, 42.255], [18.685, 42.25], [18.685, 42.24], [18.71, 42.215], [18.74, 42.215], [18.745, 42.22], [18.745, 42.27], [18.74, 42.275], [18.71, 42.275], [18.7, 42.315]]]}, "properties": {"score_mean": 5.6, "score_max": 11.7, "area_km2": 56.9, "centroid": [18.6971, 42.2671], "razlog": "zora/sumrak + prisustvo mamca", "dubina_panule_m": 4.0, "sst_raspon_C": 0.8, "sst_promjena_3d_C": -0.6, "upwelling": 0.0, "hladnije_C": -0.0, "izgledi": "vrlo slabi"}}, {"type": "Feature", "geometry": {"type": "Polygon", "coordinates": [[[18.9, 42.175], [18.875, 42.17], [18.875, 42.15], [18.895, 42.13], [18.91, 42.095], [18.92, 42.085], [18.94, 42.085], [18.945, 42.09], [18.945, 42.14], [18.92, 42.145], [18.915, 42.16], [18.9, 42.175]]]}, "properties": {"score_mean": 5.5, "score_max": 11.4, "area_km2": 34.9, "centroid": [18.9134, 42.1303], "razlog": "zora/sumrak + prisustvo mamca", "dubina_panule_m": 4.0, "sst_raspon_C": 0.7, "sst_promjena_3d_C": -0.6, "upwelling": 0.0, "hladnije_C": -0.1, "izgledi": "vrlo slabi"}}]}