{"type": "FeatureCollection", "properties": {"vrsta": "lica", "naziv": "Lica", "latinski": "Lichia amia", "datum": "2026-09-13", "profil": null, "panula": {"dubina_m": [0.0, 8.0], "brzina_kn": [3.0, 5.0], "sati": "zora i sumrak", "granica_dubine_m": 50.0}, "vertikala": {"termoklina_m": 17.8, "termoklina_C_po_m": 0.2, "dcm_m": 97.9, "dcm_odnos": 1.0, "dcm_debljina_m": 42.1, "mld_m": 11.9, "sloj_plijena_m": [50.3, 99.4], "dohvatljivost": 0.0, "objasnjenje": "Termoklina na 18 m. Sloj plijena lezi pretezno ispod 50 m, dakle izvan dohvata panule. Najveca gustina hlorofila je na 98 m (sloj debljine 42 m) - tu se skuplja sitna riba koja se hrani planktonom, pa je i najveca vjerovatnoca da su grabljivice tu negdje."}, "bezbjednost": {"nivo": "zuto", "razlog": "vjetar 15 cv", "izlazak_preporucen": true}, "napomena": "Proljece i septembar, najvise uz Bojanu. Kod Volujice se nekad lovila, zadnjih godina je skoro nema.", "razlog_praznog": null}, "features": [{"type": "Feature", "geometry": {"type": "Polygon", "coordinates": [[[19.11, 41.915], [19.09, 41.915], [19.065, 41.88], [19.065, 41.86], [19.08, 41.835], [19.1, 41.835], [19.105, 41.85], [19.125, 41.87], [19.125, 41.89], [19.11, 41.915]]]}, "properties": {"score_mean": 21.6, "score_max": 25.8, "area_km2": 32.3, "centroid": [19.0946, 41.8757], "razlog": "zora/sumrak + prisustvo mamca", "dubina_panule_m": 4.0, "sst_raspon_C": 1.0, "sst_promjena_3d_C": -0.8, "upwelling": 0.6, "hladnije_C": 0.5, "izgledi": "slabi"}}, {"type": "Feature", "geometry": {"type": "Polygon", "coordinates": [[[18.945, 42.0], [18.92, 42.005], [18.91, 41.995], [18.86, 41.985], [18.855, 41.98], [18.855, 41.95], [18.88, 41.935], [18.9, 41.935], [18.92, 41.915], [18.94, 41.915], [18.945, 41.92], [18.945, 42.0]]]}, "properties": {"score_mean": 10.6, "score_max": 14.5, "area_km2": 54.4, "centroid": [18.9075, 41.9617], "razlog": "zora/sumrak + prisustvo mamca", "dubina_panule_m": 4.0, "sst_raspon_C": 0.5, "sst_promjena_3d_C": -0.1, "upwelling": 0.4, "hladnije_C": 0.2, "izgledi": "vrlo slabi"}}, {"type": "Feature", "geometry": {"type": "Polygon", "coordinates": [[[18.7, 42.315], [18.65, 42.315], [18.645, 42.31], [18.645, 42.28], [18.71, 42.215], [18.74, 42.215], [18.745, 42.22], [18.745, 42.27], [18.74, 42.275], [18.71, 42.275], [18.7, 42.315]]]}, "properties": {"score_mean": 4.0, "score_max": 8.9, "area_km2": 57.8, "centroid": [18.6968, 42.2668], "razlog": "zora/sumrak + prisustvo mamca", "dubina_panule_m": 4.0, "sst_raspon_C": 0.5, "sst_promjena_3d_C": -0.0, "upwelling": 0.0, "hladnije_C": -0.1, "izgledi": "vrlo slabi"}}]}