{"type": "FeatureCollection", "properties": {"vrsta": "lica", "naziv": "Lica", "latinski": "Lichia amia", "datum": "2026-09-01", "profil": null, "panula": {"dubina_m": [0.0, 8.0], "brzina_kn": [3.0, 5.0], "sati": "zora i sumrak", "granica_dubine_m": 50.0}, "vertikala": {"termoklina_m": 11.9, "termoklina_C_po_m": 0.3, "dcm_m": 91.2, "dcm_odnos": 1.0, "dcm_debljina_m": 31.0, "mld_m": 11.9, "sloj_plijena_m": [67.1, 100.5], "dohvatljivost": 0.0, "objasnjenje": "Termoklina na 12 m. Sloj plijena lezi pretezno ispod 50 m, dakle izvan dohvata panule. Najveca gustina hlorofila je na 91 m (sloj debljine 31 m) - tu se skuplja sitna riba koja se hrani planktonom, pa je i najveca vjerovatnoca da su grabljivice tu negdje."}, "bezbjednost": {"nivo": "zuto", "razlog": "vjetar 14 cv", "izlazak_preporucen": true}, "napomena": "Proljece i septembar, najvise uz Bojanu. Kod Volujice se nekad lovila, zadnjih godina je skoro nema.", "razlog_praznog": null}, "features": [{"type": "Feature", "geometry": {"type": "Polygon", "coordinates": [[[19.08, 42.005], [19.04, 42.005], [19.035, 42.0], [19.035, 41.95], [19.06, 41.925], [19.085, 41.93], [19.085, 41.96], [19.095, 41.97], [19.095, 41.99], [19.08, 42.005]]]}, "properties": {"score_mean": 9.6, "score_max": 18.5, "area_km2": 36.9, "centroid": [19.0635, 41.9685], "razlog": "zora/sumrak + prisustvo mamca", "dubina_panule_m": 4.0, "sst_raspon_C": 0.8, "sst_promjena_3d_C": -0.1, "upwelling": 0.5, "hladnije_C": 0.3, "izgledi": "vrlo slabi"}}, {"type": "Feature", "geometry": {"type": "Polygon", "coordinates": [[[19.27, 41.855], [19.23, 41.855], [19.225, 41.85], [19.225, 41.82], [19.25, 41.805], [19.27, 41.805], [19.275, 41.81], [19.275, 41.85], [19.27, 41.855]]]}, "properties": {"score_mean": 8.6, "score_max": 12.0, "area_km2": 21.2, "centroid": [19.2513, 41.8317], "razlog": "zora/sumrak + prisustvo mamca", "dubina_panule_m": 4.0, "sst_raspon_C": 0.6, "sst_promjena_3d_C": 0.3, "upwelling": 0.6, "hladnije_C": 0.4, "izgledi": "vrlo slabi"}}]}