{"type": "FeatureCollection", "properties": {"vrsta": "lica", "naziv": "Lica", "latinski": "Lichia amia", "datum": "2026-10-12", "profil": null, "panula": {"dubina_m": [0.0, 8.0], "brzina_kn": [3.0, 5.0], "sati": "zora i sumrak", "granica_dubine_m": 50.0}, "vertikala": {"termoklina_m": 40.0, "termoklina_C_po_m": 0.1, "dcm_m": 78.6, "dcm_odnos": 1.0, "dcm_debljina_m": 39.8, "mld_m": 23.9, "sloj_plijena_m": [45.6, 90.8], "dohvatljivost": 0.1, "objasnjenje": "Termoklina na 40 m. Sloj plijena lezi pretezno ispod 50 m, dakle izvan dohvata panule. Najveca gustina hlorofila je na 79 m (sloj debljine 40 m) - tu se skuplja sitna riba koja se hrani planktonom, pa je i najveca vjerovatnoca da su grabljivice tu negdje."}, "bezbjednost": {"nivo": "crveno", "razlog": "vjetar 18 cv, udari 24 cv", "izlazak_preporucen": false}, "napomena": "Proljece i septembar, najvise uz Bojanu. Kod Volujice se nekad lovila, zadnjih godina je skoro nema.", "razlog_praznog": null}, "features": [{"type": "Feature", "geometry": {"type": "Polygon", "coordinates": [[[19.02, 42.015], [18.99, 42.015], [18.985, 42.01], [18.995, 41.96], [19.01, 41.945], [19.035, 41.95], [19.035, 41.98], [19.025, 41.99], [19.02, 42.015]]]}, "properties": {"score_mean": 12.1, "score_max": 13.6, "area_km2": 24.9, "centroid": [19.0111, 41.9811], "razlog": "zora/sumrak + prisustvo mamca", "dubina_panule_m": 4.0, "sst_raspon_C": 0.5, "sst_promjena_3d_C": 0.0, "upwelling": 0.0, "hladnije_C": 0.3, "izgledi": "slabi"}}, {"type": "Feature", "geometry": {"type": "Polygon", "coordinates": [[[18.94, 42.095], [18.91, 42.095], [18.905, 42.09], [18.905, 42.05], [18.915, 42.04], [18.915, 42.03], [18.94, 42.005], [18.96, 42.005], [18.965, 42.03], [18.945, 42.05], [18.945, 42.09], [18.94, 42.095]]]}, "properties": {"score_mean": 11.8, "score_max": 13.8, "area_km2": 33.1, "centroid": [18.9325, 42.0506], "razlog": "zora/sumrak + prisustvo mamca", "dubina_panule_m": 4.0, "sst_raspon_C": 0.4, "sst_promjena_3d_C": 0.0, "upwelling": 0.0, "hladnije_C": -0.0, "izgledi": "vrlo slabi"}}, {"type": "Feature", "geometry": {"type": "Polygon", "coordinates": [[[18.63, 41.835], [18.605, 41.83], [18.605, 41.81], [18.64, 41.755], [18.66, 41.755], [18.665, 41.76], [18.665, 41.8], [18.63, 41.835]]]}, "properties": {"score_mean": 1.4, "score_max": 1.7, "area_km2": 29.6, "centroid": [18.6372, 41.7962], "razlog": "zora/sumrak + prisustvo mamca", "dubina_panule_m": 4.0, "sst_raspon_C": 0.3, "sst_promjena_3d_C": 0.0, "upwelling": 0.0, "hladnije_C": -0.1, "izgledi": "vrlo slabi"}}]}