{"type": "FeatureCollection", "properties": {"vrsta": "lica", "naziv": "Lica", "latinski": "Lichia amia", "datum": "2026-09-22", "profil": null, "panula": {"dubina_m": [0.0, 8.0], "brzina_kn": [3.0, 5.0], "sati": "zora i sumrak", "granica_dubine_m": 50.0}, "vertikala": {"termoklina_m": 24.5, "termoklina_C_po_m": 0.2, "dcm_m": 97.9, "dcm_odnos": 1.0, "dcm_debljina_m": 39.8, "mld_m": 15.2, "sloj_plijena_m": [59.4, 108.5], "dohvatljivost": 0.0, "objasnjenje": "Termoklina na 24 m. Sloj plijena lezi pretezno ispod 50 m, dakle izvan dohvata panule. Najveca gustina hlorofila je na 98 m (sloj debljine 40 m) - tu se skuplja sitna riba koja se hrani planktonom, pa je i najveca vjerovatnoca da su grabljivice tu negdje."}, "bezbjednost": {"nivo": "crveno", "razlog": "talasi do 1.1 m, vjetar 21 cv, udari 30 cv", "izlazak_preporucen": false}, "napomena": "Proljece i septembar, najvise uz Bojanu. Kod Volujice se nekad lovila, zadnjih godina je skoro nema.", "razlog_praznog": null}, "features": [{"type": "Feature", "geometry": {"type": "Polygon", "coordinates": [[[19.09, 42.005], [19.07, 42.005], [19.025, 41.96], [19.025, 41.94], [19.05, 41.905], [19.08, 41.905], [19.105, 41.93], [19.105, 41.99], [19.09, 42.005]]]}, "properties": {"score_mean": 26.6, "score_max": 30.3, "area_km2": 57.1, "centroid": [19.069, 41.9531], "razlog": "zora/sumrak + prisustvo mamca", "dubina_panule_m": 4.0, "sst_raspon_C": 0.5, "sst_promjena_3d_C": 0.0, "upwelling": 0.2, "hladnije_C": 0.1, "izgledi": "osrednji"}}, {"type": "Feature", "geometry": {"type": "Polygon", "coordinates": [[[18.93, 42.025], [18.87, 42.025], [18.855, 42.01], [18.855, 41.98], [18.87, 41.965], [18.94, 41.965], [18.945, 41.97], [18.945, 42.01], [18.93, 42.025]]]}, "properties": {"score_mean": 26.3, "score_max": 29.3, "area_km2": 47.0, "centroid": [18.9008, 41.9945], "razlog": "zora/sumrak + prisustvo mamca", "dubina_panule_m": 4.0, "sst_raspon_C": 0.3, "sst_promjena_3d_C": 0.0, "upwelling": 0.2, "hladnije_C": 0.1, "izgledi": "osrednji"}}, {"type": "Feature", "geometry": {"type": "Polygon", "coordinates": [[[18.7, 42.305], [18.675, 42.3], [18.68, 42.275], [18.705, 42.28], [18.7, 42.305]]]}, "properties": {"score_mean": 23.8, "score_max": 25.5, "area_km2": 8.3, "centroid": [18.69, 42.29], "razlog": "zora/sumrak + prisustvo mamca", "dubina_panule_m": 4.0, "sst_raspon_C": 0.4, "sst_promjena_3d_C": 0.0, "upwelling": 0.0, "hladnije_C": -0.2, "izgledi": "slabi"}}, {"type": "Feature", "geometry": {"type": "Polygon", "coordinates": [[[18.74, 42.265], [18.715, 42.26], [18.72, 42.235], [18.745, 42.24], [18.74, 42.265]]]}, "properties": {"score_mean": 23.0, "score_max": 23.9, "area_km2": 8.3, "centroid": [18.73, 42.25], "razlog": "zora/sumrak + prisustvo mamca", "dubina_panule_m": 4.0, "sst_raspon_C": 0.4, "sst_promjena_3d_C": 0.0, "upwelling": 0.0, "hladnije_C": -0.0, "izgledi": "slabi"}}]}