{"type": "FeatureCollection", "properties": {"vrsta": "lica", "naziv": "Lica", "latinski": "Lichia amia", "datum": "2026-09-28", "profil": null, "panula": {"dubina_m": [0.0, 8.0], "brzina_kn": [3.0, 5.0], "sati": "zora i sumrak", "granica_dubine_m": 50.0}, "vertikala": {"termoklina_m": 31.8, "termoklina_C_po_m": 0.2, "dcm_m": 91.2, "dcm_odnos": 1.0, "dcm_debljina_m": 38.0, "mld_m": 17.7, "sloj_plijena_m": [70.4, 106.7], "dohvatljivost": 0.0, "objasnjenje": "Termoklina na 32 m. Sloj plijena lezi pretezno ispod 50 m, dakle izvan dohvata panule. Najveca gustina hlorofila je na 91 m (sloj debljine 38 m) - tu se skuplja sitna riba koja se hrani planktonom, pa je i najveca vjerovatnoca da su grabljivice tu negdje."}, "bezbjednost": {"nivo": "zuto", "razlog": "talasi do 1.1 m", "izlazak_preporucen": true}, "napomena": "Proljece i septembar, najvise uz Bojanu. Kod Volujice se nekad lovila, zadnjih godina je skoro nema.", "razlog_praznog": null}, "features": [{"type": "Feature", "geometry": {"type": "Polygon", "coordinates": [[[18.87, 42.215], [18.845, 42.21], [18.85, 42.185], [18.875, 42.19], [18.87, 42.215]]]}, "properties": {"score_mean": 28.8, "score_max": 30.2, "area_km2": 8.3, "centroid": [18.86, 42.2], "razlog": "zora/sumrak + prisustvo mamca", "dubina_panule_m": 4.0, "sst_raspon_C": 0.7, "sst_promjena_3d_C": -1.4, "upwelling": 0.0, "hladnije_C": 0.2, "izgledi": "osrednji"}}, {"type": "Feature", "geometry": {"type": "Polygon", "coordinates": [[[19.03, 42.065], [19.005, 42.06], [19.005, 42.04], [18.995, 42.03], [18.995, 42.02], [18.975, 42.01], [18.98, 41.985], [19.05, 41.985], [19.055, 41.99], [19.055, 42.04], [19.03, 42.065]]]}, "properties": {"score_mean": 28.7, "score_max": 31.7, "area_km2": 44.2, "centroid": [19.0202, 42.0183], "razlog": "zora/sumrak + prisustvo mamca", "dubina_panule_m": 4.0, "sst_raspon_C": 0.8, "sst_promjena_3d_C": -0.4, "upwelling": 0.1, "hladnije_C": 0.1, "izgledi": "osrednji"}}, {"type": "Feature", "geometry": {"type": "Polygon", "coordinates": [[[18.9, 42.185], [18.875, 42.18], [18.875, 42.16], [18.89, 42.145], [18.915, 42.15], [18.915, 42.17], [18.9, 42.185]]]}, "properties": {"score_mean": 28.5, "score_max": 30.1, "area_km2": 12.9, "centroid": [18.895, 42.165], "razlog": "zora/sumrak + prisustvo mamca", "dubina_panule_m": 4.0, "sst_raspon_C": 0.9, "sst_promjena_3d_C": -1.2, "upwelling": 0.0, "hladnije_C": 0.1, "izgledi": "osrednji"}}, {"type": "Feature", "geometry": {"type": "Polygon", "coordinates": [[[18.7, 42.315], [18.67, 42.315], [18.665, 42.31], [18.665, 42.28], [18.68, 42.265], [18.695, 42.26], [18.71, 42.225], [18.74, 42.225], [18.745, 42.23], [18.745, 42.27], [18.74, 42.275], [18.71, 42.275], [18.7, 42.315]]]}, "properties": {"score_mean": 24.3, "score_max": 30.8, "area_km2": 37.6, "centroid": [18.7056, 42.2693], "razlog": "zora/sumrak + prisustvo mamca", "dubina_panule_m": 4.0, "sst_raspon_C": 1.0, "sst_promjena_3d_C": -0.5, "upwelling": 0.0, "hladnije_C": -0.3, "izgledi": "slabi"}}]}