{"type": "FeatureCollection", "properties": {"vrsta": "lica", "naziv": "Lica", "latinski": "Lichia amia", "datum": "2026-10-10", "profil": null, "panula": {"dubina_m": [0.0, 8.0], "brzina_kn": [3.0, 5.0], "sati": "zora i sumrak", "granica_dubine_m": 50.0}, "vertikala": {"termoklina_m": 35.8, "termoklina_C_po_m": 0.1, "dcm_m": 84.7, "dcm_odnos": 1.0, "dcm_debljina_m": 44.5, "mld_m": 21.8, "sloj_plijena_m": [47.0, 98.3], "dohvatljivost": 0.1, "objasnjenje": "Termoklina na 36 m. Sloj plijena lezi pretezno ispod 50 m, dakle izvan dohvata panule. Najveca gustina hlorofila je na 85 m (sloj debljine 44 m) - tu se skuplja sitna riba koja se hrani planktonom, pa je i najveca vjerovatnoca da su grabljivice tu negdje."}, "bezbjednost": {"nivo": "crveno", "razlog": "talasi do 1.1 m, vjetar 16 cv, udari 22 cv", "izlazak_preporucen": false}, "napomena": "Proljece i septembar, najvise uz Bojanu. Kod Volujice se nekad lovila, zadnjih godina je skoro nema.", "razlog_praznog": null}, "features": [{"type": "Feature", "geometry": {"type": "Polygon", "coordinates": [[[19.04, 41.985], [19.02, 41.985], [19.015, 41.96], [19.03, 41.945], [19.06, 41.945], [19.065, 41.97], [19.04, 41.985]]]}, "properties": {"score_mean": 12.0, "score_max": 14.7, "area_km2": 15.7, "centroid": [19.0394, 41.9641], "razlog": "zora/sumrak + prisustvo mamca", "dubina_panule_m": 4.0, "sst_raspon_C": 0.3, "sst_promjena_3d_C": 0.0, "upwelling": 0.1, "hladnije_C": 0.0, "izgledi": "slabi"}}, {"type": "Feature", "geometry": {"type": "Polygon", "coordinates": [[[18.64, 42.345], [18.56, 42.345], [18.555, 42.32], [18.56, 42.315], [18.61, 42.315], [18.62, 42.305], [18.65, 42.305], [18.655, 42.33], [18.64, 42.345]]]}, "properties": {"score_mean": 10.4, "score_max": 11.6, "area_km2": 30.2, "centroid": [18.6073, 42.3273], "razlog": "zora/sumrak + prisustvo mamca", "dubina_panule_m": 4.0, "sst_raspon_C": 0.8, "sst_promjena_3d_C": 0.0, "upwelling": 0.0, "hladnije_C": -0.2, "izgledi": "vrlo slabi"}}, {"type": "Feature", "geometry": {"type": "Polygon", "coordinates": [[[18.93, 42.115], [18.89, 42.115], [18.885, 42.11], [18.885, 42.06], [18.9, 42.035], [18.91, 42.035], [18.92, 42.025], [18.945, 42.03], [18.945, 42.1], [18.93, 42.115]]]}, "properties": {"score_mean": 9.7, "score_max": 11.8, "area_km2": 44.2, "centroid": [18.9165, 42.0727], "razlog": "zora/sumrak + prisustvo mamca", "dubina_panule_m": 4.0, "sst_raspon_C": 0.3, "sst_promjena_3d_C": 0.0, "upwelling": 0.2, "hladnije_C": 0.2, "izgledi": "vrlo slabi"}}]}