{"type": "FeatureCollection", "properties": {"vrsta": "lica", "naziv": "Lica", "latinski": "Lichia amia", "datum": "2026-10-08", "profil": null, "panula": {"dubina_m": [0.0, 8.0], "brzina_kn": [3.0, 5.0], "sati": "zora i sumrak", "granica_dubine_m": 50.0}, "vertikala": {"termoklina_m": 28.0, "termoklina_C_po_m": 0.1, "dcm_m": 91.2, "dcm_odnos": 1.0, "dcm_debljina_m": 36.6, "mld_m": 20.6, "sloj_plijena_m": [67.1, 105.3], "dohvatljivost": 0.0, "objasnjenje": "Termoklina na 28 m. Sloj plijena lezi pretezno ispod 50 m, dakle izvan dohvata panule. Najveca gustina hlorofila je na 91 m (sloj debljine 37 m) - tu se skuplja sitna riba koja se hrani planktonom, pa je i najveca vjerovatnoca da su grabljivice tu negdje."}, "bezbjednost": {"nivo": "crveno", "razlog": "vjetar 16 cv, udari 22 cv", "izlazak_preporucen": false}, "napomena": "Proljece i septembar, najvise uz Bojanu. Kod Volujice se nekad lovila, zadnjih godina je skoro nema.", "razlog_praznog": null}, "features": [{"type": "Feature", "geometry": {"type": "Polygon", "coordinates": [[[18.87, 42.225], [18.84, 42.225], [18.835, 42.22], [18.835, 42.19], [18.85, 42.175], [18.875, 42.17], [18.88, 42.145], [18.91, 42.145], [18.915, 42.15], [18.915, 42.18], [18.875, 42.19], [18.875, 42.22], [18.87, 42.225]]]}, "properties": {"score_mean": 14.0, "score_max": 18.2, "area_km2": 32.1, "centroid": [18.8737, 42.1846], "razlog": "zora/sumrak + prisustvo mamca", "dubina_panule_m": 4.0, "sst_raspon_C": 0.9, "sst_promjena_3d_C": -0.2, "upwelling": 0.0, "hladnije_C": 0.3, "izgledi": "slabi"}}, {"type": "Feature", "geometry": {"type": "Polygon", "coordinates": [[[18.94, 42.145], [18.915, 42.14], [18.915, 42.11], [18.92, 42.105], [18.945, 42.11], [18.945, 42.14], [18.94, 42.145]]]}, "properties": {"score_mean": 13.8, "score_max": 14.5, "area_km2": 11.0, "centroid": [18.93, 42.125], "razlog": "zora/sumrak + prisustvo mamca", "dubina_panule_m": 4.0, "sst_raspon_C": 0.4, "sst_promjena_3d_C": -0.0, "upwelling": 0.0, "hladnije_C": 0.1, "izgledi": "slabi"}}, {"type": "Feature", "geometry": {"type": "Polygon", "coordinates": [[[19.02, 42.085], [18.995, 42.08], [18.995, 42.04], [18.975, 42.02], [18.975, 41.99], [18.98, 41.985], [19.01, 41.985], [19.015, 42.01], [19.035, 42.03], [19.035, 42.06], [19.02, 42.085]]]}, "properties": {"score_mean": 13.5, "score_max": 17.3, "area_km2": 36.8, "centroid": [19.0058, 42.0325], "razlog": "zora/sumrak + prisustvo mamca", "dubina_panule_m": 4.0, "sst_raspon_C": 0.3, "sst_promjena_3d_C": -0.3, "upwelling": 0.2, "hladnije_C": 0.0, "izgledi": "slabi"}}, {"type": "Feature", "geometry": {"type": "Polygon", "coordinates": [[[18.94, 42.015], [18.915, 42.01], [18.915, 41.98], [18.92, 41.975], [18.945, 41.98], [18.945, 42.01], [18.94, 42.015]]]}, "properties": {"score_mean": 11.8, "score_max": 14.2, "area_km2": 11.1, "centroid": [18.93, 41.995], "razlog": "zora/sumrak + prisustvo mamca", "dubina_panule_m": 4.0, "sst_raspon_C": 0.3, "sst_promjena_3d_C": -0.4, "upwelling": 0.0, "hladnije_C": 0.0, "izgledi": "vrlo slabi"}}, {"type": "Feature", "geometry": {"type": "Polygon", "coordinates": [[[18.65, 42.345], [18.6, 42.345], [18.595, 42.32], [18.6, 42.315], [18.65, 42.315], [18.655, 42.32], [18.65, 42.345]]]}, "properties": {"score_mean": 11.4, "score_max": 12.6, "area_km2": 16.5, "centroid": [18.625, 42.33], "razlog": "zora/sumrak + prisustvo mamca", "dubina_panule_m": 4.0, "sst_raspon_C": 0.8, "sst_promjena_3d_C": 0.1, "upwelling": 0.0, "hladnije_C": -0.2, "izgledi": "vrlo slabi"}}, {"type": "Feature", "geometry": {"type": "Polygon", "coordinates": [[[18.7, 42.285], [18.68, 42.285], [18.665, 42.27], [18.665, 42.24], [18.68, 42.225], [18.74, 42.225], [18.745, 42.23], [18.745, 42.26], [18.73, 42.275], [18.71, 42.275], [18.7, 42.285]]]}, "properties": {"score_mean": 10.9, "score_max": 12.9, "area_km2": 37.6, "centroid": [18.7039, 42.2522], "razlog": "zora/sumrak + prisustvo mamca", "dubina_panule_m": 4.0, "sst_raspon_C": 0.8, "sst_promjena_3d_C": -0.1, "upwelling": 0.0, "hladnije_C": -0.3, "izgledi": "vrlo slabi"}}]}