{"type": "FeatureCollection", "properties": {"vrsta": "lica", "naziv": "Lica", "latinski": "Lichia amia", "datum": "2026-09-05", "profil": null, "panula": {"dubina_m": [0.0, 8.0], "brzina_kn": [3.0, 5.0], "sati": "zora i sumrak", "granica_dubine_m": 50.0}, "vertikala": {"termoklina_m": 14.8, "termoklina_C_po_m": 0.4, "dcm_m": 91.2, "dcm_odnos": 1.0, "dcm_debljina_m": 43.0, "mld_m": 11.9, "sloj_plijena_m": [57.9, 102.9], "dohvatljivost": 0.0, "objasnjenje": "Termoklina na 15 m. Sloj plijena lezi pretezno ispod 50 m, dakle izvan dohvata panule. Najveca gustina hlorofila je na 91 m (sloj debljine 43 m) - tu se skuplja sitna riba koja se hrani planktonom, pa je i najveca vjerovatnoca da su grabljivice tu negdje."}, "bezbjednost": {"nivo": "zuto", "razlog": "vjetar 14 cv", "izlazak_preporucen": true}, "napomena": "Proljece i septembar, najvise uz Bojanu. Kod Volujice se nekad lovila, zadnjih godina je skoro nema.", "razlog_praznog": null}, "features": [{"type": "Feature", "geometry": {"type": "Polygon", "coordinates": [[[19.1, 41.975], [19.075, 41.97], [19.075, 41.94], [19.09, 41.915], [19.115, 41.92], [19.115, 41.95], [19.1, 41.975]]]}, "properties": {"score_mean": 8.1, "score_max": 9.0, "area_km2": 18.4, "centroid": [19.095, 41.945], "razlog": "zora/sumrak + prisustvo mamca", "dubina_panule_m": 4.0, "sst_raspon_C": 0.4, "sst_promjena_3d_C": -0.1, "upwelling": 0.4, "hladnije_C": 0.2, "izgledi": "vrlo slabi"}}, {"type": "Feature", "geometry": {"type": "Polygon", "coordinates": [[[18.87, 42.225], [18.83, 42.225], [18.825, 42.22], [18.825, 42.18], [18.86, 42.165], [18.865, 42.15], [18.88, 42.135], [18.91, 42.135], [18.92, 42.105], [18.94, 42.105], [18.945, 42.11], [18.945, 42.14], [18.915, 42.15], [18.915, 42.18], [18.91, 42.185], [18.88, 42.185], [18.875, 42.19], [18.875, 42.22], [18.87, 42.225]]]}, "properties": {"score_mean": 3.9, "score_max": 10.2, "area_km2": 56.9, "centroid": [18.8811, 42.1697], "razlog": "zora/sumrak + prisustvo mamca", "dubina_panule_m": 4.0, "sst_raspon_C": 0.7, "sst_promjena_3d_C": -0.2, "upwelling": 0.3, "hladnije_C": 0.2, "izgledi": "vrlo slabi"}}, {"type": "Feature", "geometry": {"type": "Polygon", "coordinates": [[[18.7, 42.315], [18.67, 42.315], [18.665, 42.31], [18.665, 42.28], [18.695, 42.27], [18.695, 42.24], [18.71, 42.225], [18.74, 42.225], [18.745, 42.23], [18.745, 42.27], [18.74, 42.275], [18.71, 42.275], [18.7, 42.315]]]}, "properties": {"score_mean": 3.1, "score_max": 4.2, "area_km2": 36.7, "centroid": [18.7065, 42.2685], "razlog": "zora/sumrak + prisustvo mamca", "dubina_panule_m": 4.0, "sst_raspon_C": 0.2, "sst_promjena_3d_C": 0.2, "upwelling": 0.0, "hladnije_C": -0.1, "izgledi": "vrlo slabi"}}]}