{"type": "FeatureCollection", "properties": {"vrsta": "lica", "naziv": "Lica", "latinski": "Lichia amia", "datum": "2026-09-27", "profil": null, "panula": {"dubina_m": [0.0, 8.0], "brzina_kn": [3.0, 5.0], "sati": "zora i sumrak", "granica_dubine_m": 50.0}, "vertikala": {"termoklina_m": 28.0, "termoklina_C_po_m": 0.2, "dcm_m": 91.2, "dcm_odnos": 1.0, "dcm_debljina_m": 39.6, "mld_m": 17.9, "sloj_plijena_m": [68.5, 104.5], "dohvatljivost": 0.0, "objasnjenje": "Termoklina na 28 m. Sloj plijena lezi pretezno ispod 50 m, dakle izvan dohvata panule. Najveca gustina hlorofila je na 91 m (sloj debljine 40 m) - tu se skuplja sitna riba koja se hrani planktonom, pa je i najveca vjerovatnoca da su grabljivice tu negdje."}, "bezbjednost": {"nivo": "zuto", "razlog": "talasi do 1.3 m", "izlazak_preporucen": true}, "napomena": "Proljece i septembar, najvise uz Bojanu. Kod Volujice se nekad lovila, zadnjih godina je skoro nema.", "razlog_praznog": null}, "features": [{"type": "Feature", "geometry": {"type": "Polygon", "coordinates": [[[19.07, 42.005], [19.05, 42.005], [19.035, 41.99], [19.035, 41.97], [19.06, 41.945], [19.085, 41.95], [19.085, 41.97], [19.075, 41.98], [19.07, 42.005]]]}, "properties": {"score_mean": 32.2, "score_max": 35.6, "area_km2": 21.2, "centroid": [19.0604, 41.9748], "razlog": "zora/sumrak + prisustvo mamca", "dubina_panule_m": 4.0, "sst_raspon_C": 0.5, "sst_promjena_3d_C": 0.1, "upwelling": 0.3, "hladnije_C": 0.3, "izgledi": "osrednji"}}, {"type": "Feature", "geometry": {"type": "Polygon", "coordinates": [[[19.02, 42.075], [18.98, 42.075], [18.975, 42.05], [18.99, 42.035], [19.02, 42.035], [19.025, 42.04], [19.025, 42.07], [19.02, 42.075]]]}, "properties": {"score_mean": 30.9, "score_max": 33.3, "area_km2": 17.5, "centroid": [19.0011, 42.0558], "razlog": "zora/sumrak + prisustvo mamca", "dubina_panule_m": 4.0, "sst_raspon_C": 0.8, "sst_promjena_3d_C": 0.2, "upwelling": 0.3, "hladnije_C": 0.2, "izgledi": "osrednji"}}, {"type": "Feature", "geometry": {"type": "Polygon", "coordinates": [[[18.945, 42.06], [18.92, 42.065], [18.895, 42.04], [18.895, 42.0], [18.91, 41.985], [18.94, 41.985], [18.945, 41.99], [18.945, 42.06]]]}, "properties": {"score_mean": 27.6, "score_max": 28.5, "area_km2": 33.1, "centroid": [18.9219, 42.0233], "razlog": "zora/sumrak + prisustvo mamca", "dubina_panule_m": 4.0, "sst_raspon_C": 0.5, "sst_promjena_3d_C": 0.0, "upwelling": 0.0, "hladnije_C": -0.1, "izgledi": "osrednji"}}, {"type": "Feature", "geometry": {"type": "Polygon", "coordinates": [[[18.87, 42.215], [18.84, 42.215], [18.835, 42.19], [18.84, 42.185], [18.87, 42.185], [18.875, 42.19], [18.87, 42.215]]]}, "properties": {"score_mean": 27.5, "score_max": 28.0, "area_km2": 11.0, "centroid": [18.855, 42.2], "razlog": "zora/sumrak + prisustvo mamca", "dubina_panule_m": 4.0, "sst_raspon_C": 0.3, "sst_promjena_3d_C": -0.1, "upwelling": 0.0, "hladnije_C": -0.1, "izgledi": "osrednji"}}, {"type": "Feature", "geometry": {"type": "Polygon", "coordinates": [[[18.7, 42.315], [18.67, 42.315], [18.665, 42.31], [18.665, 42.28], [18.68, 42.265], [18.695, 42.26], [18.71, 42.225], [18.74, 42.225], [18.745, 42.23], [18.745, 42.27], [18.74, 42.275], [18.71, 42.275], [18.7, 42.315]]]}, "properties": {"score_mean": 26.2, "score_max": 33.1, "area_km2": 37.6, "centroid": [18.7056, 42.2693], "razlog": "zora/sumrak + prisustvo mamca", "dubina_panule_m": 4.0, "sst_raspon_C": 0.3, "sst_promjena_3d_C": 0.2, "upwelling": 0.2, "hladnije_C": 0.1, "izgledi": "osrednji"}}, {"type": "Feature", "geometry": {"type": "Polygon", "coordinates": [[[18.8, 42.025], [18.77, 42.025], [18.765, 42.02], [18.765, 41.99], [18.78, 41.975], [18.805, 41.98], [18.805, 42.02], [18.8, 42.025]]]}, "properties": {"score_mean": 1.1, "score_max": 1.3, "area_km2": 17.5, "centroid": [18.7858, 42.0011], "razlog": "zora/sumrak + prisustvo mamca", "dubina_panule_m": 4.0, "sst_raspon_C": 0.2, "sst_promjena_3d_C": -0.0, "upwelling": 0.0, "hladnije_C": 0.0, "izgledi": "vrlo slabi"}}]}