{"type": "FeatureCollection", "properties": {"vrsta": "lica", "naziv": "Lica", "latinski": "Lichia amia", "datum": "2026-09-09", "profil": null, "panula": {"dubina_m": [0.0, 8.0], "brzina_kn": [3.0, 5.0], "sati": "zora i sumrak", "granica_dubine_m": 50.0}, "vertikala": {"termoklina_m": 21.1, "termoklina_C_po_m": 0.3, "dcm_m": 91.2, "dcm_odnos": 1.0, "dcm_debljina_m": 34.9, "mld_m": 11.9, "sloj_plijena_m": [59.7, 107.6], "dohvatljivost": 0.0, "objasnjenje": "Termoklina na 21 m. Sloj plijena lezi pretezno ispod 50 m, dakle izvan dohvata panule. Najveca gustina hlorofila je na 91 m (sloj debljine 35 m) - tu se skuplja sitna riba koja se hrani planktonom, pa je i najveca vjerovatnoca da su grabljivice tu negdje."}, "bezbjednost": {"nivo": "zeleno", "razlog": "uslovi povoljni", "izlazak_preporucen": true}, "napomena": "Proljece i septembar, najvise uz Bojanu. Kod Volujice se nekad lovila, zadnjih godina je skoro nema.", "razlog_praznog": null}, "features": [{"type": "Feature", "geometry": {"type": "Polygon", "coordinates": [[[19.145, 41.87], [19.12, 41.875], [19.105, 41.85], [19.105, 41.81], [19.12, 41.785], [19.145, 41.79], [19.145, 41.87]]]}, "properties": {"score_mean": 8.0, "score_max": 10.3, "area_km2": 29.5, "centroid": [19.1269, 41.83], "razlog": "zora/sumrak + prisustvo mamca", "dubina_panule_m": 4.0, "sst_raspon_C": 1.0, "sst_promjena_3d_C": 0.2, "upwelling": 0.0, "hladnije_C": -0.0, "izgledi": "vrlo slabi"}}, {"type": "Feature", "geometry": {"type": "Polygon", "coordinates": [[[19.105, 41.97], [19.08, 41.975], [19.065, 41.96], [19.065, 41.93], [19.08, 41.915], [19.105, 41.92], [19.105, 41.97]]]}, "properties": {"score_mean": 6.4, "score_max": 7.1, "area_km2": 20.3, "centroid": [19.0864, 41.945], "razlog": "zora/sumrak + prisustvo mamca", "dubina_panule_m": 4.0, "sst_raspon_C": 0.3, "sst_promjena_3d_C": 0.3, "upwelling": 0.0, "hladnije_C": -0.1, "izgledi": "vrlo slabi"}}, {"type": "Feature", "geometry": {"type": "Polygon", "coordinates": [[[18.87, 42.225], [18.82, 42.225], [18.815, 42.2], [18.825, 42.19], [18.825, 42.18], [18.86, 42.165], [18.89, 42.135], [18.9, 42.135], [18.905, 42.12], [18.92, 42.105], [18.94, 42.105], [18.945, 42.11], [18.945, 42.14], [18.915, 42.15], [18.915, 42.18], [18.91, 42.185], [18.88, 42.185], [18.875, 42.19], [18.875, 42.22], [18.87, 42.225]]]}, "properties": {"score_mean": 4.3, "score_max": 16.3, "area_km2": 59.7, "centroid": [18.8794, 42.1709], "razlog": "zora/sumrak + prisustvo mamca", "dubina_panule_m": 4.0, "sst_raspon_C": 1.1, "sst_promjena_3d_C": 0.2, "upwelling": 0.0, "hladnije_C": -0.2, "izgledi": "vrlo slabi"}}, {"type": "Feature", "geometry": {"type": "Polygon", "coordinates": [[[18.7, 42.315], [18.66, 42.315], [18.655, 42.31], [18.655, 42.28], [18.67, 42.265], [18.69, 42.265], [18.695, 42.24], [18.72, 42.215], [18.74, 42.215], [18.745, 42.22], [18.745, 42.27], [18.74, 42.275], [18.71, 42.275], [18.7, 42.315]]]}, "properties": {"score_mean": 3.3, "score_max": 5.6, "area_km2": 45.9, "centroid": [18.7026, 42.2678], "razlog": "zora/sumrak + prisustvo mamca", "dubina_panule_m": 4.0, "sst_raspon_C": 0.5, "sst_promjena_3d_C": -0.0, "upwelling": 0.0, "hladnije_C": -0.2, "izgledi": "vrlo slabi"}}, {"type": "Feature", "geometry": {"type": "Polygon", "coordinates": [[[18.92, 42.015], [18.88, 42.015], [18.865, 42.0], [18.865, 41.96], [18.88, 41.935], [18.89, 41.935], [18.9, 41.925], [18.94, 41.925], [18.945, 41.93], [18.945, 42.0], [18.92, 42.015]]]}, "properties": {"score_mean": 2.1, "score_max": 3.5, "area_km2": 59.0, "centroid": [18.9069, 41.9708], "razlog": "zora/sumrak + prisustvo mamca", "dubina_panule_m": 4.0, "sst_raspon_C": 0.4, "sst_promjena_3d_C": -0.0, "upwelling": 0.2, "hladnije_C": 0.2, "izgledi": "vrlo slabi"}}]}