{"type": "FeatureCollection", "properties": {"vrsta": "lica", "naziv": "Lica", "latinski": "Lichia amia", "datum": "2026-09-18", "profil": null, "panula": {"dubina_m": [0.0, 8.0], "brzina_kn": [3.0, 5.0], "sati": "zora i sumrak", "granica_dubine_m": 50.0}, "vertikala": {"termoklina_m": 28.0, "termoklina_C_po_m": 0.2, "dcm_m": 97.9, "dcm_odnos": 1.0, "dcm_debljina_m": 34.9, "mld_m": 15.0, "sloj_plijena_m": [59.4, 104.5], "dohvatljivost": 0.0, "objasnjenje": "Termoklina na 28 m. Sloj plijena lezi pretezno ispod 50 m, dakle izvan dohvata panule. Najveca gustina hlorofila je na 98 m (sloj debljine 35 m) - tu se skuplja sitna riba koja se hrani planktonom, pa je i najveca vjerovatnoca da su grabljivice tu negdje."}, "bezbjednost": {"nivo": "zeleno", "razlog": "uslovi povoljni", "izlazak_preporucen": true}, "napomena": "Proljece i septembar, najvise uz Bojanu. Kod Volujice se nekad lovila, zadnjih godina je skoro nema.", "razlog_praznog": null}, "features": [{"type": "Feature", "geometry": {"type": "Polygon", "coordinates": [[[19.105, 41.94], [19.08, 41.945], [19.065, 41.93], [19.07, 41.905], [19.1, 41.905], [19.105, 41.91], [19.105, 41.94]]]}, "properties": {"score_mean": 29.7, "score_max": 34.3, "area_km2": 13.8, "centroid": [19.086, 41.924], "razlog": "zora/sumrak + prisustvo mamca", "dubina_panule_m": 4.0, "sst_raspon_C": 0.3, "sst_promjena_3d_C": 0.0, "upwelling": 0.3, "hladnije_C": 0.1, "izgledi": "osrednji"}}, {"type": "Feature", "geometry": {"type": "Polygon", "coordinates": [[[18.92, 42.005], [18.89, 42.005], [18.885, 42.0], [18.885, 41.99], [18.875, 41.98], [18.875, 41.95], [18.92, 41.905], [18.94, 41.905], [18.945, 41.91], [18.945, 41.99], [18.92, 42.005]]]}, "properties": {"score_mean": 20.5, "score_max": 23.1, "area_km2": 51.6, "centroid": [18.9138, 41.9582], "razlog": "zora/sumrak + prisustvo mamca", "dubina_panule_m": 4.0, "sst_raspon_C": 0.6, "sst_promjena_3d_C": 0.0, "upwelling": 0.0, "hladnije_C": 0.0, "izgledi": "slabi"}}, {"type": "Feature", "geometry": {"type": "Polygon", "coordinates": [[[18.7, 42.315], [18.67, 42.315], [18.665, 42.31], [18.665, 42.28], [18.695, 42.27], [18.695, 42.24], [18.71, 42.225], [18.74, 42.225], [18.745, 42.23], [18.745, 42.27], [18.74, 42.275], [18.71, 42.275], [18.7, 42.315]]]}, "properties": {"score_mean": 12.9, "score_max": 16.1, "area_km2": 36.7, "centroid": [18.7065, 42.2685], "razlog": "zora/sumrak + prisustvo mamca", "dubina_panule_m": 4.0, "sst_raspon_C": 0.6, "sst_promjena_3d_C": 0.0, "upwelling": 0.0, "hladnije_C": -0.2, "izgledi": "slabi"}}]}