{"type": "FeatureCollection", "properties": {"vrsta": "lica", "naziv": "Lica", "latinski": "Lichia amia", "datum": "2026-09-25", "profil": null, "panula": {"dubina_m": [0.0, 8.0], "brzina_kn": [3.0, 5.0], "sati": "zora i sumrak", "granica_dubine_m": 50.0}, "vertikala": {"termoklina_m": 31.8, "termoklina_C_po_m": 0.2, "dcm_m": 97.9, "dcm_odnos": 1.0, "dcm_debljina_m": 38.1, "mld_m": 20.7, "sloj_plijena_m": [67.5, 107.7], "dohvatljivost": 0.0, "objasnjenje": "Termoklina na 32 m. Sloj plijena lezi pretezno ispod 50 m, dakle izvan dohvata panule. Najveca gustina hlorofila je na 98 m (sloj debljine 38 m) - tu se skuplja sitna riba koja se hrani planktonom, pa je i najveca vjerovatnoca da su grabljivice tu negdje."}, "bezbjednost": {"nivo": "crveno", "razlog": "vjetar 16 cv, udari 26 cv", "izlazak_preporucen": false}, "napomena": "Proljece i septembar, najvise uz Bojanu. Kod Volujice se nekad lovila, zadnjih godina je skoro nema.", "razlog_praznog": null}, "features": [{"type": "Feature", "geometry": {"type": "Polygon", "coordinates": [[[19.09, 41.975], [19.065, 41.97], [19.065, 41.92], [19.08, 41.905], [19.11, 41.905], [19.115, 41.91], [19.115, 41.94], [19.09, 41.975]]]}, "properties": {"score_mean": 28.3, "score_max": 34.5, "area_km2": 27.7, "centroid": [19.0883, 41.938], "razlog": "zora/sumrak + prisustvo mamca", "dubina_panule_m": 4.0, "sst_raspon_C": 0.6, "sst_promjena_3d_C": 0.0, "upwelling": 0.0, "hladnije_C": -0.0, "izgledi": "osrednji"}}, {"type": "Feature", "geometry": {"type": "Polygon", "coordinates": [[[18.93, 42.095], [18.9, 42.095], [18.895, 42.09], [18.895, 42.07], [18.885, 42.06], [18.885, 41.99], [18.89, 41.985], [18.91, 41.985], [18.92, 41.995], [18.945, 42.0], [18.945, 42.08], [18.93, 42.095]]]}, "properties": {"score_mean": 24.2, "score_max": 26.1, "area_km2": 54.3, "centroid": [18.9151, 42.0397], "razlog": "zora/sumrak + prisustvo mamca", "dubina_panule_m": 4.0, "sst_raspon_C": 0.2, "sst_promjena_3d_C": 0.0, "upwelling": 0.0, "hladnije_C": -0.0, "izgledi": "slabi"}}, {"type": "Feature", "geometry": {"type": "Polygon", "coordinates": [[[18.7, 42.315], [18.66, 42.315], [18.655, 42.29], [18.68, 42.265], [18.695, 42.26], [18.695, 42.24], [18.71, 42.225], [18.74, 42.225], [18.745, 42.23], [18.745, 42.27], [18.74, 42.275], [18.71, 42.275], [18.7, 42.315]]]}, "properties": {"score_mean": 20.1, "score_max": 27.5, "area_km2": 41.3, "centroid": [18.7024, 42.2707], "razlog": "zora/sumrak + prisustvo mamca", "dubina_panule_m": 4.0, "sst_raspon_C": 0.3, "sst_promjena_3d_C": 0.0, "upwelling": 0.0, "hladnije_C": -0.0, "izgledi": "slabi"}}, {"type": "Feature", "geometry": {"type": "Polygon", "coordinates": [[[18.94, 41.895], [18.89, 41.895], [18.885, 41.89], [18.885, 41.86], [18.9, 41.845], [18.94, 41.845], [18.945, 41.85], [18.945, 41.89], [18.94, 41.895]]]}, "properties": {"score_mean": 1.0, "score_max": 1.1, "area_km2": 26.8, "centroid": [18.9159, 41.8707], "razlog": "zora/sumrak + prisustvo mamca", "dubina_panule_m": 4.0, "sst_raspon_C": 0.1, "sst_promjena_3d_C": 0.0, "upwelling": 0.1, "hladnije_C": 0.1, "izgledi": "vrlo slabi"}}]}