{"type": "FeatureCollection", "properties": {"vrsta": "lica", "naziv": "Lica", "latinski": "Lichia amia", "datum": "2026-10-09", "profil": null, "panula": {"dubina_m": [0.0, 8.0], "brzina_kn": [3.0, 5.0], "sati": "zora i sumrak", "granica_dubine_m": 50.0}, "vertikala": {"termoklina_m": 31.8, "termoklina_C_po_m": 0.1, "dcm_m": 91.2, "dcm_odnos": 1.0, "dcm_debljina_m": 42.6, "mld_m": 20.4, "sloj_plijena_m": [59.4, 104.0], "dohvatljivost": 0.0, "objasnjenje": "Termoklina na 32 m. Sloj plijena lezi pretezno ispod 50 m, dakle izvan dohvata panule. Najveca gustina hlorofila je na 91 m (sloj debljine 43 m) - tu se skuplja sitna riba koja se hrani planktonom, pa je i najveca vjerovatnoca da su grabljivice tu negdje."}, "bezbjednost": {"nivo": "crveno", "razlog": "talasi do 2.1 m, vjetar 15 cv, udari 22 cv", "izlazak_preporucen": false}, "napomena": "Proljece i septembar, najvise uz Bojanu. Kod Volujice se nekad lovila, zadnjih godina je skoro nema.", "razlog_praznog": null}, "features": [{"type": "Feature", "geometry": {"type": "Polygon", "coordinates": [[[18.91, 42.125], [18.885, 42.12], [18.895, 42.07], [18.9, 42.065], [18.94, 42.065], [18.945, 42.09], [18.935, 42.1], [18.935, 42.11], [18.91, 42.125]]]}, "properties": {"score_mean": 12.2, "score_max": 13.9, "area_km2": 25.7, "centroid": [18.9143, 42.0932], "razlog": "zora/sumrak + prisustvo mamca", "dubina_panule_m": 4.0, "sst_raspon_C": 0.3, "sst_promjena_3d_C": -0.4, "upwelling": 0.1, "hladnije_C": 0.0, "izgledi": "slabi"}}, {"type": "Feature", "geometry": {"type": "Polygon", "coordinates": [[[18.72, 42.275], [18.68, 42.275], [18.675, 42.25], [18.7, 42.245], [18.71, 42.235], [18.73, 42.235], [18.735, 42.26], [18.72, 42.275]]]}, "properties": {"score_mean": 12.0, "score_max": 13.4, "area_km2": 18.3, "centroid": [18.706, 42.2565], "razlog": "zora/sumrak + prisustvo mamca", "dubina_panule_m": 4.0, "sst_raspon_C": 0.6, "sst_promjena_3d_C": -0.0, "upwelling": 0.0, "hladnije_C": -0.2, "izgledi": "slabi"}}, {"type": "Feature", "geometry": {"type": "Polygon", "coordinates": [[[19.04, 41.985], [19.015, 41.98], [19.015, 41.96], [19.03, 41.945], [19.055, 41.95], [19.055, 41.97], [19.04, 41.985]]]}, "properties": {"score_mean": 11.6, "score_max": 13.9, "area_km2": 12.9, "centroid": [19.035, 41.965], "razlog": "zora/sumrak + prisustvo mamca", "dubina_panule_m": 4.0, "sst_raspon_C": 0.6, "sst_promjena_3d_C": -1.0, "upwelling": 0.3, "hladnije_C": 0.2, "izgledi": "vrlo slabi"}}, {"type": "Feature", "geometry": {"type": "Polygon", "coordinates": [[[18.64, 42.345], [18.58, 42.345], [18.575, 42.32], [18.595, 42.31], [18.595, 42.3], [18.62, 42.275], [18.63, 42.275], [18.64, 42.265], [18.66, 42.265], [18.665, 42.27], [18.665, 42.32], [18.64, 42.345]]]}, "properties": {"score_mean": 10.4, "score_max": 12.8, "area_km2": 47.7, "centroid": [18.626, 42.31], "razlog": "zora/sumrak + prisustvo mamca", "dubina_panule_m": 4.0, "sst_raspon_C": 0.5, "sst_promjena_3d_C": -0.3, "upwelling": 0.0, "hladnije_C": -0.1, "izgledi": "vrlo slabi"}}]}