{"type": "FeatureCollection", "properties": {"vrsta": "lica", "naziv": "Lica", "latinski": "Lichia amia", "datum": "2026-09-07", "profil": null, "panula": {"dubina_m": [0.0, 8.0], "brzina_kn": [3.0, 5.0], "sati": "zora i sumrak", "granica_dubine_m": 50.0}, "vertikala": {"termoklina_m": 17.8, "termoklina_C_po_m": 0.3, "dcm_m": 91.2, "dcm_odnos": 1.0, "dcm_debljina_m": 41.6, "mld_m": 11.9, "sloj_plijena_m": [59.4, 102.9], "dohvatljivost": 0.0, "objasnjenje": "Termoklina na 18 m. Sloj plijena lezi pretezno ispod 50 m, dakle izvan dohvata panule. Najveca gustina hlorofila je na 91 m (sloj debljine 42 m) - tu se skuplja sitna riba koja se hrani planktonom, pa je i najveca vjerovatnoca da su grabljivice tu negdje."}, "bezbjednost": {"nivo": "zuto", "razlog": "vjetar 12 cv", "izlazak_preporucen": true}, "napomena": "Proljece i septembar, najvise uz Bojanu. Kod Volujice se nekad lovila, zadnjih godina je skoro nema.", "razlog_praznog": null}, "features": [{"type": "Feature", "geometry": {"type": "Polygon", "coordinates": [[[19.14, 41.885], [19.1, 41.885], [19.095, 41.88], [19.095, 41.86], [19.12, 41.835], [19.145, 41.84], [19.145, 41.88], [19.14, 41.885]]]}, "properties": {"score_mean": 11.0, "score_max": 12.3, "area_km2": 20.3, "centroid": [19.1223, 41.8623], "razlog": "zora/sumrak + prisustvo mamca", "dubina_panule_m": 4.0, "sst_raspon_C": 0.5, "sst_promjena_3d_C": -0.9, "upwelling": 0.2, "hladnije_C": 0.1, "izgledi": "vrlo slabi"}}, {"type": "Feature", "geometry": {"type": "Polygon", "coordinates": [[[18.87, 42.225], [18.83, 42.225], [18.825, 42.2], [18.84, 42.185], [18.87, 42.185], [18.875, 42.19], [18.875, 42.22], [18.87, 42.225]]]}, "properties": {"score_mean": 9.1, "score_max": 16.1, "area_km2": 17.4, "centroid": [18.8511, 42.2058], "razlog": "zora/sumrak + prisustvo mamca", "dubina_panule_m": 4.0, "sst_raspon_C": 1.1, "sst_promjena_3d_C": -0.6, "upwelling": 0.4, "hladnije_C": 0.2, "izgledi": "vrlo slabi"}}, {"type": "Feature", "geometry": {"type": "Polygon", "coordinates": [[[18.7, 42.315], [18.66, 42.315], [18.655, 42.31], [18.655, 42.28], [18.67, 42.265], [18.695, 42.26], [18.695, 42.23], [18.71, 42.215], [18.74, 42.215], [18.745, 42.22], [18.745, 42.27], [18.74, 42.275], [18.71, 42.275], [18.7, 42.315]]]}, "properties": {"score_mean": 3.2, "score_max": 5.6, "area_km2": 47.7, "centroid": [18.7027, 42.2662], "razlog": "zora/sumrak + prisustvo mamca", "dubina_panule_m": 4.0, "sst_raspon_C": 0.5, "sst_promjena_3d_C": 0.2, "upwelling": 0.0, "hladnije_C": -0.2, "izgledi": "vrlo slabi"}}]}