{"type": "FeatureCollection", "properties": {"vrsta": "plamida", "naziv": "Plamida", "latinski": "Sarda sarda", "datum": "2026-10-12", "profil": null, "panula": {"dubina_m": [0.0, 25.0], "brzina_kn": [4.0, 6.5], "sati": "zora i sumrak", "granica_dubine_m": 50.0}, "vertikala": {"termoklina_m": 40.0, "termoklina_C_po_m": 0.1, "dcm_m": 78.6, "dcm_odnos": 1.0, "dcm_debljina_m": 39.8, "mld_m": 23.9, "sloj_plijena_m": [45.6, 90.8], "dohvatljivost": 0.1, "objasnjenje": "Termoklina na 40 m. Sloj plijena lezi pretezno ispod 50 m, dakle izvan dohvata panule. Najveca gustina hlorofila je na 79 m (sloj debljine 40 m) - tu se skuplja sitna riba koja se hrani planktonom, pa je i najveca vjerovatnoca da su grabljivice tu negdje."}, "bezbjednost": {"nivo": "crveno", "razlog": "vjetar 18 cv, udari 24 cv", "izlazak_preporucen": false}, "napomena": "", "razlog_praznog": null}, "features": [{"type": "Feature", "geometry": {"type": "Polygon", "coordinates": [[[18.94, 42.085], [18.915, 42.08], [18.915, 42.04], [18.925, 42.03], [18.925, 42.02], [18.96, 41.985], [18.98, 41.985], [18.995, 41.97], [19.0, 41.955], [19.02, 41.955], [19.025, 41.96], [19.025, 42.01], [19.01, 42.025], [18.99, 42.025], [18.96, 42.045], [18.95, 42.045], [18.94, 42.085]]]}, "properties": {"score_mean": 44.0, "score_max": 49.6, "area_km2": 60.8, "centroid": [18.9702, 42.0162], "razlog": "povoljna dubina + termalni front", "dubina_panule_m": 18.8, "sst_raspon_C": 0.6, "sst_promjena_3d_C": 0.0, "upwelling": 0.0, "hladnije_C": 0.0, "izgledi": "dobri"}}, {"type": "Feature", "geometry": {"type": "Polygon", "coordinates": [[[18.64, 41.825], [18.615, 41.82], [18.615, 41.79], [18.65, 41.735], [18.67, 41.735], [18.675, 41.74], [18.675, 41.79], [18.64, 41.825]]]}, "properties": {"score_mean": 2.5, "score_max": 3.3, "area_km2": 35.1, "centroid": [18.6468, 41.7816], "razlog": "termalni front + zora/sumrak", "dubina_panule_m": 25.0, "sst_raspon_C": 0.4, "sst_promjena_3d_C": 0.0, "upwelling": 0.0, "hladnije_C": -0.0, "izgledi": "vrlo slabi"}}]}