{"type": "FeatureCollection", "properties": {"vrsta": "plamida", "naziv": "Plamida", "latinski": "Sarda sarda", "datum": "2026-09-27", "profil": null, "panula": {"dubina_m": [0.0, 25.0], "brzina_kn": [4.0, 6.5], "sati": "zora i sumrak", "granica_dubine_m": 50.0}, "vertikala": {"termoklina_m": 28.0, "termoklina_C_po_m": 0.2, "dcm_m": 91.2, "dcm_odnos": 1.0, "dcm_debljina_m": 39.6, "mld_m": 18.3, "sloj_plijena_m": [67.7, 104.5], "dohvatljivost": 0.0, "objasnjenje": "Termoklina na 28 m. Sloj plijena lezi pretezno ispod 50 m, dakle izvan dohvata panule. Najveca gustina hlorofila je na 91 m (sloj debljine 40 m) - tu se skuplja sitna riba koja se hrani planktonom, pa je i najveca vjerovatnoca da su grabljivice tu negdje."}, "bezbjednost": {"nivo": "zuto", "razlog": "talasi do 1.3 m", "izlazak_preporucen": true}, "napomena": "", "razlog_praznog": null}, "features": [{"type": "Feature", "geometry": {"type": "Polygon", "coordinates": [[[19.08, 41.995], [19.055, 41.99], [19.055, 41.94], [19.07, 41.925], [19.095, 41.93], [19.095, 41.98], [19.08, 41.995]]]}, "properties": {"score_mean": 11.5, "score_max": 13.8, "area_km2": 24.0, "centroid": [19.075, 41.96], "razlog": "termalni front + povoljna dubina", "dubina_panule_m": 8.2, "sst_raspon_C": 0.8, "sst_promjena_3d_C": -0.2, "upwelling": 0.0, "hladnije_C": 0.2, "izgledi": "vrlo slabi"}}, {"type": "Feature", "geometry": {"type": "Polygon", "coordinates": [[[18.945, 42.07], [18.92, 42.075], [18.9, 42.055], [18.885, 42.05], [18.885, 41.98], [18.89, 41.975], [18.94, 41.975], [18.945, 41.98], [18.945, 42.07]]]}, "properties": {"score_mean": 6.7, "score_max": 7.9, "area_km2": 50.6, "centroid": [18.9165, 42.0213], "razlog": "povoljna dubina + prisustvo mamca", "dubina_panule_m": 9.0, "sst_raspon_C": 0.2, "sst_promjena_3d_C": -0.6, "upwelling": 0.0, "hladnije_C": 0.0, "izgledi": "vrlo slabi"}}, {"type": "Feature", "geometry": {"type": "Polygon", "coordinates": [[[18.73, 42.265], [18.7, 42.265], [18.695, 42.26], [18.695, 42.23], [18.71, 42.215], [18.735, 42.22], [18.735, 42.26], [18.73, 42.265]]]}, "properties": {"score_mean": 4.8, "score_max": 9.5, "area_km2": 17.4, "centroid": [18.7158, 42.2411], "razlog": "termalni front + povoljna dubina", "dubina_panule_m": 7.2, "sst_raspon_C": 0.6, "sst_promjena_3d_C": -0.3, "upwelling": 0.0, "hladnije_C": 0.0, "izgledi": "vrlo slabi"}}, {"type": "Feature", "geometry": {"type": "Polygon", "coordinates": [[[18.69, 42.305], [18.66, 42.305], [18.655, 42.3], [18.655, 42.28], [18.67, 42.265], [18.695, 42.27], [18.695, 42.3], [18.69, 42.305]]]}, "properties": {"score_mean": 3.7, "score_max": 7.0, "area_km2": 13.8, "centroid": [18.676, 42.286], "razlog": "termalni front + povoljna dubina", "dubina_panule_m": 7.2, "sst_raspon_C": 0.6, "sst_promjena_3d_C": -0.2, "upwelling": 0.0, "hladnije_C": -0.1, "izgledi": "vrlo slabi"}}]}