{"type": "FeatureCollection", "properties": {"vrsta": "plamida", "naziv": "Plamida", "latinski": "Sarda sarda", "datum": "2026-09-15", "profil": null, "panula": {"dubina_m": [0.0, 25.0], "brzina_kn": [4.0, 6.5], "sati": "zora i sumrak", "granica_dubine_m": 50.0}, "vertikala": {"termoklina_m": 24.5, "termoklina_C_po_m": 0.3, "dcm_m": 97.9, "dcm_odnos": 1.0, "dcm_debljina_m": 39.8, "mld_m": 16.2, "sloj_plijena_m": [54.2, 102.9], "dohvatljivost": 0.0, "objasnjenje": "Termoklina na 24 m. Sloj plijena lezi pretezno ispod 50 m, dakle izvan dohvata panule. Najveca gustina hlorofila je na 98 m (sloj debljine 40 m) - tu se skuplja sitna riba koja se hrani planktonom, pa je i najveca vjerovatnoca da su grabljivice tu negdje."}, "bezbjednost": {"nivo": "zuto", "razlog": "vjetar 12 cv", "izlazak_preporucen": true}, "napomena": "", "razlog_praznog": "More je 27.1  C, iznad gornje granice od 22  C koju model uzima za ovu vrstu."}, "features": []}