{"type": "FeatureCollection", "properties": {"vrsta": "plamida", "naziv": "Plamida", "latinski": "Sarda sarda", "datum": "2026-10-11", "profil": null, "panula": {"dubina_m": [0.0, 25.0], "brzina_kn": [4.0, 6.5], "sati": "zora i sumrak", "granica_dubine_m": 50.0}, "vertikala": {"termoklina_m": 35.8, "termoklina_C_po_m": 0.1, "dcm_m": 78.6, "dcm_odnos": 1.0, "dcm_debljina_m": 43.4, "mld_m": 25.1, "sloj_plijena_m": [45.6, 92.5], "dohvatljivost": 0.1, "objasnjenje": "Termoklina na 36 m. Sloj plijena lezi pretezno ispod 50 m, dakle izvan dohvata panule. Najveca gustina hlorofila je na 79 m (sloj debljine 43 m) - tu se skuplja sitna riba koja se hrani planktonom, pa je i najveca vjerovatnoca da su grabljivice tu negdje."}, "bezbjednost": {"nivo": "crveno", "razlog": "talasi do 1.4 m, vjetar 15 cv, udari 22 cv", "izlazak_preporucen": false}, "napomena": "", "razlog_praznog": null}, "features": [{"type": "Feature", "geometry": {"type": "Polygon", "coordinates": [[[19.03, 42.005], [19.005, 42.0], [19.005, 41.98], [19.015, 41.97], [19.015, 41.96], [19.04, 41.945], [19.06, 41.945], [19.065, 41.97], [19.03, 42.005]]]}, "properties": {"score_mean": 52.6, "score_max": 57.7, "area_km2": 23.0, "centroid": [19.0344, 41.9744], "razlog": "termalni front + povoljna dubina", "dubina_panule_m": 16.7, "sst_raspon_C": 0.6, "sst_promjena_3d_C": 0.0, "upwelling": 0.3, "hladnije_C": 0.2, "izgledi": "dobri"}}, {"type": "Feature", "geometry": {"type": "Polygon", "coordinates": [[[18.88, 42.165], [18.85, 42.165], [18.845, 42.16], [18.845, 42.13], [18.915, 42.06], [18.92, 42.045], [18.94, 42.045], [18.945, 42.05], [18.945, 42.08], [18.905, 42.12], [18.895, 42.15], [18.88, 42.165]]]}, "properties": {"score_mean": 41.3, "score_max": 49.8, "area_km2": 50.6, "centroid": [18.8944, 42.1087], "razlog": "povoljna dubina + termalni front", "dubina_panule_m": 15.7, "sst_raspon_C": 0.5, "sst_promjena_3d_C": 0.0, "upwelling": 0.0, "hladnije_C": 0.1, "izgledi": "dobri"}}, {"type": "Feature", "geometry": {"type": "Polygon", "coordinates": [[[18.67, 41.785], [18.64, 41.785], [18.635, 41.76], [18.67, 41.725], [18.69, 41.725], [18.695, 41.73], [18.695, 41.76], [18.67, 41.785]]]}, "properties": {"score_mean": 2.3, "score_max": 3.1, "area_km2": 25.0, "centroid": [18.6667, 41.7567], "razlog": "termalni front + prisustvo mamca", "dubina_panule_m": 25.0, "sst_raspon_C": 0.4, "sst_promjena_3d_C": 0.0, "upwelling": 0.2, "hladnije_C": 0.2, "izgledi": "vrlo slabi"}}]}