{"type": "FeatureCollection", "properties": {"vrsta": "plamida", "naziv": "Plamida", "latinski": "Sarda sarda", "datum": "2026-09-21", "profil": null, "panula": {"dubina_m": [0.0, 25.0], "brzina_kn": [4.0, 6.5], "sati": "zora i sumrak", "granica_dubine_m": 50.0}, "vertikala": {"termoklina_m": 21.1, "termoklina_C_po_m": 0.2, "dcm_m": 97.9, "dcm_odnos": 1.0, "dcm_debljina_m": 39.6, "mld_m": 12.2, "sloj_plijena_m": [58.8, 106.5], "dohvatljivost": 0.0, "objasnjenje": "Termoklina na 21 m. Sloj plijena lezi pretezno ispod 50 m, dakle izvan dohvata panule. Najveca gustina hlorofila je na 98 m (sloj debljine 40 m) - tu se skuplja sitna riba koja se hrani planktonom, pa je i najveca vjerovatnoca da su grabljivice tu negdje."}, "bezbjednost": {"nivo": "crveno", "razlog": "vjetar 23 cv, udari 33 cv", "izlazak_preporucen": false}, "napomena": "", "razlog_praznog": "Nema podrucja koje prelazi prag - uslovi su ujednaceni."}, "features": []}