{"type": "FeatureCollection", "properties": {"vrsta": "plamida", "naziv": "Plamida", "latinski": "Sarda sarda", "datum": "2026-10-07", "profil": null, "panula": {"dubina_m": [0.0, 25.0], "brzina_kn": [4.0, 6.5], "sati": "zora i sumrak", "granica_dubine_m": 50.0}, "vertikala": {"termoklina_m": 31.8, "termoklina_C_po_m": 0.1, "dcm_m": 91.2, "dcm_odnos": 1.0, "dcm_debljina_m": 39.8, "mld_m": 17.8, "sloj_plijena_m": [67.4, 105.8], "dohvatljivost": 0.0, "objasnjenje": "Termoklina na 32 m. Sloj plijena lezi pretezno ispod 50 m, dakle izvan dohvata panule. Najveca gustina hlorofila je na 91 m (sloj debljine 40 m) - tu se skuplja sitna riba koja se hrani planktonom, pa je i najveca vjerovatnoca da su grabljivice tu negdje."}, "bezbjednost": {"nivo": "crveno", "razlog": "vjetar 17 cv, udari 24 cv", "izlazak_preporucen": false}, "napomena": "", "razlog_praznog": null}, "features": [{"type": "Feature", "geometry": {"type": "Polygon", "coordinates": [[[18.94, 42.135], [18.915, 42.13], [18.92, 42.105], [18.945, 42.11], [18.94, 42.135]]]}, "properties": {"score_mean": 48.4, "score_max": 49.9, "area_km2": 8.3, "centroid": [18.93, 42.12], "razlog": "termalni front + povoljna dubina", "dubina_panule_m": 10.5, "sst_raspon_C": 0.6, "sst_promjena_3d_C": -0.5, "upwelling": 0.0, "hladnije_C": 0.2, "izgledi": "dobri"}}, {"type": "Feature", "geometry": {"type": "Polygon", "coordinates": [[[18.86, 42.215], [18.835, 42.21], [18.84, 42.185], [18.865, 42.19], [18.86, 42.215]]]}, "properties": {"score_mean": 48.0, "score_max": 50.4, "area_km2": 8.3, "centroid": [18.85, 42.2], "razlog": "termalni front + povoljna dubina", "dubina_panule_m": 11.0, "sst_raspon_C": 0.9, "sst_promjena_3d_C": -0.2, "upwelling": 0.0, "hladnije_C": 0.2, "izgledi": "dobri"}}, {"type": "Feature", "geometry": {"type": "Polygon", "coordinates": [[[18.9, 42.175], [18.875, 42.17], [18.88, 42.145], [18.905, 42.15], [18.9, 42.175]]]}, "properties": {"score_mean": 45.2, "score_max": 49.7, "area_km2": 8.3, "centroid": [18.89, 42.16], "razlog": "termalni front + povoljna dubina", "dubina_panule_m": 10.8, "sst_raspon_C": 0.8, "sst_promjena_3d_C": -0.1, "upwelling": 0.0, "hladnije_C": 0.0, "izgledi": "dobri"}}, {"type": "Feature", "geometry": {"type": "Polygon", "coordinates": [[[18.65, 42.345], [18.61, 42.345], [18.605, 42.32], [18.63, 42.295], [18.65, 42.295], [18.66, 42.275], [18.685, 42.26], [18.685, 42.23], [18.7, 42.215], [18.73, 42.215], [18.735, 42.22], [18.735, 42.26], [18.695, 42.27], [18.695, 42.3], [18.69, 42.305], [18.66, 42.305], [18.655, 42.31], [18.655, 42.34], [18.65, 42.345]]]}, "properties": {"score_mean": 14.1, "score_max": 34.8, "area_km2": 55.9, "centroid": [18.6739, 42.2813], "razlog": "termalni front + povoljna dubina", "dubina_panule_m": 8.6, "sst_raspon_C": 0.8, "sst_promjena_3d_C": 0.5, "upwelling": 0.0, "hladnije_C": -0.3, "izgledi": "slabi"}}]}