{"type": "FeatureCollection", "properties": {"vrsta": "plamida", "naziv": "Plamida", "latinski": "Sarda sarda", "datum": "2026-10-10", "profil": null, "panula": {"dubina_m": [0.0, 25.0], "brzina_kn": [4.0, 6.5], "sati": "zora i sumrak", "granica_dubine_m": 50.0}, "vertikala": {"termoklina_m": 35.8, "termoklina_C_po_m": 0.1, "dcm_m": 84.7, "dcm_odnos": 1.0, "dcm_debljina_m": 44.5, "mld_m": 21.8, "sloj_plijena_m": [47.0, 98.3], "dohvatljivost": 0.1, "objasnjenje": "Termoklina na 36 m. Sloj plijena lezi pretezno ispod 50 m, dakle izvan dohvata panule. Najveca gustina hlorofila je na 85 m (sloj debljine 44 m) - tu se skuplja sitna riba koja se hrani planktonom, pa je i najveca vjerovatnoca da su grabljivice tu negdje."}, "bezbjednost": {"nivo": "crveno", "razlog": "talasi do 1.1 m, vjetar 16 cv, udari 22 cv", "izlazak_preporucen": false}, "napomena": "", "razlog_praznog": null}, "features": [{"type": "Feature", "geometry": {"type": "Polygon", "coordinates": [[[19.03, 41.995], [19.005, 41.99], [19.005, 41.97], [19.03, 41.945], [19.04, 41.945], [19.05, 41.935], [19.07, 41.935], [19.075, 41.96], [19.05, 41.985], [19.04, 41.985], [19.03, 41.995]]]}, "properties": {"score_mean": 46.6, "score_max": 55.1, "area_km2": 25.8, "centroid": [19.04, 41.965], "razlog": "ivica struje + povoljna dubina", "dubina_panule_m": 7.3, "sst_raspon_C": 0.2, "sst_promjena_3d_C": 0.0, "upwelling": 0.1, "hladnije_C": 0.0, "izgledi": "dobri"}}, {"type": "Feature", "geometry": {"type": "Polygon", "coordinates": [[[18.85, 42.205], [18.825, 42.2], [18.825, 42.17], [18.83, 42.165], [18.855, 42.17], [18.855, 42.2], [18.85, 42.205]]]}, "properties": {"score_mean": 36.6, "score_max": 47.4, "area_km2": 11.0, "centroid": [18.84, 42.185], "razlog": "termalni front + povoljna dubina", "dubina_panule_m": 9.1, "sst_raspon_C": 1.3, "sst_promjena_3d_C": 0.0, "upwelling": 0.0, "hladnije_C": 0.2, "izgledi": "osrednji"}}, {"type": "Feature", "geometry": {"type": "Polygon", "coordinates": [[[18.93, 42.105], [18.89, 42.105], [18.885, 42.1], [18.885, 42.06], [18.92, 42.025], [18.945, 42.03], [18.945, 42.09], [18.93, 42.105]]]}, "properties": {"score_mean": 35.9, "score_max": 42.4, "area_km2": 37.7, "centroid": [18.9171, 42.0683], "razlog": "povoljna dubina + ivica struje", "dubina_panule_m": 7.6, "sst_raspon_C": 0.3, "sst_promjena_3d_C": 0.0, "upwelling": 0.2, "hladnije_C": 0.2, "izgledi": "osrednji"}}, {"type": "Feature", "geometry": {"type": "Polygon", "coordinates": [[[18.64, 42.335], [18.615, 42.33], [18.615, 42.31], [18.63, 42.295], [18.655, 42.3], [18.655, 42.32], [18.64, 42.335]]]}, "properties": {"score_mean": 32.6, "score_max": 36.0, "area_km2": 12.8, "centroid": [18.635, 42.315], "razlog": "termalni front + povoljna dubina", "dubina_panule_m": 12.4, "sst_raspon_C": 0.8, "sst_promjena_3d_C": 0.0, "upwelling": 0.0, "hladnije_C": -0.3, "izgledi": "osrednji"}}]}