{"type": "FeatureCollection", "properties": {"vrsta": "plamida", "naziv": "Plamida", "latinski": "Sarda sarda", "datum": "2026-09-28", "profil": null, "panula": {"dubina_m": [0.0, 25.0], "brzina_kn": [4.0, 6.5], "sati": "zora i sumrak", "granica_dubine_m": 50.0}, "vertikala": {"termoklina_m": 31.8, "termoklina_C_po_m": 0.2, "dcm_m": 91.2, "dcm_odnos": 1.0, "dcm_debljina_m": 38.0, "mld_m": 19.4, "sloj_plijena_m": [71.4, 104.5], "dohvatljivost": 0.0, "objasnjenje": "Termoklina na 32 m. Sloj plijena lezi pretezno ispod 50 m, dakle izvan dohvata panule. Najveca gustina hlorofila je na 91 m (sloj debljine 38 m) - tu se skuplja sitna riba koja se hrani planktonom, pa je i najveca vjerovatnoca da su grabljivice tu negdje."}, "bezbjednost": {"nivo": "zuto", "razlog": "talasi do 1.1 m", "izlazak_preporucen": true}, "napomena": "", "razlog_praznog": null}, "features": [{"type": "Feature", "geometry": {"type": "Polygon", "coordinates": [[[19.08, 42.005], [19.055, 42.0], [19.055, 41.95], [19.06, 41.945], [19.09, 41.945], [19.095, 41.95], [19.095, 41.99], [19.08, 42.005]]]}, "properties": {"score_mean": 11.7, "score_max": 14.1, "area_km2": 21.2, "centroid": [19.0743, 41.9739], "razlog": "termalni front + povoljna dubina", "dubina_panule_m": 8.0, "sst_raspon_C": 0.8, "sst_promjena_3d_C": -0.5, "upwelling": 0.0, "hladnije_C": 0.3, "izgledi": "vrlo slabi"}}, {"type": "Feature", "geometry": {"type": "Polygon", "coordinates": [[[18.945, 42.06], [18.92, 42.065], [18.885, 42.04], [18.885, 41.99], [18.9, 41.975], [18.94, 41.975], [18.945, 41.98], [18.945, 42.06]]]}, "properties": {"score_mean": 6.1, "score_max": 7.4, "area_km2": 45.1, "centroid": [18.9169, 42.0178], "razlog": "povoljna dubina + prisustvo mamca", "dubina_panule_m": 9.9, "sst_raspon_C": 0.2, "sst_promjena_3d_C": -0.6, "upwelling": 0.0, "hladnije_C": 0.0, "izgledi": "vrlo slabi"}}, {"type": "Feature", "geometry": {"type": "Polygon", "coordinates": [[[18.69, 42.305], [18.66, 42.305], [18.655, 42.28], [18.67, 42.265], [18.685, 42.26], [18.685, 42.24], [18.7, 42.215], [18.73, 42.215], [18.735, 42.22], [18.735, 42.26], [18.695, 42.27], [18.695, 42.3], [18.69, 42.305]]]}, "properties": {"score_mean": 4.2, "score_max": 10.3, "area_km2": 34.9, "centroid": [18.6976, 42.2589], "razlog": "termalni front + povoljna dubina", "dubina_panule_m": 25.0, "sst_raspon_C": 0.6, "sst_promjena_3d_C": -0.4, "upwelling": 0.0, "hladnije_C": -0.0, "izgledi": "vrlo slabi"}}]}