{"type": "FeatureCollection", "properties": {"vrsta": "plamida", "naziv": "Plamida", "latinski": "Sarda sarda", "datum": "2026-09-10", "profil": null, "panula": {"dubina_m": [0.0, 25.0], "brzina_kn": [4.0, 6.5], "sati": "zora i sumrak", "granica_dubine_m": 50.0}, "vertikala": {"termoklina_m": 17.8, "termoklina_C_po_m": 0.3, "dcm_m": 97.9, "dcm_odnos": 1.0, "dcm_debljina_m": 44.5, "mld_m": 11.9, "sloj_plijena_m": [56.8, 108.5], "dohvatljivost": 0.0, "objasnjenje": "Termoklina na 18 m. Sloj plijena lezi pretezno ispod 50 m, dakle izvan dohvata panule. Najveca gustina hlorofila je na 98 m (sloj debljine 44 m) - tu se skuplja sitna riba koja se hrani planktonom, pa je i najveca vjerovatnoca da su grabljivice tu negdje."}, "bezbjednost": {"nivo": "zeleno", "razlog": "uslovi povoljni", "izlazak_preporucen": true}, "napomena": "", "razlog_praznog": "More je 27.5  C, iznad gornje granice od 22  C koju model uzima za ovu vrstu."}, "features": []}