{"type": "FeatureCollection", "properties": {"vrsta": "plamida", "naziv": "Plamida", "latinski": "Sarda sarda", "datum": "2026-10-01", "profil": null, "panula": {"dubina_m": [0.0, 25.0], "brzina_kn": [4.0, 6.5], "sati": "zora i sumrak", "granica_dubine_m": 50.0}, "vertikala": {"termoklina_m": 35.8, "termoklina_C_po_m": 0.1, "dcm_m": 91.2, "dcm_odnos": 1.0, "dcm_debljina_m": 40.7, "mld_m": 19.3, "sloj_plijena_m": [65.7, 111.0], "dohvatljivost": 0.0, "objasnjenje": "Termoklina na 36 m. Sloj plijena lezi pretezno ispod 50 m, dakle izvan dohvata panule. Najveca gustina hlorofila je na 91 m (sloj debljine 41 m) - tu se skuplja sitna riba koja se hrani planktonom, pa je i najveca vjerovatnoca da su grabljivice tu negdje."}, "bezbjednost": {"nivo": "zuto", "razlog": "talasi do 1.0 m", "izlazak_preporucen": true}, "napomena": "", "razlog_praznog": null}, "features": [{"type": "Feature", "geometry": {"type": "Polygon", "coordinates": [[[19.07, 41.995], [19.045, 41.99], [19.045, 41.97], [19.025, 41.94], [19.025, 41.92], [19.05, 41.905], [19.08, 41.905], [19.085, 41.91], [19.085, 41.94], [19.075, 41.95], [19.075, 41.99], [19.07, 41.995]]]}, "properties": {"score_mean": 25.5, "score_max": 28.4, "area_km2": 35.9, "centroid": [19.0572, 41.9446], "razlog": "povoljna dubina + termalni front", "dubina_panule_m": 10.9, "sst_raspon_C": 0.4, "sst_promjena_3d_C": -0.8, "upwelling": 0.0, "hladnije_C": 0.2, "izgledi": "osrednji"}}, {"type": "Feature", "geometry": {"type": "Polygon", "coordinates": [[[18.86, 42.215], [18.83, 42.215], [18.825, 42.21], [18.825, 42.18], [18.83, 42.175], [18.86, 42.175], [18.865, 42.18], [18.865, 42.21], [18.86, 42.215]]]}, "properties": {"score_mean": 18.5, "score_max": 34.7, "area_km2": 14.7, "centroid": [18.845, 42.195], "razlog": "termalni front + povoljna dubina", "dubina_panule_m": 9.8, "sst_raspon_C": 1.3, "sst_promjena_3d_C": -0.5, "upwelling": 0.0, "hladnije_C": 0.5, "izgledi": "slabi"}}, {"type": "Feature", "geometry": {"type": "Polygon", "coordinates": [[[18.9, 42.175], [18.87, 42.175], [18.865, 42.17], [18.865, 42.14], [18.87, 42.135], [18.9, 42.135], [18.905, 42.14], [18.905, 42.17], [18.9, 42.175]]]}, "properties": {"score_mean": 17.6, "score_max": 32.7, "area_km2": 14.7, "centroid": [18.885, 42.155], "razlog": "termalni front + povoljna dubina", "dubina_panule_m": 9.4, "sst_raspon_C": 1.0, "sst_promjena_3d_C": -0.3, "upwelling": 0.0, "hladnije_C": 0.4, "izgledi": "slabi"}}, {"type": "Feature", "geometry": {"type": "Polygon", "coordinates": [[[18.94, 42.135], [18.91, 42.135], [18.905, 42.13], [18.905, 42.11], [18.92, 42.095], [18.945, 42.1], [18.945, 42.13], [18.94, 42.135]]]}, "properties": {"score_mean": 12.6, "score_max": 21.8, "area_km2": 13.8, "centroid": [18.926, 42.116], "razlog": "povoljna dubina + termalni front", "dubina_panule_m": 9.1, "sst_raspon_C": 0.4, "sst_promjena_3d_C": -0.4, "upwelling": 0.0, "hladnije_C": 0.1, "izgledi": "slabi"}}, {"type": "Feature", "geometry": {"type": "Polygon", "coordinates": [[[18.945, 42.01], [18.92, 42.015], [18.895, 42.0], [18.895, 41.97], [18.91, 41.945], [18.94, 41.945], [18.945, 41.95], [18.945, 42.01]]]}, "properties": {"score_mean": 6.0, "score_max": 7.9, "area_km2": 28.6, "centroid": [18.9223, 41.9797], "razlog": "povoljna dubina + termalni front", "dubina_panule_m": 25.0, "sst_raspon_C": 0.4, "sst_promjena_3d_C": 0.2, "upwelling": 0.1, "hladnije_C": 0.3, "izgledi": "vrlo slabi"}}, {"type": "Feature", "geometry": {"type": "Polygon", "coordinates": [[[18.69, 42.305], [18.65, 42.305], [18.645, 42.28], [18.685, 42.24], [18.685, 42.23], [18.71, 42.205], [18.73, 42.205], [18.735, 42.21], [18.735, 42.26], [18.71, 42.265], [18.7, 42.275], [18.69, 42.305]]]}, "properties": {"score_mean": 5.8, "score_max": 15.7, "area_km2": 45.9, "centroid": [18.694, 42.2576], "razlog": "termalni front + povoljna dubina", "dubina_panule_m": 25.0, "sst_raspon_C": 0.8, "sst_promjena_3d_C": -0.3, "upwelling": 0.0, "hladnije_C": -0.1, "izgledi": "vrlo slabi"}}]}