{"type": "FeatureCollection", "properties": {"vrsta": "plamida", "naziv": "Plamida", "latinski": "Sarda sarda", "datum": "2026-09-29", "profil": null, "panula": {"dubina_m": [0.0, 25.0], "brzina_kn": [4.0, 6.5], "sati": "zora i sumrak", "granica_dubine_m": 50.0}, "vertikala": {"termoklina_m": 35.8, "termoklina_C_po_m": 0.2, "dcm_m": 97.9, "dcm_odnos": 1.0, "dcm_debljina_m": 38.0, "mld_m": 20.8, "sloj_plijena_m": [71.4, 108.5], "dohvatljivost": 0.0, "objasnjenje": "Termoklina na 36 m. Sloj plijena lezi pretezno ispod 50 m, dakle izvan dohvata panule. Najveca gustina hlorofila je na 98 m (sloj debljine 38 m) - tu se skuplja sitna riba koja se hrani planktonom, pa je i najveca vjerovatnoca da su grabljivice tu negdje."}, "bezbjednost": {"nivo": "zuto", "razlog": "vjetar 12 cv", "izlazak_preporucen": true}, "napomena": "", "razlog_praznog": null}, "features": [{"type": "Feature", "geometry": {"type": "Polygon", "coordinates": [[[19.07, 41.995], [19.045, 41.99], [19.045, 41.96], [19.05, 41.955], [19.08, 41.955], [19.085, 41.96], [19.085, 41.98], [19.07, 41.995]]]}, "properties": {"score_mean": 11.4, "score_max": 14.0, "area_km2": 13.8, "centroid": [19.064, 41.974], "razlog": "termalni front + povoljna dubina", "dubina_panule_m": 9.6, "sst_raspon_C": 0.8, "sst_promjena_3d_C": 0.0, "upwelling": 0.0, "hladnije_C": 0.2, "izgledi": "vrlo slabi"}}, {"type": "Feature", "geometry": {"type": "Polygon", "coordinates": [[[18.94, 42.115], [18.915, 42.11], [18.915, 42.07], [18.9, 42.065], [18.885, 42.05], [18.885, 41.99], [18.89, 41.985], [18.94, 41.985], [18.945, 41.99], [18.945, 42.11], [18.94, 42.115]]]}, "properties": {"score_mean": 6.3, "score_max": 7.0, "area_km2": 57.1, "centroid": [18.919, 42.0402], "razlog": "povoljna dubina + prisustvo mamca", "dubina_panule_m": 10.7, "sst_raspon_C": 0.2, "sst_promjena_3d_C": 0.0, "upwelling": 0.1, "hladnije_C": 0.0, "izgledi": "vrlo slabi"}}, {"type": "Feature", "geometry": {"type": "Polygon", "coordinates": [[[18.69, 42.305], [18.66, 42.305], [18.655, 42.28], [18.67, 42.265], [18.685, 42.26], [18.685, 42.24], [18.71, 42.215], [18.73, 42.215], [18.735, 42.22], [18.735, 42.26], [18.695, 42.27], [18.695, 42.3], [18.69, 42.305]]]}, "properties": {"score_mean": 4.2, "score_max": 10.0, "area_km2": 33.9, "centroid": [18.6976, 42.26], "razlog": "termalni front + povoljna dubina", "dubina_panule_m": 25.0, "sst_raspon_C": 0.6, "sst_promjena_3d_C": 0.0, "upwelling": 0.0, "hladnije_C": -0.0, "izgledi": "vrlo slabi"}}]}