{"type": "FeatureCollection", "properties": {"vrsta": "plamida", "naziv": "Plamida", "latinski": "Sarda sarda", "datum": "2026-09-30", "profil": null, "panula": {"dubina_m": [0.0, 25.0], "brzina_kn": [4.0, 6.5], "sati": "zora i sumrak", "granica_dubine_m": 50.0}, "vertikala": {"termoklina_m": 35.8, "termoklina_C_po_m": 0.2, "dcm_m": 97.9, "dcm_odnos": 1.0, "dcm_debljina_m": 39.6, "mld_m": 19.1, "sloj_plijena_m": [71.4, 111.0], "dohvatljivost": 0.0, "objasnjenje": "Termoklina na 36 m. Sloj plijena lezi pretezno ispod 50 m, dakle izvan dohvata panule. Najveca gustina hlorofila je na 98 m (sloj debljine 40 m) - tu se skuplja sitna riba koja se hrani planktonom, pa je i najveca vjerovatnoca da su grabljivice tu negdje."}, "bezbjednost": {"nivo": "zuto", "razlog": "vjetar 14 cv", "izlazak_preporucen": true}, "napomena": "", "razlog_praznog": null}, "features": [{"type": "Feature", "geometry": {"type": "Polygon", "coordinates": [[[19.03, 42.065], [19.01, 42.065], [19.005, 42.04], [19.015, 42.03], [19.015, 42.02], [19.04, 41.995], [19.06, 41.995], [19.065, 42.0], [19.065, 42.04], [19.05, 42.045], [19.03, 42.065]]]}, "properties": {"score_mean": 14.5, "score_max": 18.5, "area_km2": 27.6, "centroid": [19.0367, 42.0303], "razlog": "termalni front + povoljna dubina", "dubina_panule_m": 9.3, "sst_raspon_C": 0.9, "sst_promjena_3d_C": 0.0, "upwelling": 0.0, "hladnije_C": 0.3, "izgledi": "slabi"}}, {"type": "Feature", "geometry": {"type": "Polygon", "coordinates": [[[18.93, 42.125], [18.905, 42.12], [18.905, 42.1], [18.915, 42.09], [18.915, 42.08], [18.885, 42.05], [18.885, 42.02], [18.91, 41.985], [18.94, 41.985], [18.945, 41.99], [18.945, 42.11], [18.93, 42.125]]]}, "properties": {"score_mean": 7.4, "score_max": 10.2, "area_km2": 58.9, "centroid": [18.9203, 42.0491], "razlog": "povoljna dubina + termalni front", "dubina_panule_m": 9.3, "sst_raspon_C": 0.5, "sst_promjena_3d_C": 0.0, "upwelling": 0.0, "hladnije_C": -0.1, "izgledi": "vrlo slabi"}}, {"type": "Feature", "geometry": {"type": "Polygon", "coordinates": [[[18.69, 42.305], [18.66, 42.305], [18.655, 42.3], [18.655, 42.28], [18.67, 42.265], [18.695, 42.27], [18.695, 42.3], [18.69, 42.305]]]}, "properties": {"score_mean": 4.6, "score_max": 11.1, "area_km2": 13.8, "centroid": [18.676, 42.286], "razlog": "termalni front + povoljna dubina", "dubina_panule_m": 8.9, "sst_raspon_C": 1.0, "sst_promjena_3d_C": 0.0, "upwelling": 0.0, "hladnije_C": -0.3, "izgledi": "vrlo slabi"}}, {"type": "Feature", "geometry": {"type": "Polygon", "coordinates": [[[18.73, 42.265], [18.7, 42.265], [18.695, 42.26], [18.695, 42.23], [18.71, 42.215], [18.735, 42.22], [18.735, 42.26], [18.73, 42.265]]]}, "properties": {"score_mean": 4.2, "score_max": 8.4, "area_km2": 17.4, "centroid": [18.7158, 42.2411], "razlog": "termalni front + povoljna dubina", "dubina_panule_m": 10.1, "sst_raspon_C": 0.9, "sst_promjena_3d_C": 0.0, "upwelling": 0.0, "hladnije_C": -0.3, "izgledi": "vrlo slabi"}}]}