{"type": "FeatureCollection", "properties": {"vrsta": "plamida", "naziv": "Plamida", "latinski": "Sarda sarda", "datum": "2026-10-02", "profil": null, "panula": {"dubina_m": [0.0, 25.0], "brzina_kn": [4.0, 6.5], "sati": "zora i sumrak", "granica_dubine_m": 50.0}, "vertikala": {"termoklina_m": 35.8, "termoklina_C_po_m": 0.2, "dcm_m": 97.9, "dcm_odnos": 1.0, "dcm_debljina_m": 39.8, "mld_m": 21.9, "sloj_plijena_m": [67.4, 111.8], "dohvatljivost": 0.0, "objasnjenje": "Termoklina na 36 m. Sloj plijena lezi pretezno ispod 50 m, dakle izvan dohvata panule. Najveca gustina hlorofila je na 98 m (sloj debljine 40 m) - tu se skuplja sitna riba koja se hrani planktonom, pa je i najveca vjerovatnoca da su grabljivice tu negdje."}, "bezbjednost": {"nivo": "zuto", "razlog": "talasi do 1.2 m", "izlazak_preporucen": true}, "napomena": "", "razlog_praznog": null}, "features": [{"type": "Feature", "geometry": {"type": "Polygon", "coordinates": [[[18.94, 42.135], [18.915, 42.13], [18.92, 42.105], [18.945, 42.11], [18.94, 42.135]]]}, "properties": {"score_mean": 32.5, "score_max": 39.6, "area_km2": 8.3, "centroid": [18.93, 42.12], "razlog": "termalni front + povoljna dubina", "dubina_panule_m": 8.7, "sst_raspon_C": 1.5, "sst_promjena_3d_C": -0.4, "upwelling": 0.1, "hladnije_C": 0.2, "izgledi": "osrednji"}}, {"type": "Feature", "geometry": {"type": "Polygon", "coordinates": [[[18.86, 42.215], [18.835, 42.21], [18.84, 42.185], [18.865, 42.19], [18.86, 42.215]]]}, "properties": {"score_mean": 31.3, "score_max": 36.7, "area_km2": 8.3, "centroid": [18.85, 42.2], "razlog": "termalni front + povoljna dubina", "dubina_panule_m": 8.8, "sst_raspon_C": 1.2, "sst_promjena_3d_C": 0.1, "upwelling": 0.1, "hladnije_C": 0.1, "izgledi": "osrednji"}}, {"type": "Feature", "geometry": {"type": "Polygon", "coordinates": [[[19.06, 42.045], [19.04, 42.045], [19.025, 42.03], [19.025, 42.0], [19.05, 41.975], [19.075, 41.98], [19.075, 42.02], [19.06, 42.045]]]}, "properties": {"score_mean": 30.6, "score_max": 36.2, "area_km2": 26.7, "centroid": [19.051, 42.01], "razlog": "termalni front + povoljna dubina", "dubina_panule_m": 9.0, "sst_raspon_C": 0.8, "sst_promjena_3d_C": -0.7, "upwelling": 0.0, "hladnije_C": 0.0, "izgledi": "osrednji"}}, {"type": "Feature", "geometry": {"type": "Polygon", "coordinates": [[[19.1, 41.925], [19.075, 41.92], [19.075, 41.9], [19.09, 41.875], [19.115, 41.88], [19.115, 41.9], [19.1, 41.925]]]}, "properties": {"score_mean": 30.2, "score_max": 40.1, "area_km2": 14.8, "centroid": [19.095, 41.9], "razlog": "termalni front + povoljna dubina", "dubina_panule_m": 11.3, "sst_raspon_C": 0.8, "sst_promjena_3d_C": -0.8, "upwelling": 0.0, "hladnije_C": 0.4, "izgledi": "osrednji"}}, {"type": "Feature", "geometry": {"type": "Polygon", "coordinates": [[[18.9, 42.175], [18.875, 42.17], [18.88, 42.145], [18.905, 42.15], [18.9, 42.175]]]}, "properties": {"score_mean": 28.6, "score_max": 34.1, "area_km2": 8.3, "centroid": [18.89, 42.16], "razlog": "termalni front + povoljna dubina", "dubina_panule_m": 8.9, "sst_raspon_C": 1.4, "sst_promjena_3d_C": 0.1, "upwelling": 0.0, "hladnije_C": -0.1, "izgledi": "osrednji"}}, {"type": "Feature", "geometry": {"type": "Polygon", "coordinates": [[[18.69, 42.305], [18.665, 42.3], [18.67, 42.275], [18.695, 42.28], [18.69, 42.305]]]}, "properties": {"score_mean": 26.8, "score_max": 27.7, "area_km2": 8.3, "centroid": [18.68, 42.29], "razlog": "povoljna dubina + termalni front", "dubina_panule_m": 7.7, "sst_raspon_C": 0.4, "sst_promjena_3d_C": -0.9, "upwelling": 0.0, "hladnije_C": 0.0, "izgledi": "osrednji"}}]}