{"type": "FeatureCollection", "properties": {"vrsta": "plamida", "naziv": "Plamida", "latinski": "Sarda sarda", "datum": "2026-10-09", "profil": null, "panula": {"dubina_m": [0.0, 25.0], "brzina_kn": [4.0, 6.5], "sati": "zora i sumrak", "granica_dubine_m": 50.0}, "vertikala": {"termoklina_m": 31.8, "termoklina_C_po_m": 0.1, "dcm_m": 91.2, "dcm_odnos": 1.0, "dcm_debljina_m": 42.6, "mld_m": 21.5, "sloj_plijena_m": [59.4, 104.0], "dohvatljivost": 0.0, "objasnjenje": "Termoklina na 32 m. Sloj plijena lezi pretezno ispod 50 m, dakle izvan dohvata panule. Najveca gustina hlorofila je na 91 m (sloj debljine 43 m) - tu se skuplja sitna riba koja se hrani planktonom, pa je i najveca vjerovatnoca da su grabljivice tu negdje."}, "bezbjednost": {"nivo": "crveno", "razlog": "talasi do 2.2 m, vjetar 16 cv, udari 22 cv", "izlazak_preporucen": false}, "napomena": "", "razlog_praznog": null}, "features": [{"type": "Feature", "geometry": {"type": "Polygon", "coordinates": [[[18.85, 42.215], [18.82, 42.215], [18.815, 42.19], [18.82, 42.185], [18.85, 42.185], [18.855, 42.19], [18.85, 42.215]]]}, "properties": {"score_mean": 56.7, "score_max": 62.4, "area_km2": 11.0, "centroid": [18.835, 42.2], "razlog": "termalni front + povoljna dubina", "dubina_panule_m": 12.6, "sst_raspon_C": 1.3, "sst_promjena_3d_C": -0.5, "upwelling": 0.1, "hladnije_C": 0.2, "izgledi": "dobri"}}, {"type": "Feature", "geometry": {"type": "Polygon", "coordinates": [[[18.92, 42.115], [18.895, 42.11], [18.895, 42.09], [18.92, 42.065], [18.94, 42.065], [18.945, 42.09], [18.92, 42.115]]]}, "properties": {"score_mean": 42.8, "score_max": 49.7, "area_km2": 17.5, "centroid": [18.92, 42.09], "razlog": "povoljna dubina + prisustvo mamca", "dubina_panule_m": 10.6, "sst_raspon_C": 0.2, "sst_promjena_3d_C": -0.6, "upwelling": 0.0, "hladnije_C": 0.2, "izgledi": "dobri"}}, {"type": "Feature", "geometry": {"type": "Polygon", "coordinates": [[[18.99, 42.075], [18.965, 42.07], [18.965, 42.05], [18.99, 42.015], [19.01, 42.015], [19.015, 42.02], [19.015, 42.05], [18.99, 42.075]]]}, "properties": {"score_mean": 41.1, "score_max": 46.8, "area_km2": 21.2, "centroid": [18.9909, 42.0452], "razlog": "povoljna dubina + ivica struje", "dubina_panule_m": 8.7, "sst_raspon_C": 0.4, "sst_promjena_3d_C": -0.3, "upwelling": 0.0, "hladnije_C": 0.0, "izgledi": "dobri"}}, {"type": "Feature", "geometry": {"type": "Polygon", "coordinates": [[[19.05, 42.005], [19.02, 42.005], [19.015, 42.0], [19.015, 41.96], [19.02, 41.955], [19.05, 41.955], [19.055, 41.96], [19.055, 42.0], [19.05, 42.005]]]}, "properties": {"score_mean": 37.2, "score_max": 42.7, "area_km2": 18.4, "centroid": [19.035, 41.98], "razlog": "ivica struje + povoljna dubina", "dubina_panule_m": 7.9, "sst_raspon_C": 0.3, "sst_promjena_3d_C": -0.6, "upwelling": 0.0, "hladnije_C": -0.0, "izgledi": "osrednji"}}, {"type": "Feature", "geometry": {"type": "Polygon", "coordinates": [[[18.7, 42.275], [18.675, 42.27], [18.675, 42.25], [18.7, 42.235], [18.73, 42.235], [18.735, 42.26], [18.71, 42.265], [18.7, 42.275]]]}, "properties": {"score_mean": 35.1, "score_max": 44.8, "area_km2": 17.4, "centroid": [18.7047, 42.2542], "razlog": "termalni front + ivica struje", "dubina_panule_m": 12.3, "sst_raspon_C": 0.8, "sst_promjena_3d_C": 0.0, "upwelling": 0.0, "hladnije_C": -0.3, "izgledi": "osrednji"}}, {"type": "Feature", "geometry": {"type": "Polygon", "coordinates": [[[18.64, 42.345], [18.6, 42.345], [18.595, 42.34], [18.595, 42.31], [18.63, 42.275], [18.66, 42.275], [18.665, 42.28], [18.665, 42.31], [18.64, 42.345]]]}, "properties": {"score_mean": 25.9, "score_max": 35.1, "area_km2": 35.7, "centroid": [18.6308, 42.3113], "razlog": "termalni front + povoljna dubina", "dubina_panule_m": 14.6, "sst_raspon_C": 0.8, "sst_promjena_3d_C": -0.3, "upwelling": 0.0, "hladnije_C": -0.3, "izgledi": "osrednji"}}]}