{"type": "FeatureCollection", "properties": {"vrsta": "plamida", "naziv": "Plamida", "latinski": "Sarda sarda", "datum": "2026-10-08", "profil": null, "panula": {"dubina_m": [0.0, 25.0], "brzina_kn": [4.0, 6.5], "sati": "zora i sumrak", "granica_dubine_m": 50.0}, "vertikala": {"termoklina_m": 28.0, "termoklina_C_po_m": 0.1, "dcm_m": 91.2, "dcm_odnos": 1.0, "dcm_debljina_m": 41.3, "mld_m": 20.0, "sloj_plijena_m": [62.0, 103.3], "dohvatljivost": 0.0, "objasnjenje": "Termoklina na 28 m. Sloj plijena lezi pretezno ispod 50 m, dakle izvan dohvata panule. Najveca gustina hlorofila je na 91 m (sloj debljine 41 m) - tu se skuplja sitna riba koja se hrani planktonom, pa je i najveca vjerovatnoca da su grabljivice tu negdje."}, "bezbjednost": {"nivo": "crveno", "razlog": "talasi do 1.5 m, vjetar 18 cv, udari 24 cv", "izlazak_preporucen": false}, "napomena": "", "razlog_praznog": null}, "features": [{"type": "Feature", "geometry": {"type": "Polygon", "coordinates": [[[18.65, 42.345], [18.625, 42.34], [18.63, 42.315], [18.655, 42.32], [18.65, 42.345]]]}, "properties": {"score_mean": 40.8, "score_max": 42.4, "area_km2": 8.2, "centroid": [18.64, 42.33], "razlog": "termalni front + povoljna dubina", "dubina_panule_m": 12.1, "sst_raspon_C": 0.9, "sst_promjena_3d_C": 0.0, "upwelling": 0.0, "hladnije_C": 0.1, "izgledi": "dobri"}}, {"type": "Feature", "geometry": {"type": "Polygon", "coordinates": [[[18.95, 42.095], [18.925, 42.09], [18.925, 42.05], [18.915, 42.04], [18.915, 42.01], [18.92, 42.005], [18.94, 42.005], [18.945, 42.02], [18.98, 42.055], [19.005, 42.06], [19.0, 42.085], [18.96, 42.085], [18.95, 42.095]]]}, "properties": {"score_mean": 38.4, "score_max": 47.3, "area_km2": 43.2, "centroid": [18.9521, 42.0555], "razlog": "termalni front + povoljna dubina", "dubina_panule_m": 11.1, "sst_raspon_C": 0.8, "sst_promjena_3d_C": 0.0, "upwelling": 0.2, "hladnije_C": 0.2, "izgledi": "osrednji"}}, {"type": "Feature", "geometry": {"type": "Polygon", "coordinates": [[[18.86, 42.215], [18.8, 42.215], [18.795, 42.19], [18.82, 42.175], [18.86, 42.175], [18.865, 42.18], [18.865, 42.21], [18.86, 42.215]]]}, "properties": {"score_mean": 34.7, "score_max": 55.0, "area_km2": 23.9, "centroid": [18.8319, 42.1962], "razlog": "termalni front + povoljna dubina", "dubina_panule_m": 12.5, "sst_raspon_C": 1.3, "sst_promjena_3d_C": 0.0, "upwelling": 0.0, "hladnije_C": -0.1, "izgledi": "osrednji"}}]}