{"type": "FeatureCollection", "properties": {"vrsta": "sabljarka", "naziv": "Sabljarka", "latinski": "Xiphias gladius", "datum": "2026-09-29", "profil": "jesenji, uz obalu", "panula": {"dubina_m": [0.0, 30.0], "brzina_kn": [1.5, 3.0], "sati": "posljednja tri sata dnevnog svjetla", "granica_dubine_m": 50.0}, "vertikala": {"termoklina_m": 31.8, "termoklina_C_po_m": 0.2, "dcm_m": 97.9, "dcm_odnos": 1.0, "dcm_debljina_m": 38.0, "mld_m": 18.6, "sloj_plijena_m": [71.4, 108.6], "dohvatljivost": 0.0, "objasnjenje": "Termoklina na 32 m. Sloj plijena lezi pretezno ispod 50 m, dakle izvan dohvata panule. Najveca gustina hlorofila je na 98 m (sloj debljine 38 m) - tu se skuplja sitna riba koja se hrani planktonom, pa je i najveca vjerovatnoca da su grabljivice tu negdje."}, "bezbjednost": {"nivo": "zuto", "razlog": "vjetar 14 cv", "izlazak_preporucen": true}, "napomena": "Septembar i oktobar: prolaze male sabljarke od 5 do 8 kg, relativno ceste, obicno 500 m do 1 km od obale.", "razlog_praznog": null}, "features": [{"type": "Feature", "geometry": {"type": "Polygon", "coordinates": [[[19.02, 42.075], [18.995, 42.07], [18.995, 42.03], [19.005, 42.02], [19.005, 42.0], [19.02, 41.985], [19.05, 41.985], [19.065, 42.0], [19.065, 42.03], [19.02, 42.075]]]}, "properties": {"score_mean": 47.2, "score_max": 50.4, "area_km2": 43.3, "centroid": [19.0281, 42.0274], "razlog": "termalni front + povoljna dubina", "dubina_panule_m": 8.6, "sst_raspon_C": 0.8, "sst_promjena_3d_C": -0.5, "upwelling": 0.1, "hladnije_C": 0.2, "izgledi": "dobri"}}, {"type": "Feature", "geometry": {"type": "Polygon", "coordinates": [[[18.91, 42.185], [18.88, 42.185], [18.875, 42.18], [18.875, 42.15], [18.88, 42.145], [18.91, 42.145], [18.915, 42.15], [18.915, 42.18], [18.91, 42.185]]]}, "properties": {"score_mean": 47.0, "score_max": 48.9, "area_km2": 14.7, "centroid": [18.895, 42.165], "razlog": "termalni front + povoljna dubina", "dubina_panule_m": 8.8, "sst_raspon_C": 0.9, "sst_promjena_3d_C": -0.2, "upwelling": 0.0, "hladnije_C": 0.1, "izgledi": "dobri"}}, {"type": "Feature", "geometry": {"type": "Polygon", "coordinates": [[[18.86, 42.225], [18.835, 42.22], [18.835, 42.19], [18.84, 42.185], [18.87, 42.185], [18.875, 42.19], [18.875, 42.21], [18.86, 42.225]]]}, "properties": {"score_mean": 46.3, "score_max": 48.7, "area_km2": 13.8, "centroid": [18.854, 42.204], "razlog": "termalni front + povoljna dubina", "dubina_panule_m": 8.9, "sst_raspon_C": 0.6, "sst_promjena_3d_C": -0.2, "upwelling": 0.0, "hladnije_C": 0.2, "izgledi": "dobri"}}, {"type": "Feature", "geometry": {"type": "Polygon", "coordinates": [[[18.94, 42.045], [18.91, 42.045], [18.895, 42.03], [18.895, 42.0], [18.9, 41.995], [18.94, 41.995], [18.945, 42.0], [18.945, 42.04], [18.94, 42.045]]]}, "properties": {"score_mean": 41.1, "score_max": 47.0, "area_km2": 22.1, "centroid": [18.9208, 42.0192], "razlog": "povoljna dubina + termalni front", "dubina_panule_m": 11.6, "sst_raspon_C": 0.4, "sst_promjena_3d_C": -0.4, "upwelling": 0.0, "hladnije_C": -0.0, "izgledi": "dobri"}}, {"type": "Feature", "geometry": {"type": "Polygon", "coordinates": [[[18.7, 42.315], [18.67, 42.315], [18.665, 42.31], [18.665, 42.28], [18.68, 42.265], [18.695, 42.26], [18.71, 42.225], [18.74, 42.225], [18.745, 42.23], [18.745, 42.27], [18.74, 42.275], [18.71, 42.275], [18.7, 42.315]]]}, "properties": {"score_mean": 41.1, "score_max": 76.7, "area_km2": 37.6, "centroid": [18.7056, 42.2693], "razlog": "termalni front + povoljna dubina", "dubina_panule_m": 7.6, "sst_raspon_C": 1.0, "sst_promjena_3d_C": 0.1, "upwelling": 0.0, "hladnije_C": -0.3, "izgledi": "dobri"}}]}