{"type": "FeatureCollection", "properties": {"vrsta": "sabljarka", "naziv": "Sabljarka", "latinski": "Xiphias gladius", "datum": "2026-08-22", "panula": {"dubina_m": [15.0, 50.0], "brzina_kn": [1.5, 3.0], "granica_dubine_m": 50.0}, "vertikala": {"termoklina_m": 11.9, "termoklina_C_po_m": 0.1, "dcm_m": 91.2, "dcm_odnos": 1.0, "dcm_debljina_m": 39.8, "mld_m": 11.9, "sloj_plijena_m": [64.2, 107.6], "dohvatljivost": 0.0, "objasnjenje": "Termoklina na 12 m. Sloj plijena leži pretežno ispod 50 m, dakle izvan dohvata panule. Najveća gustina hlorofila je na 91 m (sloj debljine 40 m) — tu se skuplja sitna riba koja se hrani planktonom, pa je i najveća vjerovatnoća da su grabljivice tu negdje."}, "bezbjednost": {"nivo": "zuto", "razlog": "vjetar 12 cv", "izlazak_preporucen": true}, "napomena": "Nocni lov, spora panula. Ogranicenje 50 m znaci da se lovi samo kad se sabljarka nocu podigne u povrsinski sloj."}, "features": [{"type": "Feature", "geometry": {"type": "Polygon", "coordinates": [[[18.9, 42.175], [18.875, 42.17], [18.88, 42.145], [18.905, 42.15], [18.9, 42.175]]]}, "properties": {"score_mean": 50.9, "score_max": 56.3, "area_km2": 8.3, "centroid": [18.89, 42.16], "razlog": "noc + termoklina u dohvatu", "dubina_panule_m": 46.7, "sst_raspon_C": 0.8, "sst_promjena_3d_C": 0.1, "upwelling": 0.2, "hladnije_C": 0.1, "izgledi": "dobri"}}, {"type": "Feature", "geometry": {"type": "Polygon", "coordinates": [[[18.94, 42.145], [18.915, 42.14], [18.915, 42.11], [18.92, 42.105], [18.945, 42.11], [18.945, 42.14], [18.94, 42.145]]]}, "properties": {"score_mean": 49.4, "score_max": 57.4, "area_km2": 11.0, "centroid": [18.93, 42.125], "razlog": "noc + termoklina u dohvatu", "dubina_panule_m": 15.0, "sst_raspon_C": 0.8, "sst_promjena_3d_C": 0.3, "upwelling": 0.4, "hladnije_C": 0.2, "izgledi": "dobri"}}, {"type": "Feature", "geometry": {"type": "Polygon", "coordinates": [[[19.23, 41.885], [19.18, 41.885], [19.175, 41.88], [19.175, 41.85], [19.22, 41.825], [19.27, 41.815], [19.275, 41.84], [19.245, 41.85], [19.23, 41.885]]]}, "properties": {"score_mean": 46.1, "score_max": 64.3, "area_km2": 39.7, "centroid": [19.2216, 41.8519], "razlog": "noc + termoklina u dohvatu", "dubina_panule_m": 15.0, "sst_raspon_C": 1.2, "sst_promjena_3d_C": 1.5, "upwelling": 0.0, "hladnije_C": 0.4, "izgledi": "dobri"}}, {"type": "Feature", "geometry": {"type": "Polygon", "coordinates": [[[19.08, 41.995], [19.05, 41.995], [19.045, 41.99], [19.045, 41.96], [19.085, 41.92], [19.09, 41.905], [19.12, 41.905], [19.125, 41.91], [19.125, 41.94], [19.085, 41.98], [19.08, 41.995]]]}, "properties": {"score_mean": 39.2, "score_max": 60.0, "area_km2": 40.6, "centroid": [19.085, 41.95], "razlog": "noc + termoklina u dohvatu", "dubina_panule_m": 15.0, "sst_raspon_C": 0.9, "sst_promjena_3d_C": 1.4, "upwelling": 0.1, "hladnije_C": 0.0, "izgledi": "osrednji"}}, {"type": "Feature", "geometry": {"type": "Polygon", "coordinates": [[[19.0, 42.095], [18.975, 42.09], [18.98, 42.065], [19.005, 42.07], [19.0, 42.095]]]}, "properties": {"score_mean": 39.2, "score_max": 55.3, "area_km2": 8.3, "centroid": [18.99, 42.08], "razlog": "noc + termoklina u dohvatu", "dubina_panule_m": 15.0, "sst_raspon_C": 0.4, "sst_promjena_3d_C": 0.6, "upwelling": 0.5, "hladnije_C": 0.2, "izgledi": "osrednji"}}, {"type": "Feature", "geometry": {"type": "Polygon", "coordinates": [[[18.71, 42.275], [18.68, 42.275], [18.675, 42.27], [18.675, 42.22], [18.71, 42.195], [18.75, 42.195], [18.755, 42.22], [18.74, 42.235], [18.715, 42.24], [18.715, 42.27], [18.71, 42.275]]]}, "properties": {"score_mean": 10.9, "score_max": 58.4, "area_km2": 39.5, "centroid": [18.7093, 42.2307], "razlog": "noc + mjesecina", "dubina_panule_m": 33.8, "sst_raspon_C": 0.8, "sst_promjena_3d_C": -0.9, "upwelling": 0.6, "hladnije_C": 0.3, "izgledi": "vrlo slabi"}}]}