{"type": "FeatureCollection", "properties": {"vrsta": "sabljarka", "naziv": "Sabljarka", "latinski": "Xiphias gladius", "datum": "2026-09-14", "profil": "jesenji, uz obalu", "panula": {"dubina_m": [0.0, 30.0], "brzina_kn": [1.5, 3.0], "sati": "posljednja tri sata dnevnog svjetla", "granica_dubine_m": 50.0}, "vertikala": {"termoklina_m": 21.1, "termoklina_C_po_m": 0.3, "dcm_m": 97.9, "dcm_odnos": 1.0, "dcm_debljina_m": 40.7, "mld_m": 14.8, "sloj_plijena_m": [51.8, 102.9], "dohvatljivost": 0.0, "objasnjenje": "Termoklina na 21 m. Sloj plijena lezi pretezno ispod 50 m, dakle izvan dohvata panule. Najveca gustina hlorofila je na 98 m (sloj debljine 41 m) - tu se skuplja sitna riba koja se hrani planktonom, pa je i najveca vjerovatnoca da su grabljivice tu negdje."}, "bezbjednost": {"nivo": "crveno", "razlog": "talasi do 1.1 m, vjetar 15 cv, udari 20 cv", "izlazak_preporucen": false}, "napomena": "Septembar i oktobar: prolaze male sabljarke od 5 do 8 kg, relativno ceste, obicno 500 m do 1 km od obale.", "razlog_praznog": null}, "features": [{"type": "Feature", "geometry": {"type": "Polygon", "coordinates": [[[19.1, 41.965], [19.075, 41.96], [19.075, 41.93], [19.08, 41.925], [19.105, 41.93], [19.105, 41.96], [19.1, 41.965]]]}, "properties": {"score_mean": 37.3, "score_max": 40.5, "area_km2": 11.1, "centroid": [19.09, 41.945], "razlog": "prisustvo mamca + povoljna dubina", "dubina_panule_m": 7.4, "sst_raspon_C": 0.7, "sst_promjena_3d_C": -0.4, "upwelling": 0.4, "hladnije_C": 0.1, "izgledi": "osrednji"}}, {"type": "Feature", "geometry": {"type": "Polygon", "coordinates": [[[19.1, 41.815], [19.075, 41.81], [19.08, 41.785], [19.105, 41.79], [19.1, 41.815]]]}, "properties": {"score_mean": 35.6, "score_max": 37.4, "area_km2": 8.3, "centroid": [19.09, 41.8], "razlog": "termalni front + povoljna dubina", "dubina_panule_m": 10.6, "sst_raspon_C": 0.5, "sst_promjena_3d_C": -0.6, "upwelling": 0.0, "hladnije_C": 0.2, "izgledi": "osrednji"}}, {"type": "Feature", "geometry": {"type": "Polygon", "coordinates": [[[18.945, 42.0], [18.92, 42.005], [18.9, 41.985], [18.875, 41.98], [18.875, 41.96], [18.915, 41.92], [18.92, 41.905], [18.945, 41.91], [18.945, 42.0]]]}, "properties": {"score_mean": 27.9, "score_max": 36.1, "area_km2": 45.2, "centroid": [18.9178, 41.958], "razlog": "termalni front + povoljna dubina", "dubina_panule_m": 10.1, "sst_raspon_C": 0.8, "sst_promjena_3d_C": -0.5, "upwelling": 0.2, "hladnije_C": 0.1, "izgledi": "osrednji"}}, {"type": "Feature", "geometry": {"type": "Polygon", "coordinates": [[[18.7, 42.315], [18.65, 42.315], [18.645, 42.31], [18.645, 42.28], [18.685, 42.24], [18.685, 42.23], [18.7, 42.215], [18.74, 42.215], [18.745, 42.22], [18.745, 42.27], [18.74, 42.275], [18.71, 42.275], [18.7, 42.315]]]}, "properties": {"score_mean": 14.9, "score_max": 44.1, "area_km2": 59.6, "centroid": [18.6968, 42.2655], "razlog": "povoljna dubina + termalni front", "dubina_panule_m": 30.0, "sst_raspon_C": 0.4, "sst_promjena_3d_C": -0.4, "upwelling": 0.0, "hladnije_C": -0.1, "izgledi": "slabi"}}]}