{"type": "FeatureCollection", "properties": {"vrsta": "sabljarka", "naziv": "Sabljarka", "latinski": "Xiphias gladius", "datum": "2026-08-29", "profil": "duboko, izvan selfa", "panula": {"dubina_m": [15.0, 50.0], "brzina_kn": [1.5, 3.0], "sati": "posljednja tri sata dnevnog svjetla", "granica_dubine_m": 50.0}, "vertikala": {"termoklina_m": 11.9, "termoklina_C_po_m": 0.2, "dcm_m": 91.2, "dcm_odnos": 1.0, "dcm_debljina_m": 33.7, "mld_m": 11.9, "sloj_plijena_m": [67.1, 100.5], "dohvatljivost": 0.0, "objasnjenje": "Termoklina na 12 m. Sloj plijena lezi pretezno ispod 50 m, dakle izvan dohvata panule. Najveca gustina hlorofila je na 91 m (sloj debljine 34 m) - tu se skuplja sitna riba koja se hrani planktonom, pa je i najveca vjerovatnoca da su grabljivice tu negdje."}, "bezbjednost": {"nivo": "zeleno", "razlog": "uslovi povoljni", "izlazak_preporucen": true}, "napomena": "Ne lovi se nocu - osim povrsinskim parangalima daleko od obale. Preko dana bez cvrstog pravila, najcesce pred kraj dana.", "razlog_praznog": null}, "features": [{"type": "Feature", "geometry": {"type": "Polygon", "coordinates": [[[19.25, 41.855], [19.225, 41.85], [19.225, 41.82], [19.23, 41.815], [19.255, 41.82], [19.255, 41.85], [19.25, 41.855]]]}, "properties": {"score_mean": 40.9, "score_max": 48.5, "area_km2": 11.1, "centroid": [19.24, 41.835], "razlog": "termoklina u dohvatu + prisustvo mamca", "dubina_panule_m": 15.0, "sst_raspon_C": 0.6, "sst_promjena_3d_C": -0.8, "upwelling": 0.1, "hladnije_C": 0.0, "izgledi": "dobri"}}, {"type": "Feature", "geometry": {"type": "Polygon", "coordinates": [[[19.2, 41.855], [19.175, 41.85], [19.18, 41.825], [19.205, 41.83], [19.2, 41.855]]]}, "properties": {"score_mean": 30.5, "score_max": 38.3, "area_km2": 8.3, "centroid": [19.19, 41.84], "razlog": "termoklina u dohvatu + zora/sumrak", "dubina_panule_m": 15.0, "sst_raspon_C": 0.5, "sst_promjena_3d_C": -0.7, "upwelling": 0.0, "hladnije_C": -0.1, "izgledi": "osrednji"}}, {"type": "Feature", "geometry": {"type": "Polygon", "coordinates": [[[19.23, 41.805], [19.205, 41.8], [19.21, 41.775], [19.235, 41.78], [19.23, 41.805]]]}, "properties": {"score_mean": 14.0, "score_max": 19.7, "area_km2": 8.3, "centroid": [19.22, 41.79], "razlog": "termoklina u dohvatu + zora/sumrak", "dubina_panule_m": 15.0, "sst_raspon_C": 0.4, "sst_promjena_3d_C": -1.1, "upwelling": 0.1, "hladnije_C": 0.1, "izgledi": "slabi"}}, {"type": "Feature", "geometry": {"type": "Polygon", "coordinates": [[[19.13, 41.895], [19.105, 41.89], [19.11, 41.865], [19.135, 41.87], [19.13, 41.895]]]}, "properties": {"score_mean": 13.1, "score_max": 41.3, "area_km2": 8.3, "centroid": [19.12, 41.88], "razlog": "termoklina u dohvatu + zora/sumrak", "dubina_panule_m": 50.0, "sst_raspon_C": 0.4, "sst_promjena_3d_C": -0.6, "upwelling": 0.0, "hladnije_C": -0.0, "izgledi": "slabi"}}]}