{"type": "FeatureCollection", "properties": {"vrsta": "sabljarka", "naziv": "Sabljarka", "latinski": "Xiphias gladius", "datum": "2026-09-20", "profil": "jesenji, uz obalu", "panula": {"dubina_m": [0.0, 30.0], "brzina_kn": [1.5, 3.0], "sati": "posljednja tri sata dnevnog svjetla", "granica_dubine_m": 50.0}, "vertikala": {"termoklina_m": 24.5, "termoklina_C_po_m": 0.2, "dcm_m": 97.9, "dcm_odnos": 1.0, "dcm_debljina_m": 36.4, "mld_m": 11.9, "sloj_plijena_m": [59.4, 108.5], "dohvatljivost": 0.0, "objasnjenje": "Termoklina na 24 m. Sloj plijena lezi pretezno ispod 50 m, dakle izvan dohvata panule. Najveca gustina hlorofila je na 98 m (sloj debljine 36 m) - tu se skuplja sitna riba koja se hrani planktonom, pa je i najveca vjerovatnoca da su grabljivice tu negdje."}, "bezbjednost": {"nivo": "crveno", "razlog": "vjetar 21 cv, udari 30 cv", "izlazak_preporucen": false}, "napomena": "Septembar i oktobar: prolaze male sabljarke od 5 do 8 kg, relativno ceste, obicno 500 m do 1 km od obale.", "razlog_praznog": null}, "features": [{"type": "Feature", "geometry": {"type": "Polygon", "coordinates": [[[19.14, 41.815], [19.1, 41.815], [19.085, 41.8], [19.085, 41.78], [19.11, 41.755], [19.14, 41.755], [19.145, 41.76], [19.145, 41.81], [19.14, 41.815]]]}, "properties": {"score_mean": 46.0, "score_max": 50.4, "area_km2": 29.6, "centroid": [19.1178, 41.7862], "razlog": "termalni front + povoljna dubina", "dubina_panule_m": 7.1, "sst_raspon_C": 0.7, "sst_promjena_3d_C": 0.6, "upwelling": 0.0, "hladnije_C": 0.0, "izgledi": "dobri"}}, {"type": "Feature", "geometry": {"type": "Polygon", "coordinates": [[[19.1, 42.005], [19.07, 42.005], [19.055, 41.99], [19.055, 41.95], [19.06, 41.945], [19.09, 41.945], [19.105, 41.96], [19.105, 42.0], [19.1, 42.005]]]}, "properties": {"score_mean": 44.5, "score_max": 48.5, "area_km2": 25.8, "centroid": [19.08, 41.975], "razlog": "termalni front + povoljna dubina", "dubina_panule_m": 7.1, "sst_raspon_C": 0.7, "sst_promjena_3d_C": -0.0, "upwelling": 0.3, "hladnije_C": 0.2, "izgledi": "dobri"}}, {"type": "Feature", "geometry": {"type": "Polygon", "coordinates": [[[18.94, 42.025], [18.91, 42.025], [18.885, 42.01], [18.885, 41.99], [18.91, 41.965], [18.94, 41.965], [18.945, 41.97], [18.945, 42.02], [18.94, 42.025]]]}, "properties": {"score_mean": 37.9, "score_max": 42.7, "area_km2": 28.6, "centroid": [18.9184, 41.9955], "razlog": "povoljna dubina + prisustvo mamca", "dubina_panule_m": 10.6, "sst_raspon_C": 0.4, "sst_promjena_3d_C": 0.0, "upwelling": 0.2, "hladnije_C": 0.1, "izgledi": "osrednji"}}, {"type": "Feature", "geometry": {"type": "Polygon", "coordinates": [[[18.88, 42.165], [18.86, 42.165], [18.835, 42.14], [18.84, 42.115], [18.86, 42.115], [18.885, 42.14], [18.88, 42.165]]]}, "properties": {"score_mean": 33.3, "score_max": 39.4, "area_km2": 17.5, "centroid": [18.86, 42.14], "razlog": "povoljna dubina + termalni front", "dubina_panule_m": 9.6, "sst_raspon_C": 0.5, "sst_promjena_3d_C": -0.0, "upwelling": 0.0, "hladnije_C": 0.2, "izgledi": "osrednji"}}]}