{"type": "FeatureCollection", "properties": {"vrsta": "sabljarka", "naziv": "Sabljarka", "latinski": "Xiphias gladius", "datum": "2026-09-08", "profil": "jesenji, uz obalu", "panula": {"dubina_m": [0.0, 30.0], "brzina_kn": [1.5, 3.0], "sati": "posljednja tri sata dnevnog svjetla", "granica_dubine_m": 50.0}, "vertikala": {"termoklina_m": 17.8, "termoklina_C_po_m": 0.3, "dcm_m": 91.2, "dcm_odnos": 1.0, "dcm_debljina_m": 38.1, "mld_m": 11.9, "sloj_plijena_m": [59.6, 106.5], "dohvatljivost": 0.0, "objasnjenje": "Termoklina na 18 m. Sloj plijena lezi pretezno ispod 50 m, dakle izvan dohvata panule. Najveca gustina hlorofila je na 91 m (sloj debljine 38 m) - tu se skuplja sitna riba koja se hrani planktonom, pa je i najveca vjerovatnoca da su grabljivice tu negdje."}, "bezbjednost": {"nivo": "zuto", "razlog": "vjetar 13 cv", "izlazak_preporucen": true}, "napomena": "Septembar i oktobar: prolaze male sabljarke od 5 do 8 kg, relativno ceste, obicno 500 m do 1 km od obale.", "razlog_praznog": null}, "features": [{"type": "Feature", "geometry": {"type": "Polygon", "coordinates": [[[18.87, 42.225], [18.84, 42.225], [18.835, 42.22], [18.835, 42.19], [18.84, 42.185], [18.87, 42.185], [18.875, 42.19], [18.875, 42.22], [18.87, 42.225]]]}, "properties": {"score_mean": 25.0, "score_max": 29.8, "area_km2": 14.7, "centroid": [18.855, 42.205], "razlog": "termalni front + povoljna dubina", "dubina_panule_m": 30.0, "sst_raspon_C": 1.0, "sst_promjena_3d_C": 0.0, "upwelling": 0.0, "hladnije_C": 0.4, "izgledi": "osrednji"}}, {"type": "Feature", "geometry": {"type": "Polygon", "coordinates": [[[19.11, 41.955], [19.08, 41.955], [19.075, 41.95], [19.075, 41.9], [19.09, 41.885], [19.115, 41.89], [19.115, 41.95], [19.11, 41.955]]]}, "properties": {"score_mean": 24.8, "score_max": 29.6, "area_km2": 24.9, "centroid": [19.0956, 41.9211], "razlog": "termalni front + povoljna dubina", "dubina_panule_m": 7.1, "sst_raspon_C": 1.0, "sst_promjena_3d_C": 0.0, "upwelling": 0.4, "hladnije_C": 0.3, "izgledi": "slabi"}}, {"type": "Feature", "geometry": {"type": "Polygon", "coordinates": [[[18.9, 42.185], [18.875, 42.18], [18.875, 42.16], [18.89, 42.145], [18.915, 42.15], [18.915, 42.17], [18.9, 42.185]]]}, "properties": {"score_mean": 16.7, "score_max": 20.5, "area_km2": 12.9, "centroid": [18.895, 42.165], "razlog": "termalni front + povoljna dubina", "dubina_panule_m": 30.0, "sst_raspon_C": 1.0, "sst_promjena_3d_C": 0.0, "upwelling": 0.0, "hladnije_C": 0.1, "izgledi": "slabi"}}, {"type": "Feature", "geometry": {"type": "Polygon", "coordinates": [[[18.7, 42.315], [18.67, 42.315], [18.665, 42.31], [18.665, 42.28], [18.67, 42.275], [18.7, 42.275], [18.705, 42.28], [18.705, 42.31], [18.7, 42.315]]]}, "properties": {"score_mean": 15.6, "score_max": 23.9, "area_km2": 14.7, "centroid": [18.685, 42.295], "razlog": "termalni front + povoljna dubina", "dubina_panule_m": 7.1, "sst_raspon_C": 0.8, "sst_promjena_3d_C": 0.0, "upwelling": 0.0, "hladnije_C": -0.4, "izgledi": "slabi"}}, {"type": "Feature", "geometry": {"type": "Polygon", "coordinates": [[[18.74, 42.275], [18.71, 42.275], [18.705, 42.27], [18.705, 42.24], [18.71, 42.235], [18.74, 42.235], [18.745, 42.24], [18.745, 42.27], [18.74, 42.275]]]}, "properties": {"score_mean": 14.5, "score_max": 16.5, "area_km2": 14.7, "centroid": [18.725, 42.255], "razlog": "termalni front + povoljna dubina", "dubina_panule_m": 30.0, "sst_raspon_C": 0.5, "sst_promjena_3d_C": 0.0, "upwelling": 0.0, "hladnije_C": -0.3, "izgledi": "slabi"}}, {"type": "Feature", "geometry": {"type": "Polygon", "coordinates": [[[18.91, 42.005], [18.88, 42.005], [18.875, 42.0], [18.875, 41.98], [18.885, 41.97], [18.89, 41.945], [18.92, 41.945], [18.925, 41.95], [18.925, 41.99], [18.91, 42.005]]]}, "properties": {"score_mean": 3.2, "score_max": 4.8, "area_km2": 24.0, "centroid": [18.9015, 41.9758], "razlog": "povoljna dubina + zora/sumrak", "dubina_panule_m": 30.0, "sst_raspon_C": 0.2, "sst_promjena_3d_C": 0.0, "upwelling": 0.0, "hladnije_C": -0.0, "izgledi": "vrlo slabi"}}]}