{"type": "FeatureCollection", "properties": {"vrsta": "sabljarka", "naziv": "Sabljarka", "latinski": "Xiphias gladius", "datum": "2026-09-26", "profil": "jesenji, uz obalu", "panula": {"dubina_m": [0.0, 30.0], "brzina_kn": [1.5, 3.0], "sati": "posljednja tri sata dnevnog svjetla", "granica_dubine_m": 50.0}, "vertikala": {"termoklina_m": 24.5, "termoklina_C_po_m": 0.2, "dcm_m": 91.2, "dcm_odnos": 1.0, "dcm_debljina_m": 39.8, "mld_m": 15.6, "sloj_plijena_m": [64.8, 104.5], "dohvatljivost": 0.0, "objasnjenje": "Termoklina na 24 m. Sloj plijena lezi pretezno ispod 50 m, dakle izvan dohvata panule. Najveca gustina hlorofila je na 91 m (sloj debljine 40 m) - tu se skuplja sitna riba koja se hrani planktonom, pa je i najveca vjerovatnoca da su grabljivice tu negdje."}, "bezbjednost": {"nivo": "zeleno", "razlog": "uslovi povoljni", "izlazak_preporucen": true}, "napomena": "Septembar i oktobar: prolaze male sabljarke od 5 do 8 kg, relativno ceste, obicno 500 m do 1 km od obale.", "razlog_praznog": null}, "features": [{"type": "Feature", "geometry": {"type": "Polygon", "coordinates": [[[19.09, 41.955], [19.065, 41.95], [19.07, 41.925], [19.095, 41.93], [19.09, 41.955]]]}, "properties": {"score_mean": 50.6, "score_max": 52.8, "area_km2": 8.3, "centroid": [19.08, 41.94], "razlog": "termalni front + prisustvo mamca", "dubina_panule_m": 7.7, "sst_raspon_C": 0.6, "sst_promjena_3d_C": -0.9, "upwelling": 0.1, "hladnije_C": 0.0, "izgledi": "dobri"}}, {"type": "Feature", "geometry": {"type": "Polygon", "coordinates": [[[19.02, 42.075], [18.98, 42.075], [18.975, 42.05], [18.99, 42.035], [19.02, 42.035], [19.025, 42.04], [19.025, 42.07], [19.02, 42.075]]]}, "properties": {"score_mean": 49.0, "score_max": 51.2, "area_km2": 17.5, "centroid": [19.0011, 42.0558], "razlog": "termalni front + povoljna dubina", "dubina_panule_m": 8.1, "sst_raspon_C": 0.8, "sst_promjena_3d_C": -1.1, "upwelling": 0.3, "hladnije_C": 0.2, "izgledi": "dobri"}}, {"type": "Feature", "geometry": {"type": "Polygon", "coordinates": [[[18.945, 42.06], [18.92, 42.065], [18.895, 42.04], [18.895, 42.0], [18.92, 41.985], [18.945, 41.99], [18.945, 42.06]]]}, "properties": {"score_mean": 43.3, "score_max": 45.8, "area_km2": 32.2, "centroid": [18.9223, 42.0243], "razlog": "povoljna dubina + termalni front", "dubina_panule_m": 8.7, "sst_raspon_C": 0.5, "sst_promjena_3d_C": -0.9, "upwelling": 0.0, "hladnije_C": -0.1, "izgledi": "dobri"}}, {"type": "Feature", "geometry": {"type": "Polygon", "coordinates": [[[18.7, 42.315], [18.67, 42.315], [18.665, 42.31], [18.665, 42.28], [18.68, 42.265], [18.695, 42.26], [18.71, 42.225], [18.74, 42.225], [18.745, 42.23], [18.745, 42.27], [18.74, 42.275], [18.71, 42.275], [18.7, 42.315]]]}, "properties": {"score_mean": 39.2, "score_max": 72.6, "area_km2": 37.6, "centroid": [18.7056, 42.2693], "razlog": "povoljna dubina + termalni front", "dubina_panule_m": 7.1, "sst_raspon_C": 0.3, "sst_promjena_3d_C": -0.7, "upwelling": 0.2, "hladnije_C": 0.1, "izgledi": "osrednji"}}, {"type": "Feature", "geometry": {"type": "Polygon", "coordinates": [[[18.945, 41.91], [18.92, 41.915], [18.895, 41.9], [18.895, 41.88], [18.91, 41.865], [18.94, 41.865], [18.945, 41.87], [18.945, 41.91]]]}, "properties": {"score_mean": 1.7, "score_max": 1.8, "area_km2": 20.3, "centroid": [18.9223, 41.8891], "razlog": "povoljna dubina + zora/sumrak", "dubina_panule_m": 30.0, "sst_raspon_C": 0.2, "sst_promjena_3d_C": -0.9, "upwelling": 0.0, "hladnije_C": 0.0, "izgledi": "vrlo slabi"}}]}