{"type": "FeatureCollection", "properties": {"vrsta": "sabljarka", "naziv": "Sabljarka", "latinski": "Xiphias gladius", "datum": "2026-10-10", "profil": "jesenji, uz obalu", "panula": {"dubina_m": [0.0, 30.0], "brzina_kn": [1.5, 3.0], "sati": "posljednja tri sata dnevnog svjetla", "granica_dubine_m": 50.0}, "vertikala": {"termoklina_m": 31.8, "termoklina_C_po_m": 0.1, "dcm_m": 84.7, "dcm_odnos": 1.0, "dcm_debljina_m": 44.5, "mld_m": 21.8, "sloj_plijena_m": [47.0, 98.3], "dohvatljivost": 0.1, "objasnjenje": "Termoklina na 32 m. Sloj plijena lezi pretezno ispod 50 m, dakle izvan dohvata panule. Najveca gustina hlorofila je na 85 m (sloj debljine 44 m) - tu se skuplja sitna riba koja se hrani planktonom, pa je i najveca vjerovatnoca da su grabljivice tu negdje."}, "bezbjednost": {"nivo": "crveno", "razlog": "talasi do 1.1 m, vjetar 15 cv, udari 22 cv", "izlazak_preporucen": false}, "napomena": "Septembar i oktobar: prolaze male sabljarke od 5 do 8 kg, relativno ceste, obicno 500 m do 1 km od obale.", "razlog_praznog": null}, "features": [{"type": "Feature", "geometry": {"type": "Polygon", "coordinates": [[[19.04, 41.985], [19.02, 41.985], [19.015, 41.96], [19.03, 41.945], [19.06, 41.945], [19.065, 41.97], [19.04, 41.985]]]}, "properties": {"score_mean": 37.0, "score_max": 43.1, "area_km2": 15.7, "centroid": [19.0394, 41.9641], "razlog": "termalni front + povoljna dubina", "dubina_panule_m": 9.4, "sst_raspon_C": 0.6, "sst_promjena_3d_C": -0.3, "upwelling": 0.3, "hladnije_C": 0.1, "izgledi": "osrednji"}}, {"type": "Feature", "geometry": {"type": "Polygon", "coordinates": [[[18.65, 42.335], [18.62, 42.335], [18.615, 42.31], [18.62, 42.305], [18.65, 42.305], [18.655, 42.31], [18.65, 42.335]]]}, "properties": {"score_mean": 30.5, "score_max": 33.4, "area_km2": 11.0, "centroid": [18.635, 42.32], "razlog": "termalni front + povoljna dubina", "dubina_panule_m": 11.5, "sst_raspon_C": 0.5, "sst_promjena_3d_C": -0.1, "upwelling": 0.0, "hladnije_C": -0.1, "izgledi": "osrednji"}}, {"type": "Feature", "geometry": {"type": "Polygon", "coordinates": [[[18.6, 42.345], [18.57, 42.345], [18.565, 42.32], [18.57, 42.315], [18.6, 42.315], [18.605, 42.32], [18.6, 42.345]]]}, "properties": {"score_mean": 29.7, "score_max": 33.5, "area_km2": 11.0, "centroid": [18.585, 42.33], "razlog": "termalni front + povoljna dubina", "dubina_panule_m": 12.3, "sst_raspon_C": 0.6, "sst_promjena_3d_C": -0.1, "upwelling": 0.0, "hladnije_C": -0.0, "izgledi": "osrednji"}}, {"type": "Feature", "geometry": {"type": "Polygon", "coordinates": [[[18.93, 42.095], [18.9, 42.095], [18.895, 42.09], [18.895, 42.06], [18.92, 42.025], [18.945, 42.03], [18.945, 42.08], [18.93, 42.095]]]}, "properties": {"score_mean": 28.3, "score_max": 33.8, "area_km2": 27.6, "centroid": [18.9217, 42.062], "razlog": "povoljna dubina + termalni front", "dubina_panule_m": 10.4, "sst_raspon_C": 0.3, "sst_promjena_3d_C": 0.3, "upwelling": 0.0, "hladnije_C": -0.0, "izgledi": "osrednji"}}, {"type": "Feature", "geometry": {"type": "Polygon", "coordinates": [[[18.84, 42.195], [18.815, 42.19], [18.815, 42.16], [18.82, 42.155], [18.845, 42.16], [18.845, 42.19], [18.84, 42.195]]]}, "properties": {"score_mean": 27.6, "score_max": 31.9, "area_km2": 11.0, "centroid": [18.83, 42.175], "razlog": "termalni front + povoljna dubina", "dubina_panule_m": 11.0, "sst_raspon_C": 0.8, "sst_promjena_3d_C": 0.2, "upwelling": 0.0, "hladnije_C": -0.1, "izgledi": "osrednji"}}]}