{"type": "FeatureCollection", "properties": {"vrsta": "sabljarka", "naziv": "Sabljarka", "latinski": "Xiphias gladius", "datum": "2026-10-03", "profil": "jesenji, uz obalu", "panula": {"dubina_m": [0.0, 30.0], "brzina_kn": [1.5, 3.0], "sati": "posljednja tri sata dnevnog svjetla", "granica_dubine_m": 50.0}, "vertikala": {"termoklina_m": 35.8, "termoklina_C_po_m": 0.1, "dcm_m": 97.9, "dcm_odnos": 1.0, "dcm_debljina_m": 41.6, "mld_m": 26.6, "sloj_plijena_m": [67.4, 112.8], "dohvatljivost": 0.0, "objasnjenje": "Termoklina na 36 m. Sloj plijena lezi pretezno ispod 50 m, dakle izvan dohvata panule. Najveca gustina hlorofila je na 98 m (sloj debljine 42 m) - tu se skuplja sitna riba koja se hrani planktonom, pa je i najveca vjerovatnoca da su grabljivice tu negdje."}, "bezbjednost": {"nivo": "zuto", "razlog": "talasi do 1.3 m", "izlazak_preporucen": true}, "napomena": "Septembar i oktobar: prolaze male sabljarke od 5 do 8 kg, relativno ceste, obicno 500 m do 1 km od obale.", "razlog_praznog": null}, "features": [{"type": "Feature", "geometry": {"type": "Polygon", "coordinates": [[[19.02, 42.095], [18.995, 42.09], [19.0, 42.065], [19.025, 42.07], [19.02, 42.095]]]}, "properties": {"score_mean": 42.0, "score_max": 44.2, "area_km2": 8.3, "centroid": [19.01, 42.08], "razlog": "termalni front + povoljna dubina", "dubina_panule_m": 12.7, "sst_raspon_C": 0.8, "sst_promjena_3d_C": 0.0, "upwelling": 0.3, "hladnije_C": 0.1, "izgledi": "dobri"}}, {"type": "Feature", "geometry": {"type": "Polygon", "coordinates": [[[18.7, 42.315], [18.67, 42.315], [18.665, 42.31], [18.665, 42.28], [18.68, 42.265], [18.695, 42.26], [18.695, 42.24], [18.71, 42.225], [18.74, 42.225], [18.745, 42.23], [18.745, 42.27], [18.74, 42.275], [18.71, 42.275], [18.7, 42.315]]]}, "properties": {"score_mean": 33.8, "score_max": 46.0, "area_km2": 38.5, "centroid": [18.7055, 42.2686], "razlog": "termalni front + povoljna dubina", "dubina_panule_m": 12.4, "sst_raspon_C": 0.7, "sst_promjena_3d_C": 0.0, "upwelling": 0.0, "hladnije_C": -0.1, "izgledi": "osrednji"}}, {"type": "Feature", "geometry": {"type": "Polygon", "coordinates": [[[18.87, 42.225], [18.84, 42.225], [18.835, 42.22], [18.835, 42.19], [18.85, 42.175], [18.875, 42.17], [18.875, 42.15], [18.89, 42.135], [18.905, 42.13], [18.905, 42.12], [18.92, 42.105], [18.94, 42.105], [18.945, 42.11], [18.945, 42.14], [18.915, 42.15], [18.915, 42.18], [18.91, 42.185], [18.88, 42.185], [18.875, 42.19], [18.875, 42.22], [18.87, 42.225]]]}, "properties": {"score_mean": 31.4, "score_max": 41.4, "area_km2": 47.8, "centroid": [18.8896, 42.166], "razlog": "termalni front + povoljna dubina", "dubina_panule_m": 12.5, "sst_raspon_C": 1.2, "sst_promjena_3d_C": 0.0, "upwelling": 0.0, "hladnije_C": 0.0, "izgledi": "osrednji"}}, {"type": "Feature", "geometry": {"type": "Polygon", "coordinates": [[[18.77, 41.925], [18.745, 41.92], [18.745, 41.9], [18.77, 41.875], [18.78, 41.875], [18.8, 41.855], [18.81, 41.855], [18.85, 41.815], [18.89, 41.815], [18.895, 41.82], [18.895, 41.84], [18.88, 41.855], [18.83, 41.875], [18.79, 41.915], [18.78, 41.915], [18.77, 41.925]]]}, "properties": {"score_mean": 1.7, "score_max": 1.8, "area_km2": 59.1, "centroid": [18.8198, 41.8669], "razlog": "termalni front + povoljna dubina", "dubina_panule_m": 30.0, "sst_raspon_C": 0.8, "sst_promjena_3d_C": 0.0, "upwelling": 0.0, "hladnije_C": -0.2, "izgledi": "vrlo slabi"}}, {"type": "Feature", "geometry": {"type": "Polygon", "coordinates": [[[18.94, 42.005], [18.915, 42.0], [18.915, 41.94], [18.92, 41.935], [18.945, 41.94], [18.945, 42.0], [18.94, 42.005]]]}, "properties": {"score_mean": 1.5, "score_max": 1.9, "area_km2": 19.3, "centroid": [18.93, 41.97], "razlog": "termalni front + povoljna dubina", "dubina_panule_m": 30.0, "sst_raspon_C": 0.9, "sst_promjena_3d_C": 0.0, "upwelling": 0.0, "hladnije_C": -0.3, "izgledi": "vrlo slabi"}}]}