{"type": "FeatureCollection", "properties": {"vrsta": "sabljarka", "naziv": "Sabljarka", "latinski": "Xiphias gladius", "datum": "2026-10-11", "profil": "jesenji, uz obalu", "panula": {"dubina_m": [0.0, 30.0], "brzina_kn": [1.5, 3.0], "sati": "posljednja tri sata dnevnog svjetla", "granica_dubine_m": 50.0}, "vertikala": {"termoklina_m": 35.8, "termoklina_C_po_m": 0.1, "dcm_m": 78.6, "dcm_odnos": 1.0, "dcm_debljina_m": 44.5, "mld_m": 23.0, "sloj_plijena_m": [45.6, 92.1], "dohvatljivost": 0.1, "objasnjenje": "Termoklina na 36 m. Sloj plijena lezi pretezno ispod 50 m, dakle izvan dohvata panule. Najveca gustina hlorofila je na 79 m (sloj debljine 44 m) - tu se skuplja sitna riba koja se hrani planktonom, pa je i najveca vjerovatnoca da su grabljivice tu negdje."}, "bezbjednost": {"nivo": "crveno", "razlog": "talasi do 1.8 m, vjetar 18 cv, udari 24 cv", "izlazak_preporucen": false}, "napomena": "Septembar i oktobar: prolaze male sabljarke od 5 do 8 kg, relativno ceste, obicno 500 m do 1 km od obale.", "razlog_praznog": null}, "features": [{"type": "Feature", "geometry": {"type": "Polygon", "coordinates": [[[18.94, 42.095], [18.915, 42.09], [18.92, 42.065], [18.945, 42.07], [18.94, 42.095]]]}, "properties": {"score_mean": 27.6, "score_max": 30.4, "area_km2": 8.3, "centroid": [18.93, 42.08], "razlog": "povoljna dubina + termalni front", "dubina_panule_m": 15.4, "sst_raspon_C": 0.3, "sst_promjena_3d_C": 0.0, "upwelling": 0.0, "hladnije_C": -0.0, "izgledi": "osrednji"}}, {"type": "Feature", "geometry": {"type": "Polygon", "coordinates": [[[18.73, 42.265], [18.705, 42.26], [18.71, 42.235], [18.735, 42.24], [18.73, 42.265]]]}, "properties": {"score_mean": 27.2, "score_max": 29.7, "area_km2": 8.3, "centroid": [18.72, 42.25], "razlog": "termalni front + povoljna dubina", "dubina_panule_m": 9.4, "sst_raspon_C": 0.6, "sst_promjena_3d_C": -0.2, "upwelling": 0.0, "hladnije_C": -0.1, "izgledi": "osrednji"}}, {"type": "Feature", "geometry": {"type": "Polygon", "coordinates": [[[18.85, 42.205], [18.825, 42.2], [18.835, 42.15], [18.87, 42.115], [18.89, 42.115], [18.895, 42.12], [18.895, 42.15], [18.855, 42.18], [18.85, 42.205]]]}, "properties": {"score_mean": 25.6, "score_max": 29.6, "area_km2": 32.2, "centroid": [18.8597, 42.1571], "razlog": "povoljna dubina + termalni front", "dubina_panule_m": 13.7, "sst_raspon_C": 0.4, "sst_promjena_3d_C": 0.1, "upwelling": 0.0, "hladnije_C": -0.0, "izgledi": "osrednji"}}]}