{"type": "FeatureCollection", "properties": {"vrsta": "sabljarka", "naziv": "Sabljarka", "latinski": "Xiphias gladius", "datum": "2026-08-31", "profil": "duboko, izvan selfa", "panula": {"dubina_m": [15.0, 50.0], "brzina_kn": [1.5, 3.0], "sati": "posljednja tri sata dnevnog svjetla", "granica_dubine_m": 50.0}, "vertikala": {"termoklina_m": 11.9, "termoklina_C_po_m": 0.3, "dcm_m": 91.2, "dcm_odnos": 1.0, "dcm_debljina_m": 33.7, "mld_m": 11.9, "sloj_plijena_m": [67.4, 100.5], "dohvatljivost": 0.0, "objasnjenje": "Termoklina na 12 m. Sloj plijena lezi pretezno ispod 50 m, dakle izvan dohvata panule. Najveca gustina hlorofila je na 91 m (sloj debljine 34 m) - tu se skuplja sitna riba koja se hrani planktonom, pa je i najveca vjerovatnoca da su grabljivice tu negdje."}, "bezbjednost": {"nivo": "zuto", "razlog": "vjetar 14 cv", "izlazak_preporucen": true}, "napomena": "Ne lovi se nocu - osim povrsinskim parangalima daleko od obale. Preko dana bez cvrstog pravila, najcesce pred kraj dana.", "razlog_praznog": null}, "features": [{"type": "Feature", "geometry": {"type": "Polygon", "coordinates": [[[19.28, 41.845], [19.255, 41.84], [19.26, 41.815], [19.285, 41.82], [19.28, 41.845]]]}, "properties": {"score_mean": 34.7, "score_max": 37.1, "area_km2": 8.3, "centroid": [19.27, 41.83], "razlog": "termoklina u dohvatu + prisustvo mamca", "dubina_panule_m": 15.0, "sst_raspon_C": 0.8, "sst_promjena_3d_C": 1.1, "upwelling": 0.1, "hladnije_C": 0.0, "izgledi": "osrednji"}}, {"type": "Feature", "geometry": {"type": "Polygon", "coordinates": [[[19.21, 41.885], [19.18, 41.885], [19.175, 41.86], [19.21, 41.835], [19.23, 41.835], [19.235, 41.84], [19.235, 41.87], [19.21, 41.885]]]}, "properties": {"score_mean": 33.5, "score_max": 43.1, "area_km2": 22.2, "centroid": [19.2063, 41.8612], "razlog": "termoklina u dohvatu + prisustvo mamca", "dubina_panule_m": 15.0, "sst_raspon_C": 0.9, "sst_promjena_3d_C": 0.5, "upwelling": 0.4, "hladnije_C": 0.3, "izgledi": "osrednji"}}, {"type": "Feature", "geometry": {"type": "Polygon", "coordinates": [[[18.94, 42.145], [18.915, 42.14], [18.92, 42.115], [18.945, 42.12], [18.94, 42.145]]]}, "properties": {"score_mean": 32.5, "score_max": 33.7, "area_km2": 8.3, "centroid": [18.93, 42.13], "razlog": "termoklina u dohvatu + gradijent hlorofila", "dubina_panule_m": 46.7, "sst_raspon_C": 0.8, "sst_promjena_3d_C": 1.3, "upwelling": 0.1, "hladnije_C": 0.0, "izgledi": "osrednji"}}, {"type": "Feature", "geometry": {"type": "Polygon", "coordinates": [[[19.09, 42.005], [19.07, 42.005], [19.065, 41.98], [19.075, 41.97], [19.075, 41.95], [19.085, 41.94], [19.085, 41.93], [19.11, 41.925], [19.115, 41.95], [19.095, 41.98], [19.09, 42.005]]]}, "properties": {"score_mean": 29.8, "score_max": 41.1, "area_km2": 23.0, "centroid": [19.0896, 41.9644], "razlog": "termoklina u dohvatu + prisustvo mamca", "dubina_panule_m": 15.0, "sst_raspon_C": 0.5, "sst_promjena_3d_C": 0.9, "upwelling": 0.2, "hladnije_C": 0.1, "izgledi": "osrednji"}}, {"type": "Feature", "geometry": {"type": "Polygon", "coordinates": [[[18.67, 42.305], [18.64, 42.305], [18.635, 42.3], [18.635, 42.28], [18.645, 42.27], [18.645, 42.26], [18.67, 42.245], [18.675, 42.23], [18.7, 42.205], [18.74, 42.205], [18.745, 42.21], [18.745, 42.25], [18.73, 42.255], [18.67, 42.305]]]}, "properties": {"score_mean": 8.0, "score_max": 27.0, "area_km2": 58.7, "centroid": [18.6925, 42.2537], "razlog": "termoklina u dohvatu + zora/sumrak", "dubina_panule_m": 50.0, "sst_raspon_C": 0.6, "sst_promjena_3d_C": 1.3, "upwelling": 0.0, "hladnije_C": -0.2, "izgledi": "vrlo slabi"}}, {"type": "Feature", "geometry": {"type": "Polygon", "coordinates": [[[18.78, 41.705], [18.75, 41.705], [18.745, 41.68], [18.76, 41.675], [18.78, 41.655], [18.81, 41.645], [18.83, 41.625], [18.85, 41.625], [18.855, 41.65], [18.83, 41.675], [18.82, 41.675], [18.78, 41.705]]]}, "properties": {"score_mean": 1.7, "score_max": 2.6, "area_km2": 40.7, "centroid": [18.8011, 41.6673], "razlog": "kanjon + termoklina u dohvatu", "dubina_panule_m": 50.0, "sst_raspon_C": 0.2, "sst_promjena_3d_C": 0.7, "upwelling": 0.0, "hladnije_C": 0.1, "izgledi": "vrlo slabi"}}]}