{"type": "FeatureCollection", "properties": {"vrsta": "sabljarka", "naziv": "Sabljarka", "latinski": "Xiphias gladius", "datum": "2026-10-12", "profil": "jesenji, uz obalu", "panula": {"dubina_m": [0.0, 30.0], "brzina_kn": [1.5, 3.0], "sati": "posljednja tri sata dnevnog svjetla", "granica_dubine_m": 50.0}, "vertikala": {"termoklina_m": 40.0, "termoklina_C_po_m": 0.1, "dcm_m": 78.6, "dcm_odnos": 1.0, "dcm_debljina_m": 39.8, "mld_m": 23.9, "sloj_plijena_m": [45.6, 90.8], "dohvatljivost": 0.1, "objasnjenje": "Termoklina na 40 m. Sloj plijena lezi pretezno ispod 50 m, dakle izvan dohvata panule. Najveca gustina hlorofila je na 79 m (sloj debljine 40 m) - tu se skuplja sitna riba koja se hrani planktonom, pa je i najveca vjerovatnoca da su grabljivice tu negdje."}, "bezbjednost": {"nivo": "crveno", "razlog": "vjetar 18 cv, udari 24 cv", "izlazak_preporucen": false}, "napomena": "Septembar i oktobar: prolaze male sabljarke od 5 do 8 kg, relativno ceste, obicno 500 m do 1 km od obale.", "razlog_praznog": null}, "features": [{"type": "Feature", "geometry": {"type": "Polygon", "coordinates": [[[18.94, 42.065], [18.915, 42.06], [18.915, 42.04], [18.925, 42.03], [18.925, 42.02], [19.01, 41.945], [19.03, 41.945], [19.035, 41.97], [19.025, 41.98], [19.025, 42.03], [19.02, 42.035], [18.97, 42.035], [18.94, 42.065]]]}, "properties": {"score_mean": 32.9, "score_max": 39.3, "area_km2": 67.2, "centroid": [18.9799, 42.0074], "razlog": "povoljna dubina + termalni front", "dubina_panule_m": 18.6, "sst_raspon_C": 0.5, "sst_promjena_3d_C": 0.0, "upwelling": 0.0, "hladnije_C": 0.1, "izgledi": "osrednji"}}, {"type": "Feature", "geometry": {"type": "Polygon", "coordinates": [[[18.63, 41.825], [18.61, 41.825], [18.605, 41.8], [18.615, 41.79], [18.615, 41.78], [18.64, 41.755], [18.66, 41.755], [18.665, 41.78], [18.655, 41.79], [18.655, 41.8], [18.63, 41.825]]]}, "properties": {"score_mean": 4.7, "score_max": 7.3, "area_km2": 25.9, "centroid": [18.635, 41.79], "razlog": "povoljna dubina + termalni front", "dubina_panule_m": 30.0, "sst_raspon_C": 0.4, "sst_promjena_3d_C": 0.0, "upwelling": 0.0, "hladnije_C": -0.1, "izgledi": "vrlo slabi"}}]}