{"type": "FeatureCollection", "properties": {"vrsta": "sabljarka", "naziv": "Sabljarka", "latinski": "Xiphias gladius", "datum": "2026-09-13", "profil": "jesenji, uz obalu", "panula": {"dubina_m": [0.0, 30.0], "brzina_kn": [1.5, 3.0], "sati": "posljednja tri sata dnevnog svjetla", "granica_dubine_m": 50.0}, "vertikala": {"termoklina_m": 17.8, "termoklina_C_po_m": 0.2, "dcm_m": 97.9, "dcm_odnos": 1.0, "dcm_debljina_m": 41.6, "mld_m": 11.9, "sloj_plijena_m": [51.8, 99.4], "dohvatljivost": 0.0, "objasnjenje": "Termoklina na 18 m. Sloj plijena lezi pretezno ispod 50 m, dakle izvan dohvata panule. Najveca gustina hlorofila je na 98 m (sloj debljine 42 m) - tu se skuplja sitna riba koja se hrani planktonom, pa je i najveca vjerovatnoca da su grabljivice tu negdje."}, "bezbjednost": {"nivo": "crveno", "razlog": "vjetar 15 cv, udari 21 cv", "izlazak_preporucen": false}, "napomena": "Septembar i oktobar: prolaze male sabljarke od 5 do 8 kg, relativno ceste, obicno 500 m do 1 km od obale.", "razlog_praznog": null}, "features": [{"type": "Feature", "geometry": {"type": "Polygon", "coordinates": [[[19.1, 41.925], [19.08, 41.925], [19.055, 41.89], [19.055, 41.86], [19.065, 41.85], [19.07, 41.825], [19.095, 41.83], [19.095, 41.85], [19.115, 41.87], [19.115, 41.9], [19.1, 41.925]]]}, "properties": {"score_mean": 25.1, "score_max": 27.1, "area_km2": 40.6, "centroid": [19.0843, 41.8773], "razlog": "povoljna dubina + prisustvo mamca", "dubina_panule_m": 7.1, "sst_raspon_C": 0.5, "sst_promjena_3d_C": -0.0, "upwelling": 0.1, "hladnije_C": 0.1, "izgledi": "osrednji"}}, {"type": "Feature", "geometry": {"type": "Polygon", "coordinates": [[[18.945, 42.0], [18.92, 42.005], [18.91, 41.995], [18.9, 41.995], [18.89, 42.005], [18.86, 42.005], [18.855, 41.98], [18.9, 41.935], [18.91, 41.935], [18.92, 41.925], [18.94, 41.925], [18.945, 41.93], [18.945, 42.0]]]}, "properties": {"score_mean": 19.5, "score_max": 23.4, "area_km2": 49.8, "centroid": [18.907, 41.9704], "razlog": "povoljna dubina + prisustvo mamca", "dubina_panule_m": 8.1, "sst_raspon_C": 0.2, "sst_promjena_3d_C": -0.2, "upwelling": 0.3, "hladnije_C": 0.2, "izgledi": "slabi"}}, {"type": "Feature", "geometry": {"type": "Polygon", "coordinates": [[[18.7, 42.315], [18.65, 42.315], [18.645, 42.31], [18.645, 42.28], [18.685, 42.24], [18.685, 42.23], [18.7, 42.215], [18.74, 42.215], [18.745, 42.22], [18.745, 42.27], [18.74, 42.275], [18.71, 42.275], [18.7, 42.315]]]}, "properties": {"score_mean": 10.9, "score_max": 29.8, "area_km2": 59.6, "centroid": [18.6968, 42.2655], "razlog": "povoljna dubina + zora/sumrak", "dubina_panule_m": 30.0, "sst_raspon_C": 0.3, "sst_promjena_3d_C": -0.1, "upwelling": 0.1, "hladnije_C": 0.0, "izgledi": "vrlo slabi"}}]}