{"type": "FeatureCollection", "properties": {"vrsta": "sabljarka", "naziv": "Sabljarka", "latinski": "Xiphias gladius", "datum": "2026-10-07", "profil": "jesenji, uz obalu", "panula": {"dubina_m": [0.0, 30.0], "brzina_kn": [1.5, 3.0], "sati": "posljednja tri sata dnevnog svjetla", "granica_dubine_m": 50.0}, "vertikala": {"termoklina_m": 31.8, "termoklina_C_po_m": 0.1, "dcm_m": 91.2, "dcm_odnos": 1.0, "dcm_debljina_m": 42.6, "mld_m": 17.9, "sloj_plijena_m": [65.0, 104.9], "dohvatljivost": 0.0, "objasnjenje": "Termoklina na 32 m. Sloj plijena lezi pretezno ispod 50 m, dakle izvan dohvata panule. Najveca gustina hlorofila je na 91 m (sloj debljine 43 m) - tu se skuplja sitna riba koja se hrani planktonom, pa je i najveca vjerovatnoca da su grabljivice tu negdje."}, "bezbjednost": {"nivo": "zeleno", "razlog": "uslovi povoljni", "izlazak_preporucen": true}, "napomena": "Septembar i oktobar: prolaze male sabljarke od 5 do 8 kg, relativno ceste, obicno 500 m do 1 km od obale.", "razlog_praznog": null}, "features": [{"type": "Feature", "geometry": {"type": "Polygon", "coordinates": [[[19.01, 42.085], [18.96, 42.085], [18.955, 42.08], [18.955, 42.05], [18.96, 42.045], [19.01, 42.045], [19.015, 42.05], [19.015, 42.08], [19.01, 42.085]]]}, "properties": {"score_mean": 34.7, "score_max": 38.7, "area_km2": 22.1, "centroid": [18.985, 42.065], "razlog": "termalni front + povoljna dubina", "dubina_panule_m": 10.6, "sst_raspon_C": 0.7, "sst_promjena_3d_C": 0.0, "upwelling": 0.0, "hladnije_C": -0.2, "izgledi": "osrednji"}}, {"type": "Feature", "geometry": {"type": "Polygon", "coordinates": [[[18.87, 42.225], [18.8, 42.225], [18.795, 42.2], [18.82, 42.195], [18.85, 42.175], [18.86, 42.175], [18.865, 42.16], [18.89, 42.135], [18.905, 42.13], [18.92, 42.095], [18.94, 42.095], [18.945, 42.1], [18.945, 42.14], [18.915, 42.15], [18.915, 42.18], [18.91, 42.185], [18.88, 42.185], [18.875, 42.19], [18.875, 42.22], [18.87, 42.225]]]}, "properties": {"score_mean": 30.4, "score_max": 42.8, "area_km2": 64.3, "centroid": [18.8771, 42.171], "razlog": "termalni front + povoljna dubina", "dubina_panule_m": 11.9, "sst_raspon_C": 0.9, "sst_promjena_3d_C": 0.0, "upwelling": 0.0, "hladnije_C": 0.1, "izgledi": "osrednji"}}, {"type": "Feature", "geometry": {"type": "Polygon", "coordinates": [[[18.74, 42.275], [18.71, 42.275], [18.705, 42.27], [18.705, 42.24], [18.71, 42.235], [18.74, 42.235], [18.745, 42.24], [18.745, 42.27], [18.74, 42.275]]]}, "properties": {"score_mean": 30.4, "score_max": 34.6, "area_km2": 14.7, "centroid": [18.725, 42.255], "razlog": "povoljna dubina + termalni front", "dubina_panule_m": 9.9, "sst_raspon_C": 0.4, "sst_promjena_3d_C": 0.0, "upwelling": 0.0, "hladnije_C": -0.1, "izgledi": "osrednji"}}, {"type": "Feature", "geometry": {"type": "Polygon", "coordinates": [[[18.66, 42.345], [18.63, 42.345], [18.625, 42.32], [18.63, 42.315], [18.66, 42.315], [18.665, 42.32], [18.66, 42.345]]]}, "properties": {"score_mean": 28.8, "score_max": 32.6, "area_km2": 11.0, "centroid": [18.645, 42.33], "razlog": "povoljna dubina + termalni front", "dubina_panule_m": 10.2, "sst_raspon_C": 0.4, "sst_promjena_3d_C": 0.0, "upwelling": 0.0, "hladnije_C": 0.0, "izgledi": "osrednji"}}, {"type": "Feature", "geometry": {"type": "Polygon", "coordinates": [[[18.87, 41.645], [18.845, 41.64], [18.845, 41.62], [18.86, 41.605], [18.885, 41.61], [18.885, 41.63], [18.87, 41.645]]]}, "properties": {"score_mean": 2.8, "score_max": 4.4, "area_km2": 13.0, "centroid": [18.865, 41.625], "razlog": "termalni front + povoljna dubina", "dubina_panule_m": 30.0, "sst_raspon_C": 1.1, "sst_promjena_3d_C": 0.0, "upwelling": 0.0, "hladnije_C": 0.4, "izgledi": "vrlo slabi"}}]}