{"type": "FeatureCollection", "properties": {"vrsta": "sabljarka", "naziv": "Sabljarka", "latinski": "Xiphias gladius", "datum": "2026-10-05", "profil": "jesenji, uz obalu", "panula": {"dubina_m": [0.0, 30.0], "brzina_kn": [1.5, 3.0], "sati": "posljednja tri sata dnevnog svjetla", "granica_dubine_m": 50.0}, "vertikala": {"termoklina_m": 40.0, "termoklina_C_po_m": 0.1, "dcm_m": 97.9, "dcm_odnos": 1.0, "dcm_debljina_m": 39.8, "mld_m": 16.4, "sloj_plijena_m": [69.2, 109.0], "dohvatljivost": 0.0, "objasnjenje": "Termoklina na 40 m. Sloj plijena lezi pretezno ispod 50 m, dakle izvan dohvata panule. Najveca gustina hlorofila je na 98 m (sloj debljine 40 m) - tu se skuplja sitna riba koja se hrani planktonom, pa je i najveca vjerovatnoca da su grabljivice tu negdje."}, "bezbjednost": {"nivo": "zuto", "razlog": "vjetar 12 cv", "izlazak_preporucen": true}, "napomena": "Septembar i oktobar: prolaze male sabljarke od 5 do 8 kg, relativno ceste, obicno 500 m do 1 km od obale.", "razlog_praznog": null}, "features": [{"type": "Feature", "geometry": {"type": "Polygon", "coordinates": [[[18.94, 42.145], [18.915, 42.14], [18.92, 42.115], [18.945, 42.12], [18.94, 42.145]]]}, "properties": {"score_mean": 42.6, "score_max": 44.4, "area_km2": 8.3, "centroid": [18.93, 42.13], "razlog": "termalni front + povoljna dubina", "dubina_panule_m": 10.4, "sst_raspon_C": 1.1, "sst_promjena_3d_C": 0.0, "upwelling": 0.0, "hladnije_C": 0.0, "izgledi": "dobri"}}, {"type": "Feature", "geometry": {"type": "Polygon", "coordinates": [[[18.91, 42.175], [18.885, 42.17], [18.89, 42.145], [18.915, 42.15], [18.91, 42.175]]]}, "properties": {"score_mean": 42.3, "score_max": 44.2, "area_km2": 8.3, "centroid": [18.9, 42.16], "razlog": "termalni front + povoljna dubina", "dubina_panule_m": 11.0, "sst_raspon_C": 1.1, "sst_promjena_3d_C": 0.0, "upwelling": 0.0, "hladnije_C": -0.1, "izgledi": "dobri"}}, {"type": "Feature", "geometry": {"type": "Polygon", "coordinates": [[[18.73, 42.265], [18.705, 42.26], [18.71, 42.235], [18.735, 42.24], [18.73, 42.265]]]}, "properties": {"score_mean": 37.8, "score_max": 38.9, "area_km2": 8.3, "centroid": [18.72, 42.25], "razlog": "termalni front + povoljna dubina", "dubina_panule_m": 9.6, "sst_raspon_C": 0.6, "sst_promjena_3d_C": 0.0, "upwelling": 0.0, "hladnije_C": 0.3, "izgledi": "osrednji"}}, {"type": "Feature", "geometry": {"type": "Polygon", "coordinates": [[[18.945, 41.97], [18.92, 41.975], [18.905, 41.96], [18.905, 41.94], [18.92, 41.925], [18.945, 41.93], [18.945, 41.97]]]}, "properties": {"score_mean": 14.4, "score_max": 25.3, "area_km2": 16.6, "centroid": [18.9267, 41.95], "razlog": "povoljna dubina + termalni front", "dubina_panule_m": 11.9, "sst_raspon_C": 0.3, "sst_promjena_3d_C": 0.0, "upwelling": 0.0, "hladnije_C": 0.2, "izgledi": "slabi"}}]}