{"type": "FeatureCollection", "properties": {"vrsta": "sabljarka", "naziv": "Sabljarka", "latinski": "Xiphias gladius", "datum": "2026-09-21", "profil": "jesenji, uz obalu", "panula": {"dubina_m": [0.0, 30.0], "brzina_kn": [1.5, 3.0], "sati": "posljednja tri sata dnevnog svjetla", "granica_dubine_m": 50.0}, "vertikala": {"termoklina_m": 21.1, "termoklina_C_po_m": 0.2, "dcm_m": 97.9, "dcm_odnos": 1.0, "dcm_debljina_m": 39.6, "mld_m": 12.2, "sloj_plijena_m": [58.8, 106.5], "dohvatljivost": 0.0, "objasnjenje": "Termoklina na 21 m. Sloj plijena lezi pretezno ispod 50 m, dakle izvan dohvata panule. Najveca gustina hlorofila je na 98 m (sloj debljine 40 m) - tu se skuplja sitna riba koja se hrani planktonom, pa je i najveca vjerovatnoca da su grabljivice tu negdje."}, "bezbjednost": {"nivo": "crveno", "razlog": "vjetar 23 cv, udari 33 cv", "izlazak_preporucen": false}, "napomena": "Septembar i oktobar: prolaze male sabljarke od 5 do 8 kg, relativno ceste, obicno 500 m do 1 km od obale.", "razlog_praznog": null}, "features": [{"type": "Feature", "geometry": {"type": "Polygon", "coordinates": [[[18.95, 42.015], [18.92, 42.015], [18.905, 42.0], [18.905, 41.97], [18.91, 41.965], [18.98, 41.965], [18.99, 41.955], [19.04, 41.955], [19.045, 41.96], [19.04, 41.985], [19.01, 41.985], [18.98, 42.005], [18.96, 42.005], [18.95, 42.015]]]}, "properties": {"score_mean": 46.4, "score_max": 48.7, "area_km2": 51.6, "centroid": [18.9686, 41.9821], "razlog": "termalni front + povoljna dubina", "dubina_panule_m": 7.3, "sst_raspon_C": 0.8, "sst_promjena_3d_C": -0.4, "upwelling": 0.1, "hladnije_C": 0.1, "izgledi": "dobri"}}]}