{"type": "FeatureCollection", "properties": {"vrsta": "sabljarka", "naziv": "Sabljarka", "latinski": "Xiphias gladius", "datum": "2026-09-22", "profil": "jesenji, uz obalu", "panula": {"dubina_m": [0.0, 30.0], "brzina_kn": [1.5, 3.0], "sati": "posljednja tri sata dnevnog svjetla", "granica_dubine_m": 50.0}, "vertikala": {"termoklina_m": 24.5, "termoklina_C_po_m": 0.2, "dcm_m": 97.9, "dcm_odnos": 1.0, "dcm_debljina_m": 39.8, "mld_m": 14.8, "sloj_plijena_m": [58.4, 108.5], "dohvatljivost": 0.0, "objasnjenje": "Termoklina na 24 m. Sloj plijena lezi pretezno ispod 50 m, dakle izvan dohvata panule. Najveca gustina hlorofila je na 98 m (sloj debljine 40 m) - tu se skuplja sitna riba koja se hrani planktonom, pa je i najveca vjerovatnoca da su grabljivice tu negdje."}, "bezbjednost": {"nivo": "crveno", "razlog": "talasi do 1.4 m, vjetar 23 cv, udari 31 cv", "izlazak_preporucen": false}, "napomena": "Septembar i oktobar: prolaze male sabljarke od 5 do 8 kg, relativno ceste, obicno 500 m do 1 km od obale.", "razlog_praznog": null}, "features": [{"type": "Feature", "geometry": {"type": "Polygon", "coordinates": [[[19.1, 41.965], [19.07, 41.965], [19.045, 41.94], [19.045, 41.9], [19.07, 41.875], [19.09, 41.875], [19.095, 41.9], [19.105, 41.91], [19.105, 41.96], [19.1, 41.965]]]}, "properties": {"score_mean": 46.7, "score_max": 50.8, "area_km2": 41.5, "centroid": [19.0762, 41.922], "razlog": "termalni front + povoljna dubina", "dubina_panule_m": 7.7, "sst_raspon_C": 0.8, "sst_promjena_3d_C": -0.4, "upwelling": 0.0, "hladnije_C": 0.3, "izgledi": "dobri"}}, {"type": "Feature", "geometry": {"type": "Polygon", "coordinates": [[[18.81, 42.105], [18.785, 42.1], [18.785, 42.07], [18.79, 42.065], [18.815, 42.07], [18.815, 42.1], [18.81, 42.105]]]}, "properties": {"score_mean": 43.2, "score_max": 45.1, "area_km2": 11.0, "centroid": [18.8, 42.085], "razlog": "termalni front + povoljna dubina", "dubina_panule_m": 12.8, "sst_raspon_C": 0.5, "sst_promjena_3d_C": -0.3, "upwelling": 0.2, "hladnije_C": 0.1, "izgledi": "dobri"}}, {"type": "Feature", "geometry": {"type": "Polygon", "coordinates": [[[18.92, 42.125], [18.895, 42.12], [18.895, 42.06], [18.91, 42.045], [18.94, 42.045], [18.945, 42.05], [18.945, 42.09], [18.92, 42.125]]]}, "properties": {"score_mean": 38.6, "score_max": 41.0, "area_km2": 32.2, "centroid": [18.9186, 42.0829], "razlog": "povoljna dubina + prisustvo mamca", "dubina_panule_m": 10.2, "sst_raspon_C": 0.3, "sst_promjena_3d_C": -0.3, "upwelling": 0.1, "hladnije_C": 0.1, "izgledi": "osrednji"}}]}