{"type": "FeatureCollection", "properties": {"vrsta": "sabljarka", "naziv": "Sabljarka", "latinski": "Xiphias gladius", "datum": "2026-09-12", "profil": "jesenji, uz obalu", "panula": {"dubina_m": [0.0, 30.0], "brzina_kn": [1.5, 3.0], "sati": "posljednja tri sata dnevnog svjetla", "granica_dubine_m": 50.0}, "vertikala": {"termoklina_m": 17.8, "termoklina_C_po_m": 0.2, "dcm_m": 97.9, "dcm_odnos": 1.0, "dcm_debljina_m": 43.4, "mld_m": 11.9, "sloj_plijena_m": [51.0, 101.8], "dohvatljivost": 0.0, "objasnjenje": "Termoklina na 18 m. Sloj plijena lezi pretezno ispod 50 m, dakle izvan dohvata panule. Najveca gustina hlorofila je na 98 m (sloj debljine 43 m) - tu se skuplja sitna riba koja se hrani planktonom, pa je i najveca vjerovatnoca da su grabljivice tu negdje."}, "bezbjednost": {"nivo": "zuto", "razlog": "vjetar 15 cv", "izlazak_preporucen": true}, "napomena": "Septembar i oktobar: prolaze male sabljarke od 5 do 8 kg, relativno ceste, obicno 500 m do 1 km od obale.", "razlog_praznog": null}, "features": [{"type": "Feature", "geometry": {"type": "Polygon", "coordinates": [[[19.1, 41.855], [19.075, 41.85], [19.075, 41.83], [19.09, 41.815], [19.115, 41.82], [19.115, 41.84], [19.1, 41.855]]]}, "properties": {"score_mean": 36.4, "score_max": 38.7, "area_km2": 12.9, "centroid": [19.095, 41.835], "razlog": "termalni front + povoljna dubina", "dubina_panule_m": 7.1, "sst_raspon_C": 1.1, "sst_promjena_3d_C": -0.6, "upwelling": 0.6, "hladnije_C": 0.6, "izgledi": "osrednji"}}, {"type": "Feature", "geometry": {"type": "Polygon", "coordinates": [[[18.94, 41.995], [18.86, 41.995], [18.855, 41.99], [18.855, 41.96], [18.87, 41.945], [18.88, 41.945], [18.91, 41.925], [18.94, 41.925], [18.945, 41.93], [18.945, 41.99], [18.94, 41.995]]]}, "properties": {"score_mean": 23.8, "score_max": 29.7, "area_km2": 49.8, "centroid": [18.9043, 41.9641], "razlog": "termalni front + povoljna dubina", "dubina_panule_m": 7.5, "sst_raspon_C": 0.5, "sst_promjena_3d_C": 0.1, "upwelling": 0.4, "hladnije_C": 0.3, "izgledi": "slabi"}}, {"type": "Feature", "geometry": {"type": "Polygon", "coordinates": [[[18.7, 42.315], [18.65, 42.315], [18.645, 42.29], [18.655, 42.28], [18.655, 42.27], [18.71, 42.215], [18.74, 42.215], [18.745, 42.22], [18.745, 42.27], [18.74, 42.275], [18.71, 42.275], [18.7, 42.315]]]}, "properties": {"score_mean": 11.7, "score_max": 34.4, "area_km2": 56.9, "centroid": [18.6976, 42.2666], "razlog": "povoljna dubina + termalni front", "dubina_panule_m": 30.0, "sst_raspon_C": 0.5, "sst_promjena_3d_C": 0.4, "upwelling": 0.0, "hladnije_C": -0.1, "izgledi": "vrlo slabi"}}]}