{"type": "FeatureCollection", "properties": {"vrsta": "sabljarka", "naziv": "Sabljarka", "latinski": "Xiphias gladius", "datum": "2026-08-25", "profil": "duboko, izvan selfa", "panula": {"dubina_m": [15.0, 50.0], "brzina_kn": [1.5, 3.0], "sati": "posljednja tri sata dnevnog svjetla", "granica_dubine_m": 50.0}, "vertikala": {"termoklina_m": 11.9, "termoklina_C_po_m": 0.1, "dcm_m": 91.2, "dcm_odnos": 1.0, "dcm_debljina_m": 36.4, "mld_m": 11.9, "sloj_plijena_m": [64.7, 103.3], "dohvatljivost": 0.0, "objasnjenje": "Termoklina na 12 m. Sloj plijena lezi pretezno ispod 50 m, dakle izvan dohvata panule. Najveca gustina hlorofila je na 91 m (sloj debljine 36 m) - tu se skuplja sitna riba koja se hrani planktonom, pa je i najveca vjerovatnoca da su grabljivice tu negdje."}, "bezbjednost": {"nivo": "zuto", "razlog": "vjetar 12 cv", "izlazak_preporucen": true}, "napomena": "Ne lovi se nocu - osim povrsinskim parangalima daleko od obale. Preko dana bez cvrstog pravila, najcesce pred kraj dana.", "razlog_praznog": null}, "features": [{"type": "Feature", "geometry": {"type": "Polygon", "coordinates": [[[19.23, 41.865], [19.205, 41.86], [19.21, 41.835], [19.235, 41.84], [19.23, 41.865]]]}, "properties": {"score_mean": 30.0, "score_max": 41.2, "area_km2": 8.3, "centroid": [19.22, 41.85], "razlog": "termoklina u dohvatu + prisustvo mamca", "dubina_panule_m": 15.0, "sst_raspon_C": 1.1, "sst_promjena_3d_C": 0.9, "upwelling": 0.0, "hladnije_C": -0.0, "izgledi": "osrednji"}}, {"type": "Feature", "geometry": {"type": "Polygon", "coordinates": [[[19.17, 41.895], [19.14, 41.895], [19.135, 41.87], [19.17, 41.845], [19.19, 41.845], [19.195, 41.87], [19.17, 41.895]]]}, "properties": {"score_mean": 27.2, "score_max": 39.3, "area_km2": 21.2, "centroid": [19.1652, 41.8709], "razlog": "termoklina u dohvatu + prisustvo mamca", "dubina_panule_m": 15.0, "sst_raspon_C": 0.9, "sst_promjena_3d_C": 0.9, "upwelling": 0.0, "hladnije_C": -0.1, "izgledi": "osrednji"}}, {"type": "Feature", "geometry": {"type": "Polygon", "coordinates": [[[19.06, 41.955], [19.035, 41.95], [19.04, 41.925], [19.065, 41.93], [19.06, 41.955]]]}, "properties": {"score_mean": 12.2, "score_max": 29.6, "area_km2": 8.3, "centroid": [19.05, 41.94], "razlog": "termoklina u dohvatu + zora/sumrak", "dubina_panule_m": 15.0, "sst_raspon_C": 0.4, "sst_promjena_3d_C": 0.3, "upwelling": 0.0, "hladnije_C": 0.1, "izgledi": "slabi"}}, {"type": "Feature", "geometry": {"type": "Polygon", "coordinates": [[[18.72, 42.255], [18.7, 42.255], [18.675, 42.24], [18.675, 42.22], [18.7, 42.195], [18.73, 42.195], [18.735, 42.2], [18.735, 42.24], [18.72, 42.255]]]}, "properties": {"score_mean": 9.3, "score_max": 39.8, "area_km2": 27.5, "centroid": [18.7077, 42.2247], "razlog": "zora/sumrak + termoklina u dohvatu", "dubina_panule_m": 50.0, "sst_raspon_C": 0.6, "sst_promjena_3d_C": 0.6, "upwelling": 0.2, "hladnije_C": 0.1, "izgledi": "vrlo slabi"}}, {"type": "Feature", "geometry": {"type": "Polygon", "coordinates": [[[18.99, 42.075], [18.95, 42.075], [18.945, 42.05], [18.95, 42.045], [18.99, 42.045], [18.995, 42.05], [18.99, 42.075]]]}, "properties": {"score_mean": 6.0, "score_max": 23.6, "area_km2": 13.8, "centroid": [18.97, 42.06], "razlog": "zora/sumrak + gradijent hlorofila", "dubina_panule_m": 50.0, "sst_raspon_C": 0.7, "sst_promjena_3d_C": 0.7, "upwelling": 0.0, "hladnije_C": -0.2, "izgledi": "vrlo slabi"}}, {"type": "Feature", "geometry": {"type": "Polygon", "coordinates": [[[18.58, 41.735], [18.555, 41.73], [18.555, 41.71], [18.565, 41.7], [18.57, 41.675], [18.595, 41.68], [18.595, 41.71], [18.58, 41.735]]]}, "properties": {"score_mean": 1.6, "score_max": 1.8, "area_km2": 17.6, "centroid": [18.5758, 41.7053], "razlog": "kanjon + termoklina u dohvatu", "dubina_panule_m": 50.0, "sst_raspon_C": 0.3, "sst_promjena_3d_C": 0.1, "upwelling": 0.0, "hladnije_C": -0.0, "izgledi": "vrlo slabi"}}]}