{"type": "FeatureCollection", "properties": {"vrsta": "sabljarka", "naziv": "Sabljarka", "latinski": "Xiphias gladius", "datum": "2026-09-07", "profil": "jesenji, uz obalu", "panula": {"dubina_m": [0.0, 30.0], "brzina_kn": [1.5, 3.0], "sati": "posljednja tri sata dnevnog svjetla", "granica_dubine_m": 50.0}, "vertikala": {"termoklina_m": 17.8, "termoklina_C_po_m": 0.3, "dcm_m": 91.2, "dcm_odnos": 1.0, "dcm_debljina_m": 41.6, "mld_m": 11.9, "sloj_plijena_m": [59.2, 102.9], "dohvatljivost": 0.0, "objasnjenje": "Termoklina na 18 m. Sloj plijena lezi pretezno ispod 50 m, dakle izvan dohvata panule. Najveca gustina hlorofila je na 91 m (sloj debljine 42 m) - tu se skuplja sitna riba koja se hrani planktonom, pa je i najveca vjerovatnoca da su grabljivice tu negdje."}, "bezbjednost": {"nivo": "zuto", "razlog": "vjetar 13 cv", "izlazak_preporucen": true}, "napomena": "Septembar i oktobar: prolaze male sabljarke od 5 do 8 kg, relativno ceste, obicno 500 m do 1 km od obale.", "razlog_praznog": null}, "features": [{"type": "Feature", "geometry": {"type": "Polygon", "coordinates": [[[19.11, 41.965], [19.085, 41.96], [19.085, 41.9], [19.09, 41.895], [19.115, 41.9], [19.115, 41.96], [19.11, 41.965]]]}, "properties": {"score_mean": 26.3, "score_max": 29.6, "area_km2": 19.4, "centroid": [19.1, 41.93], "razlog": "termalni front + povoljna dubina", "dubina_panule_m": 7.1, "sst_raspon_C": 1.0, "sst_promjena_3d_C": -0.3, "upwelling": 0.5, "hladnije_C": 0.2, "izgledi": "osrednji"}}, {"type": "Feature", "geometry": {"type": "Polygon", "coordinates": [[[18.87, 42.225], [18.84, 42.225], [18.835, 42.22], [18.835, 42.19], [18.85, 42.175], [18.87, 42.175], [18.875, 42.16], [18.89, 42.145], [18.91, 42.145], [18.915, 42.17], [18.9, 42.185], [18.875, 42.19], [18.875, 42.22], [18.87, 42.225]]]}, "properties": {"score_mean": 18.4, "score_max": 29.5, "area_km2": 30.3, "centroid": [18.8724, 42.1858], "razlog": "termalni front + povoljna dubina", "dubina_panule_m": 30.0, "sst_raspon_C": 0.9, "sst_promjena_3d_C": -0.9, "upwelling": 0.4, "hladnije_C": 0.2, "izgledi": "slabi"}}, {"type": "Feature", "geometry": {"type": "Polygon", "coordinates": [[[18.7, 42.315], [18.67, 42.315], [18.665, 42.31], [18.665, 42.28], [18.67, 42.275], [18.7, 42.275], [18.705, 42.28], [18.705, 42.31], [18.7, 42.315]]]}, "properties": {"score_mean": 15.6, "score_max": 23.7, "area_km2": 14.7, "centroid": [18.685, 42.295], "razlog": "termalni front + povoljna dubina", "dubina_panule_m": 7.1, "sst_raspon_C": 0.8, "sst_promjena_3d_C": 0.4, "upwelling": 0.0, "hladnije_C": -0.4, "izgledi": "slabi"}}, {"type": "Feature", "geometry": {"type": "Polygon", "coordinates": [[[18.74, 42.275], [18.71, 42.275], [18.705, 42.27], [18.705, 42.23], [18.71, 42.225], [18.74, 42.225], [18.745, 42.23], [18.745, 42.27], [18.74, 42.275]]]}, "properties": {"score_mean": 14.3, "score_max": 16.4, "area_km2": 18.3, "centroid": [18.725, 42.25], "razlog": "povoljna dubina + termalni front", "dubina_panule_m": 30.0, "sst_raspon_C": 0.5, "sst_promjena_3d_C": 0.3, "upwelling": 0.0, "hladnije_C": -0.3, "izgledi": "slabi"}}, {"type": "Feature", "geometry": {"type": "Polygon", "coordinates": [[[18.9, 41.995], [18.875, 41.99], [18.88, 41.965], [18.905, 41.97], [18.9, 41.995]]]}, "properties": {"score_mean": 2.2, "score_max": 4.4, "area_km2": 8.3, "centroid": [18.89, 41.98], "razlog": "povoljna dubina + zora/sumrak", "dubina_panule_m": 30.0, "sst_raspon_C": 0.2, "sst_promjena_3d_C": -0.4, "upwelling": 0.0, "hladnije_C": 0.0, "izgledi": "vrlo slabi"}}]}