{"type": "FeatureCollection", "properties": {"vrsta": "sabljarka", "naziv": "Sabljarka", "latinski": "Xiphias gladius", "datum": "2026-09-28", "profil": "jesenji, uz obalu", "panula": {"dubina_m": [0.0, 30.0], "brzina_kn": [1.5, 3.0], "sati": "posljednja tri sata dnevnog svjetla", "granica_dubine_m": 50.0}, "vertikala": {"termoklina_m": 31.8, "termoklina_C_po_m": 0.2, "dcm_m": 91.2, "dcm_odnos": 1.0, "dcm_debljina_m": 38.0, "mld_m": 19.4, "sloj_plijena_m": [71.4, 104.5], "dohvatljivost": 0.0, "objasnjenje": "Termoklina na 32 m. Sloj plijena lezi pretezno ispod 50 m, dakle izvan dohvata panule. Najveca gustina hlorofila je na 91 m (sloj debljine 38 m) - tu se skuplja sitna riba koja se hrani planktonom, pa je i najveca vjerovatnoca da su grabljivice tu negdje."}, "bezbjednost": {"nivo": "zuto", "razlog": "talasi do 1.1 m", "izlazak_preporucen": true}, "napomena": "Septembar i oktobar: prolaze male sabljarke od 5 do 8 kg, relativno ceste, obicno 500 m do 1 km od obale.", "razlog_praznog": null}, "features": [{"type": "Feature", "geometry": {"type": "Polygon", "coordinates": [[[19.06, 42.045], [19.03, 42.045], [19.015, 42.03], [19.015, 41.99], [19.04, 41.955], [19.07, 41.955], [19.075, 41.96], [19.075, 42.01], [19.065, 42.02], [19.06, 42.045]]]}, "properties": {"score_mean": 46.1, "score_max": 48.9, "area_km2": 42.4, "centroid": [19.0459, 42.0], "razlog": "termalni front + povoljna dubina", "dubina_panule_m": 7.5, "sst_raspon_C": 0.8, "sst_promjena_3d_C": 0.1, "upwelling": 0.0, "hladnije_C": -0.0, "izgledi": "dobri"}}, {"type": "Feature", "geometry": {"type": "Polygon", "coordinates": [[[18.87, 42.225], [18.84, 42.225], [18.835, 42.22], [18.835, 42.19], [18.84, 42.185], [18.87, 42.185], [18.875, 42.19], [18.875, 42.22], [18.87, 42.225]]]}, "properties": {"score_mean": 42.5, "score_max": 45.9, "area_km2": 14.7, "centroid": [18.855, 42.205], "razlog": "povoljna dubina + prisustvo mamca", "dubina_panule_m": 8.3, "sst_raspon_C": 0.2, "sst_promjena_3d_C": -1.1, "upwelling": 0.0, "hladnije_C": 0.1, "izgledi": "dobri"}}, {"type": "Feature", "geometry": {"type": "Polygon", "coordinates": [[[18.7, 42.315], [18.67, 42.315], [18.665, 42.31], [18.665, 42.28], [18.68, 42.265], [18.695, 42.26], [18.695, 42.24], [18.71, 42.225], [18.74, 42.225], [18.745, 42.23], [18.745, 42.27], [18.74, 42.275], [18.71, 42.275], [18.7, 42.315]]]}, "properties": {"score_mean": 40.8, "score_max": 77.5, "area_km2": 38.5, "centroid": [18.7055, 42.2686], "razlog": "termalni front + povoljna dubina", "dubina_panule_m": 7.3, "sst_raspon_C": 0.6, "sst_promjena_3d_C": -0.6, "upwelling": 0.0, "hladnije_C": 0.0, "izgledi": "dobri"}}, {"type": "Feature", "geometry": {"type": "Polygon", "coordinates": [[[18.94, 42.045], [18.9, 42.045], [18.885, 42.03], [18.885, 42.0], [18.9, 41.985], [18.94, 41.985], [18.945, 41.99], [18.945, 42.04], [18.94, 42.045]]]}, "properties": {"score_mean": 40.4, "score_max": 41.9, "area_km2": 31.3, "centroid": [18.9165, 42.015], "razlog": "povoljna dubina + prisustvo mamca", "dubina_panule_m": 9.9, "sst_raspon_C": 0.2, "sst_promjena_3d_C": -0.6, "upwelling": 0.0, "hladnije_C": 0.0, "izgledi": "dobri"}}]}