{"type": "FeatureCollection", "properties": {"vrsta": "sabljarka", "naziv": "Sabljarka", "latinski": "Xiphias gladius", "datum": "2026-09-16", "profil": "jesenji, uz obalu", "panula": {"dubina_m": [0.0, 30.0], "brzina_kn": [1.5, 3.0], "sati": "posljednja tri sata dnevnog svjetla", "granica_dubine_m": 50.0}, "vertikala": {"termoklina_m": 24.5, "termoklina_C_po_m": 0.2, "dcm_m": 97.9, "dcm_odnos": 1.0, "dcm_debljina_m": 37.1, "mld_m": 17.2, "sloj_plijena_m": [56.8, 103.3], "dohvatljivost": 0.0, "objasnjenje": "Termoklina na 24 m. Sloj plijena lezi pretezno ispod 50 m, dakle izvan dohvata panule. Najveca gustina hlorofila je na 98 m (sloj debljine 37 m) - tu se skuplja sitna riba koja se hrani planktonom, pa je i najveca vjerovatnoca da su grabljivice tu negdje."}, "bezbjednost": {"nivo": "zuto", "razlog": "vjetar 12 cv", "izlazak_preporucen": true}, "napomena": "Septembar i oktobar: prolaze male sabljarke od 5 do 8 kg, relativno ceste, obicno 500 m do 1 km od obale.", "razlog_praznog": null}, "features": [{"type": "Feature", "geometry": {"type": "Polygon", "coordinates": [[[18.91, 42.025], [18.885, 42.02], [18.885, 42.0], [18.875, 41.99], [18.875, 41.96], [18.89, 41.945], [18.94, 41.945], [18.945, 41.97], [18.925, 41.98], [18.925, 42.01], [18.91, 42.025]]]}, "properties": {"score_mean": 29.8, "score_max": 35.4, "area_km2": 37.8, "centroid": [18.9066, 41.9795], "razlog": "termalni front + povoljna dubina", "dubina_panule_m": 13.4, "sst_raspon_C": 0.7, "sst_promjena_3d_C": -0.8, "upwelling": 0.0, "hladnije_C": -0.0, "izgledi": "osrednji"}}, {"type": "Feature", "geometry": {"type": "Polygon", "coordinates": [[[18.7, 42.305], [18.675, 42.3], [18.68, 42.275], [18.705, 42.28], [18.7, 42.305]]]}, "properties": {"score_mean": 28.3, "score_max": 28.9, "area_km2": 8.3, "centroid": [18.69, 42.29], "razlog": "termalni front + povoljna dubina", "dubina_panule_m": 8.7, "sst_raspon_C": 0.5, "sst_promjena_3d_C": -0.3, "upwelling": 0.0, "hladnije_C": -0.2, "izgledi": "osrednji"}}, {"type": "Feature", "geometry": {"type": "Polygon", "coordinates": [[[18.87, 42.215], [18.845, 42.21], [18.85, 42.185], [18.875, 42.19], [18.87, 42.215]]]}, "properties": {"score_mean": 28.2, "score_max": 30.8, "area_km2": 8.3, "centroid": [18.86, 42.2], "razlog": "termalni front + povoljna dubina", "dubina_panule_m": 30.0, "sst_raspon_C": 0.6, "sst_promjena_3d_C": -0.6, "upwelling": 0.0, "hladnije_C": -0.1, "izgledi": "osrednji"}}, {"type": "Feature", "geometry": {"type": "Polygon", "coordinates": [[[18.73, 42.275], [18.705, 42.27], [18.705, 42.24], [18.71, 42.235], [18.74, 42.235], [18.745, 42.24], [18.745, 42.26], [18.73, 42.275]]]}, "properties": {"score_mean": 28.0, "score_max": 29.6, "area_km2": 13.8, "centroid": [18.724, 42.254], "razlog": "povoljna dubina + termalni front", "dubina_panule_m": 8.6, "sst_raspon_C": 0.5, "sst_promjena_3d_C": -0.4, "upwelling": 0.0, "hladnije_C": -0.1, "izgledi": "osrednji"}}]}