{"type": "FeatureCollection", "properties": {"vrsta": "sabljarka", "naziv": "Sabljarka", "latinski": "Xiphias gladius", "datum": "2026-09-25", "profil": "jesenji, uz obalu", "panula": {"dubina_m": [0.0, 30.0], "brzina_kn": [1.5, 3.0], "sati": "posljednja tri sata dnevnog svjetla", "granica_dubine_m": 50.0}, "vertikala": {"termoklina_m": 28.0, "termoklina_C_po_m": 0.2, "dcm_m": 91.2, "dcm_odnos": 1.0, "dcm_debljina_m": 39.8, "mld_m": 19.8, "sloj_plijena_m": [67.5, 104.2], "dohvatljivost": 0.0, "objasnjenje": "Termoklina na 28 m. Sloj plijena lezi pretezno ispod 50 m, dakle izvan dohvata panule. Najveca gustina hlorofila je na 91 m (sloj debljine 40 m) - tu se skuplja sitna riba koja se hrani planktonom, pa je i najveca vjerovatnoca da su grabljivice tu negdje."}, "bezbjednost": {"nivo": "crveno", "razlog": "vjetar 20 cv, udari 27 cv", "izlazak_preporucen": false}, "napomena": "Septembar i oktobar: prolaze male sabljarke od 5 do 8 kg, relativno ceste, obicno 500 m do 1 km od obale.", "razlog_praznog": null}, "features": [{"type": "Feature", "geometry": {"type": "Polygon", "coordinates": [[[19.02, 42.085], [18.98, 42.085], [18.97, 42.075], [18.95, 42.075], [18.925, 42.05], [18.925, 42.01], [18.95, 42.005], [18.96, 41.995], [18.98, 41.995], [18.995, 42.01], [18.995, 42.03], [19.025, 42.06], [19.02, 42.085]]]}, "properties": {"score_mean": 44.6, "score_max": 48.7, "area_km2": 58.0, "centroid": [18.9717, 42.0427], "razlog": "povoljna dubina + termalni front", "dubina_panule_m": 8.0, "sst_raspon_C": 0.5, "sst_promjena_3d_C": -1.0, "upwelling": 0.0, "hladnije_C": -0.0, "izgledi": "dobri"}}, {"type": "Feature", "geometry": {"type": "Polygon", "coordinates": [[[18.73, 42.275], [18.705, 42.27], [18.705, 42.24], [18.71, 42.235], [18.74, 42.235], [18.745, 42.24], [18.745, 42.26], [18.73, 42.275]]]}, "properties": {"score_mean": 42.8, "score_max": 45.3, "area_km2": 13.8, "centroid": [18.724, 42.254], "razlog": "povoljna dubina + termalni front", "dubina_panule_m": 8.9, "sst_raspon_C": 0.5, "sst_promjena_3d_C": -0.9, "upwelling": 0.0, "hladnije_C": 0.1, "izgledi": "dobri"}}, {"type": "Feature", "geometry": {"type": "Polygon", "coordinates": [[[18.94, 41.885], [18.915, 41.88], [18.915, 41.84], [18.92, 41.835], [18.945, 41.84], [18.945, 41.88], [18.94, 41.885]]]}, "properties": {"score_mean": 1.8, "score_max": 2.0, "area_km2": 13.8, "centroid": [18.93, 41.86], "razlog": "povoljna dubina + termalni front", "dubina_panule_m": 30.0, "sst_raspon_C": 0.5, "sst_promjena_3d_C": -0.8, "upwelling": 0.0, "hladnije_C": -0.1, "izgledi": "vrlo slabi"}}]}