{"type": "FeatureCollection", "properties": {"vrsta": "sabljarka", "naziv": "Sabljarka", "latinski": "Xiphias gladius", "datum": "2026-10-08", "profil": "jesenji, uz obalu", "panula": {"dubina_m": [0.0, 30.0], "brzina_kn": [1.5, 3.0], "sati": "posljednja tri sata dnevnog svjetla", "granica_dubine_m": 50.0}, "vertikala": {"termoklina_m": 28.0, "termoklina_C_po_m": 0.1, "dcm_m": 91.2, "dcm_odnos": 1.0, "dcm_debljina_m": 41.3, "mld_m": 20.0, "sloj_plijena_m": [64.4, 104.5], "dohvatljivost": 0.0, "objasnjenje": "Termoklina na 28 m. Sloj plijena lezi pretezno ispod 50 m, dakle izvan dohvata panule. Najveca gustina hlorofila je na 91 m (sloj debljine 41 m) - tu se skuplja sitna riba koja se hrani planktonom, pa je i najveca vjerovatnoca da su grabljivice tu negdje."}, "bezbjednost": {"nivo": "crveno", "razlog": "talasi do 1.4 m, vjetar 17 cv, udari 24 cv", "izlazak_preporucen": false}, "napomena": "Septembar i oktobar: prolaze male sabljarke od 5 do 8 kg, relativno ceste, obicno 500 m do 1 km od obale.", "razlog_praznog": null}, "features": [{"type": "Feature", "geometry": {"type": "Polygon", "coordinates": [[[18.87, 42.225], [18.83, 42.225], [18.825, 42.22], [18.825, 42.19], [18.86, 42.175], [18.865, 42.16], [18.89, 42.135], [18.905, 42.13], [18.905, 42.12], [18.92, 42.105], [18.94, 42.105], [18.945, 42.11], [18.945, 42.14], [18.915, 42.15], [18.915, 42.18], [18.91, 42.185], [18.88, 42.185], [18.875, 42.19], [18.875, 42.22], [18.87, 42.225]]]}, "properties": {"score_mean": 32.7, "score_max": 47.1, "area_km2": 53.3, "centroid": [18.8848, 42.1686], "razlog": "termalni front + povoljna dubina", "dubina_panule_m": 11.2, "sst_raspon_C": 0.8, "sst_promjena_3d_C": 0.3, "upwelling": 0.2, "hladnije_C": 0.1, "izgledi": "osrednji"}}, {"type": "Feature", "geometry": {"type": "Polygon", "coordinates": [[[18.97, 42.025], [18.92, 42.025], [18.895, 42.0], [18.895, 41.98], [18.92, 41.965], [18.94, 41.965], [18.945, 41.99], [18.975, 42.0], [18.97, 42.025]]]}, "properties": {"score_mean": 30.0, "score_max": 40.8, "area_km2": 31.3, "centroid": [18.9329, 41.9985], "razlog": "termalni front + povoljna dubina", "dubina_panule_m": 11.1, "sst_raspon_C": 0.8, "sst_promjena_3d_C": 0.2, "upwelling": 0.3, "hladnije_C": 0.1, "izgledi": "osrednji"}}, {"type": "Feature", "geometry": {"type": "Polygon", "coordinates": [[[18.61, 42.355], [18.585, 42.35], [18.585, 42.32], [18.6, 42.305], [18.64, 42.305], [18.665, 42.32], [18.66, 42.345], [18.62, 42.345], [18.61, 42.355]]]}, "properties": {"score_mean": 28.5, "score_max": 39.0, "area_km2": 29.3, "centroid": [18.6219, 42.3287], "razlog": "termalni front + povoljna dubina", "dubina_panule_m": 13.6, "sst_raspon_C": 0.9, "sst_promjena_3d_C": 0.4, "upwelling": 0.0, "hladnije_C": -0.2, "izgledi": "osrednji"}}, {"type": "Feature", "geometry": {"type": "Polygon", "coordinates": [[[18.7, 42.285], [18.67, 42.285], [18.665, 42.28], [18.665, 42.23], [18.69, 42.225], [18.7, 42.215], [18.74, 42.215], [18.745, 42.22], [18.745, 42.27], [18.74, 42.275], [18.71, 42.275], [18.7, 42.285]]]}, "properties": {"score_mean": 28.2, "score_max": 37.8, "area_km2": 44.9, "centroid": [18.7049, 42.2494], "razlog": "povoljna dubina + termalni front", "dubina_panule_m": 12.6, "sst_raspon_C": 0.8, "sst_promjena_3d_C": -0.1, "upwelling": 0.0, "hladnije_C": -0.0, "izgledi": "osrednji"}}, {"type": "Feature", "geometry": {"type": "Polygon", "coordinates": [[[18.5, 42.355], [18.475, 42.35], [18.48, 42.325], [18.505, 42.33], [18.5, 42.355]]]}, "properties": {"score_mean": 1.1, "score_max": 1.5, "area_km2": 8.2, "centroid": [18.49, 42.34], "razlog": "termalni front + povoljna dubina", "dubina_panule_m": 30.0, "sst_raspon_C": 1.0, "sst_promjena_3d_C": 0.4, "upwelling": 0.0, "hladnije_C": -0.1, "izgledi": "vrlo slabi"}}]}