{"type": "FeatureCollection", "properties": {"vrsta": "sabljarka", "naziv": "Sabljarka", "latinski": "Xiphias gladius", "datum": "2026-09-15", "profil": "jesenji, uz obalu", "panula": {"dubina_m": [0.0, 30.0], "brzina_kn": [1.5, 3.0], "sati": "posljednja tri sata dnevnog svjetla", "granica_dubine_m": 50.0}, "vertikala": {"termoklina_m": 24.5, "termoklina_C_po_m": 0.3, "dcm_m": 97.9, "dcm_odnos": 1.0, "dcm_debljina_m": 39.8, "mld_m": 15.8, "sloj_plijena_m": [54.2, 102.9], "dohvatljivost": 0.0, "objasnjenje": "Termoklina na 24 m. Sloj plijena lezi pretezno ispod 50 m, dakle izvan dohvata panule. Najveca gustina hlorofila je na 98 m (sloj debljine 40 m) - tu se skuplja sitna riba koja se hrani planktonom, pa je i najveca vjerovatnoca da su grabljivice tu negdje."}, "bezbjednost": {"nivo": "crveno", "razlog": "vjetar 15 cv, udari 20 cv", "izlazak_preporucen": false}, "napomena": "Septembar i oktobar: prolaze male sabljarke od 5 do 8 kg, relativno ceste, obicno 500 m do 1 km od obale.", "razlog_praznog": null}, "features": [{"type": "Feature", "geometry": {"type": "Polygon", "coordinates": [[[19.1, 41.965], [19.075, 41.96], [19.075, 41.88], [19.08, 41.875], [19.105, 41.88], [19.105, 41.96], [19.1, 41.965]]]}, "properties": {"score_mean": 36.2, "score_max": 40.5, "area_km2": 24.9, "centroid": [19.09, 41.92], "razlog": "prisustvo mamca + povoljna dubina", "dubina_panule_m": 8.1, "sst_raspon_C": 0.2, "sst_promjena_3d_C": -1.0, "upwelling": 0.2, "hladnije_C": 0.0, "izgledi": "osrednji"}}, {"type": "Feature", "geometry": {"type": "Polygon", "coordinates": [[[18.7, 42.305], [18.675, 42.3], [18.68, 42.275], [18.705, 42.28], [18.7, 42.305]]]}, "properties": {"score_mean": 24.8, "score_max": 26.7, "area_km2": 8.3, "centroid": [18.69, 42.29], "razlog": "povoljna dubina + termalni front", "dubina_panule_m": 8.2, "sst_raspon_C": 0.5, "sst_promjena_3d_C": -0.4, "upwelling": 0.0, "hladnije_C": -0.0, "izgledi": "slabi"}}, {"type": "Feature", "geometry": {"type": "Polygon", "coordinates": [[[18.945, 41.99], [18.92, 41.995], [18.91, 41.985], [18.9, 41.985], [18.89, 41.995], [18.87, 41.995], [18.865, 41.97], [18.92, 41.925], [18.94, 41.925], [18.945, 41.93], [18.945, 41.99]]]}, "properties": {"score_mean": 24.7, "score_max": 35.7, "area_km2": 38.7, "centroid": [18.911, 41.9645], "razlog": "termalni front + povoljna dubina", "dubina_panule_m": 10.9, "sst_raspon_C": 0.8, "sst_promjena_3d_C": -0.4, "upwelling": 0.0, "hladnije_C": -0.0, "izgledi": "slabi"}}, {"type": "Feature", "geometry": {"type": "Polygon", "coordinates": [[[18.73, 42.275], [18.705, 42.27], [18.705, 42.25], [18.72, 42.235], [18.745, 42.24], [18.745, 42.26], [18.73, 42.275]]]}, "properties": {"score_mean": 24.0, "score_max": 26.0, "area_km2": 12.8, "centroid": [18.725, 42.255], "razlog": "povoljna dubina + termalni front", "dubina_panule_m": 8.2, "sst_raspon_C": 0.4, "sst_promjena_3d_C": -0.4, "upwelling": 0.0, "hladnije_C": -0.0, "izgledi": "slabi"}}]}