{"type": "FeatureCollection", "properties": {"vrsta": "sabljarka", "naziv": "Sabljarka", "latinski": "Xiphias gladius", "datum": "2026-10-02", "profil": "jesenji, uz obalu", "panula": {"dubina_m": [0.0, 30.0], "brzina_kn": [1.5, 3.0], "sati": "posljednja tri sata dnevnog svjetla", "granica_dubine_m": 50.0}, "vertikala": {"termoklina_m": 31.8, "termoklina_C_po_m": 0.1, "dcm_m": 97.9, "dcm_odnos": 1.0, "dcm_debljina_m": 40.7, "mld_m": 23.0, "sloj_plijena_m": [67.5, 112.7], "dohvatljivost": 0.0, "objasnjenje": "Termoklina na 32 m. Sloj plijena lezi pretezno ispod 50 m, dakle izvan dohvata panule. Najveca gustina hlorofila je na 98 m (sloj debljine 41 m) - tu se skuplja sitna riba koja se hrani planktonom, pa je i najveca vjerovatnoca da su grabljivice tu negdje."}, "bezbjednost": {"nivo": "zuto", "razlog": "talasi do 1.2 m", "izlazak_preporucen": true}, "napomena": "Septembar i oktobar: prolaze male sabljarke od 5 do 8 kg, relativno ceste, obicno 500 m do 1 km od obale.", "razlog_praznog": null}, "features": [{"type": "Feature", "geometry": {"type": "Polygon", "coordinates": [[[18.7, 42.315], [18.67, 42.315], [18.665, 42.31], [18.665, 42.28], [18.68, 42.265], [18.695, 42.26], [18.695, 42.24], [18.71, 42.225], [18.74, 42.225], [18.745, 42.23], [18.745, 42.27], [18.74, 42.275], [18.71, 42.275], [18.7, 42.315]]]}, "properties": {"score_mean": 33.5, "score_max": 53.3, "area_km2": 38.5, "centroid": [18.7055, 42.2686], "razlog": "termalni front + povoljna dubina", "dubina_panule_m": 10.6, "sst_raspon_C": 0.7, "sst_promjena_3d_C": -0.5, "upwelling": 0.0, "hladnije_C": -0.1, "izgledi": "osrednji"}}, {"type": "Feature", "geometry": {"type": "Polygon", "coordinates": [[[18.87, 42.225], [18.84, 42.225], [18.835, 42.22], [18.835, 42.19], [18.86, 42.185], [18.865, 42.16], [18.89, 42.135], [18.905, 42.13], [18.905, 42.12], [18.92, 42.105], [18.94, 42.105], [18.945, 42.11], [18.945, 42.14], [18.915, 42.15], [18.915, 42.18], [18.91, 42.185], [18.88, 42.185], [18.875, 42.19], [18.875, 42.22], [18.87, 42.225]]]}, "properties": {"score_mean": 31.4, "score_max": 43.3, "area_km2": 47.8, "centroid": [18.8902, 42.1654], "razlog": "termalni front + povoljna dubina", "dubina_panule_m": 12.6, "sst_raspon_C": 1.2, "sst_promjena_3d_C": 0.0, "upwelling": 0.0, "hladnije_C": 0.0, "izgledi": "osrednji"}}, {"type": "Feature", "geometry": {"type": "Polygon", "coordinates": [[[18.945, 42.01], [18.92, 42.015], [18.915, 42.0], [18.895, 41.98], [18.895, 41.93], [18.9, 41.925], [18.94, 41.925], [18.945, 41.93], [18.945, 42.01]]]}, "properties": {"score_mean": 2.4, "score_max": 4.9, "area_km2": 36.9, "centroid": [18.922, 41.966], "razlog": "termalni front + povoljna dubina", "dubina_panule_m": 30.0, "sst_raspon_C": 0.8, "sst_promjena_3d_C": 0.5, "upwelling": 0.0, "hladnije_C": -0.3, "izgledi": "vrlo slabi"}}, {"type": "Feature", "geometry": {"type": "Polygon", "coordinates": [[[18.85, 41.875], [18.825, 41.87], [18.825, 41.85], [18.84, 41.835], [18.865, 41.84], [18.865, 41.86], [18.85, 41.875]]]}, "properties": {"score_mean": 1.7, "score_max": 1.8, "area_km2": 12.9, "centroid": [18.845, 41.855], "razlog": "termalni front + povoljna dubina", "dubina_panule_m": 30.0, "sst_raspon_C": 0.8, "sst_promjena_3d_C": 0.5, "upwelling": 0.0, "hladnije_C": -0.2, "izgledi": "vrlo slabi"}}]}