{"type": "FeatureCollection", "properties": {"vrsta": "sabljarka", "naziv": "Sabljarka", "latinski": "Xiphias gladius", "datum": "2026-09-19", "profil": "jesenji, uz obalu", "panula": {"dubina_m": [0.0, 30.0], "brzina_kn": [1.5, 3.0], "sati": "posljednja tri sata dnevnog svjetla", "granica_dubine_m": 50.0}, "vertikala": {"termoklina_m": 24.5, "termoklina_C_po_m": 0.2, "dcm_m": 97.9, "dcm_odnos": 1.0, "dcm_debljina_m": 34.9, "mld_m": 13.6, "sloj_plijena_m": [59.4, 105.3], "dohvatljivost": 0.0, "objasnjenje": "Termoklina na 24 m. Sloj plijena lezi pretezno ispod 50 m, dakle izvan dohvata panule. Najveca gustina hlorofila je na 98 m (sloj debljine 35 m) - tu se skuplja sitna riba koja se hrani planktonom, pa je i najveca vjerovatnoca da su grabljivice tu negdje."}, "bezbjednost": {"nivo": "zuto", "razlog": "vjetar 12 cv", "izlazak_preporucen": true}, "napomena": "Septembar i oktobar: prolaze male sabljarke od 5 do 8 kg, relativno ceste, obicno 500 m do 1 km od obale.", "razlog_praznog": null}, "features": [{"type": "Feature", "geometry": {"type": "Polygon", "coordinates": [[[19.14, 41.855], [19.11, 41.855], [19.105, 41.85], [19.105, 41.83], [19.12, 41.805], [19.145, 41.81], [19.145, 41.85], [19.14, 41.855]]]}, "properties": {"score_mean": 48.7, "score_max": 52.5, "area_km2": 16.6, "centroid": [19.1267, 41.8317], "razlog": "termalni front + povoljna dubina", "dubina_panule_m": 7.1, "sst_raspon_C": 0.8, "sst_promjena_3d_C": -0.3, "upwelling": 0.0, "hladnije_C": 0.0, "izgledi": "dobri"}}, {"type": "Feature", "geometry": {"type": "Polygon", "coordinates": [[[18.7, 42.315], [18.67, 42.315], [18.665, 42.31], [18.665, 42.29], [18.68, 42.275], [18.705, 42.28], [18.705, 42.31], [18.7, 42.315]]]}, "properties": {"score_mean": 44.2, "score_max": 70.8, "area_km2": 13.7, "centroid": [18.686, 42.296], "razlog": "povoljna dubina + termalni front", "dubina_panule_m": 7.8, "sst_raspon_C": 0.5, "sst_promjena_3d_C": -0.5, "upwelling": 0.0, "hladnije_C": -0.2, "izgledi": "dobri"}}, {"type": "Feature", "geometry": {"type": "Polygon", "coordinates": [[[18.73, 42.275], [18.705, 42.27], [18.705, 42.24], [18.71, 42.235], [18.74, 42.235], [18.745, 42.24], [18.745, 42.26], [18.73, 42.275]]]}, "properties": {"score_mean": 41.3, "score_max": 43.1, "area_km2": 13.8, "centroid": [18.724, 42.254], "razlog": "povoljna dubina + termalni front", "dubina_panule_m": 30.0, "sst_raspon_C": 0.4, "sst_promjena_3d_C": -0.3, "upwelling": 0.0, "hladnije_C": -0.0, "izgledi": "dobri"}}, {"type": "Feature", "geometry": {"type": "Polygon", "coordinates": [[[18.945, 42.0], [18.92, 42.005], [18.895, 41.98], [18.895, 41.96], [18.92, 41.935], [18.945, 41.94], [18.945, 42.0]]]}, "properties": {"score_mean": 39.0, "score_max": 41.3, "area_km2": 26.7, "centroid": [18.9234, 41.97], "razlog": "povoljna dubina + termalni front", "dubina_panule_m": 12.0, "sst_raspon_C": 0.4, "sst_promjena_3d_C": -0.5, "upwelling": 0.0, "hladnije_C": -0.0, "izgledi": "osrednji"}}, {"type": "Feature", "geometry": {"type": "Polygon", "coordinates": [[[18.86, 42.035], [18.835, 42.03], [18.835, 42.01], [18.85, 41.985], [18.875, 41.99], [18.875, 42.01], [18.86, 42.035]]]}, "properties": {"score_mean": 35.4, "score_max": 37.4, "area_km2": 14.7, "centroid": [18.855, 42.01], "razlog": "povoljna dubina + zora/sumrak", "dubina_panule_m": 13.3, "sst_raspon_C": 0.3, "sst_promjena_3d_C": -0.3, "upwelling": 0.0, "hladnije_C": -0.1, "izgledi": "osrednji"}}, {"type": "Feature", "geometry": {"type": "Polygon", "coordinates": [[[18.86, 42.215], [18.835, 42.21], [18.84, 42.185], [18.865, 42.19], [18.86, 42.215]]]}, "properties": {"score_mean": 32.7, "score_max": 35.2, "area_km2": 8.3, "centroid": [18.85, 42.2], "razlog": "povoljna dubina + termalni front", "dubina_panule_m": 30.0, "sst_raspon_C": 0.4, "sst_promjena_3d_C": -0.6, "upwelling": 0.0, "hladnije_C": -0.1, "izgledi": "osrednji"}}]}