{"type": "FeatureCollection", "properties": {"vrsta": "sabljarka", "naziv": "Sabljarka", "latinski": "Xiphias gladius", "datum": "2026-09-04", "profil": "jesenji, uz obalu", "panula": {"dubina_m": [0.0, 30.0], "brzina_kn": [1.5, 3.0], "sati": "posljednja tri sata dnevnog svjetla", "granica_dubine_m": 50.0}, "vertikala": {"termoklina_m": 14.8, "termoklina_C_po_m": 0.3, "dcm_m": 91.2, "dcm_odnos": 1.0, "dcm_debljina_m": 46.5, "mld_m": 11.9, "sloj_plijena_m": [59.6, 105.4], "dohvatljivost": 0.0, "objasnjenje": "Termoklina na 15 m. Sloj plijena lezi pretezno ispod 50 m, dakle izvan dohvata panule. Najveca gustina hlorofila je na 91 m (sloj debljine 46 m) - tu se skuplja sitna riba koja se hrani planktonom, pa je i najveca vjerovatnoca da su grabljivice tu negdje."}, "bezbjednost": {"nivo": "zuto", "razlog": "vjetar 14 cv", "izlazak_preporucen": true}, "napomena": "Septembar i oktobar: prolaze male sabljarke od 5 do 8 kg, relativno ceste, obicno 500 m do 1 km od obale.", "razlog_praznog": null}, "features": [{"type": "Feature", "geometry": {"type": "Polygon", "coordinates": [[[19.1, 42.015], [19.07, 42.015], [19.065, 42.01], [19.065, 41.95], [19.085, 41.93], [19.09, 41.915], [19.115, 41.92], [19.115, 41.99], [19.1, 42.015]]]}, "properties": {"score_mean": 19.2, "score_max": 21.3, "area_km2": 39.6, "centroid": [19.0909, 41.9674], "razlog": "povoljna dubina + prisustvo mamca", "dubina_panule_m": 7.1, "sst_raspon_C": 0.4, "sst_promjena_3d_C": 0.7, "upwelling": 0.3, "hladnije_C": 0.1, "izgledi": "slabi"}}, {"type": "Feature", "geometry": {"type": "Polygon", "coordinates": [[[18.87, 42.225], [18.84, 42.225], [18.835, 42.22], [18.835, 42.19], [18.85, 42.175], [18.87, 42.175], [18.88, 42.155], [18.9, 42.155], [18.905, 42.18], [18.875, 42.19], [18.875, 42.22], [18.87, 42.225]]]}, "properties": {"score_mean": 16.8, "score_max": 24.4, "area_km2": 25.7, "centroid": [18.8668, 42.1911], "razlog": "termalni front + povoljna dubina", "dubina_panule_m": 30.0, "sst_raspon_C": 0.6, "sst_promjena_3d_C": -0.4, "upwelling": 0.2, "hladnije_C": 0.3, "izgledi": "slabi"}}, {"type": "Feature", "geometry": {"type": "Polygon", "coordinates": [[[18.7, 42.315], [18.67, 42.315], [18.665, 42.31], [18.665, 42.28], [18.68, 42.265], [18.695, 42.26], [18.695, 42.24], [18.71, 42.225], [18.74, 42.225], [18.745, 42.23], [18.745, 42.27], [18.74, 42.275], [18.71, 42.275], [18.7, 42.315]]]}, "properties": {"score_mean": 12.3, "score_max": 24.3, "area_km2": 38.5, "centroid": [18.7055, 42.2686], "razlog": "povoljna dubina + prisustvo mamca", "dubina_panule_m": 30.0, "sst_raspon_C": 0.2, "sst_promjena_3d_C": 0.4, "upwelling": 0.0, "hladnije_C": -0.1, "izgledi": "slabi"}}]}