{"type": "FeatureCollection", "properties": {"vrsta": "sabljarka", "naziv": "Sabljarka", "latinski": "Xiphias gladius", "datum": "2026-08-26", "profil": "duboko, izvan selfa", "panula": {"dubina_m": [15.0, 50.0], "brzina_kn": [1.5, 3.0], "sati": "posljednja tri sata dnevnog svjetla", "granica_dubine_m": 50.0}, "vertikala": {"termoklina_m": 11.9, "termoklina_C_po_m": 0.1, "dcm_m": 91.2, "dcm_odnos": 1.3, "dcm_debljina_m": 33.4, "mld_m": 11.9, "sloj_plijena_m": [64.7, 100.5], "dohvatljivost": 0.0, "objasnjenje": "Termoklina na 12 m. Sloj plijena lezi pretezno ispod 50 m, dakle izvan dohvata panule. Najveca gustina hlorofila je na 91 m (sloj debljine 33 m) - tu se skuplja sitna riba koja se hrani planktonom, pa je i najveca vjerovatnoca da su grabljivice tu negdje."}, "bezbjednost": {"nivo": "crveno", "razlog": "vjetar 17 cv, udari 23 cv", "izlazak_preporucen": false}, "napomena": "Ne lovi se nocu - osim povrsinskim parangalima daleko od obale. Preko dana bez cvrstog pravila, najcesce pred kraj dana.", "razlog_praznog": null}, "features": [{"type": "Feature", "geometry": {"type": "Polygon", "coordinates": [[[19.17, 41.895], [19.145, 41.89], [19.145, 41.86], [19.17, 41.845], [19.19, 41.845], [19.195, 41.87], [19.17, 41.895]]]}, "properties": {"score_mean": 30.9, "score_max": 43.3, "area_km2": 18.5, "centroid": [19.169, 41.8695], "razlog": "termoklina u dohvatu + prisustvo mamca", "dubina_panule_m": 15.0, "sst_raspon_C": 1.1, "sst_promjena_3d_C": 0.0, "upwelling": 0.0, "hladnije_C": -0.1, "izgledi": "osrednji"}}, {"type": "Feature", "geometry": {"type": "Polygon", "coordinates": [[[19.11, 41.915], [19.08, 41.915], [19.075, 41.89], [19.08, 41.885], [19.11, 41.885], [19.115, 41.89], [19.11, 41.915]]]}, "properties": {"score_mean": 18.6, "score_max": 42.3, "area_km2": 11.1, "centroid": [19.095, 41.9], "razlog": "termoklina u dohvatu + gradijent hlorofila", "dubina_panule_m": 15.0, "sst_raspon_C": 0.9, "sst_promjena_3d_C": 0.0, "upwelling": 0.0, "hladnije_C": -0.1, "izgledi": "slabi"}}, {"type": "Feature", "geometry": {"type": "Polygon", "coordinates": [[[19.06, 41.955], [19.035, 41.95], [19.04, 41.925], [19.065, 41.93], [19.06, 41.955]]]}, "properties": {"score_mean": 14.5, "score_max": 35.6, "area_km2": 8.3, "centroid": [19.05, 41.94], "razlog": "termoklina u dohvatu + zora/sumrak", "dubina_panule_m": 15.0, "sst_raspon_C": 0.8, "sst_promjena_3d_C": 0.0, "upwelling": 0.0, "hladnije_C": 0.1, "izgledi": "slabi"}}, {"type": "Feature", "geometry": {"type": "Polygon", "coordinates": [[[18.72, 42.255], [18.7, 42.255], [18.685, 42.24], [18.685, 42.21], [18.71, 42.195], [18.735, 42.2], [18.735, 42.24], [18.72, 42.255]]]}, "properties": {"score_mean": 10.5, "score_max": 40.8, "area_km2": 23.9, "centroid": [18.7112, 42.225], "razlog": "zora/sumrak + gradijent hlorofila", "dubina_panule_m": 15.0, "sst_raspon_C": 0.9, "sst_promjena_3d_C": 0.0, "upwelling": 0.0, "hladnije_C": -0.2, "izgledi": "vrlo slabi"}}, {"type": "Feature", "geometry": {"type": "Polygon", "coordinates": [[[18.99, 42.075], [18.96, 42.075], [18.955, 42.05], [18.96, 42.045], [18.99, 42.045], [18.995, 42.05], [18.99, 42.075]]]}, "properties": {"score_mean": 3.3, "score_max": 8.1, "area_km2": 11.0, "centroid": [18.975, 42.06], "razlog": "termoklina u dohvatu + zora/sumrak", "dubina_panule_m": 50.0, "sst_raspon_C": 0.7, "sst_promjena_3d_C": 0.0, "upwelling": 0.0, "hladnije_C": -0.0, "izgledi": "vrlo slabi"}}, {"type": "Feature", "geometry": {"type": "Polygon", "coordinates": [[[18.49, 41.855], [18.465, 41.85], [18.465, 41.82], [18.48, 41.795], [18.51, 41.795], [18.515, 41.82], [18.49, 41.855]]]}, "properties": {"score_mean": 1.9, "score_max": 2.3, "area_km2": 22.2, "centroid": [18.4888, 41.8237], "razlog": "termoklina u dohvatu + kanjon", "dubina_panule_m": 50.0, "sst_raspon_C": 0.4, "sst_promjena_3d_C": 0.0, "upwelling": 0.0, "hladnije_C": -0.1, "izgledi": "vrlo slabi"}}]}