{"type": "FeatureCollection", "properties": {"vrsta": "sabljarka", "naziv": "Sabljarka", "latinski": "Xiphias gladius", "datum": "2026-10-09", "profil": "jesenji, uz obalu", "panula": {"dubina_m": [0.0, 30.0], "brzina_kn": [1.5, 3.0], "sati": "posljednja tri sata dnevnog svjetla", "granica_dubine_m": 50.0}, "vertikala": {"termoklina_m": 31.8, "termoklina_C_po_m": 0.1, "dcm_m": 91.2, "dcm_odnos": 1.0, "dcm_debljina_m": 42.6, "mld_m": 20.4, "sloj_plijena_m": [59.4, 104.0], "dohvatljivost": 0.0, "objasnjenje": "Termoklina na 32 m. Sloj plijena lezi pretezno ispod 50 m, dakle izvan dohvata panule. Najveca gustina hlorofila je na 91 m (sloj debljine 43 m) - tu se skuplja sitna riba koja se hrani planktonom, pa je i najveca vjerovatnoca da su grabljivice tu negdje."}, "bezbjednost": {"nivo": "crveno", "razlog": "talasi do 2.1 m, vjetar 15 cv, udari 22 cv", "izlazak_preporucen": false}, "napomena": "Septembar i oktobar: prolaze male sabljarke od 5 do 8 kg, relativno ceste, obicno 500 m do 1 km od obale.", "razlog_praznog": null}, "features": [{"type": "Feature", "geometry": {"type": "Polygon", "coordinates": [[[18.86, 42.225], [18.81, 42.225], [18.805, 42.22], [18.805, 42.19], [18.81, 42.185], [18.87, 42.185], [18.875, 42.21], [18.86, 42.225]]]}, "properties": {"score_mean": 39.3, "score_max": 44.6, "area_km2": 24.8, "centroid": [18.8389, 42.2044], "razlog": "termalni front + povoljna dubina", "dubina_panule_m": 11.9, "sst_raspon_C": 0.8, "sst_promjena_3d_C": -0.1, "upwelling": 0.2, "hladnije_C": 0.1, "izgledi": "osrednji"}}, {"type": "Feature", "geometry": {"type": "Polygon", "coordinates": [[[18.73, 42.275], [18.69, 42.275], [18.685, 42.25], [18.71, 42.235], [18.74, 42.235], [18.745, 42.26], [18.73, 42.275]]]}, "properties": {"score_mean": 36.3, "score_max": 41.7, "area_km2": 19.3, "centroid": [18.7157, 42.2557], "razlog": "termalni front + povoljna dubina", "dubina_panule_m": 12.4, "sst_raspon_C": 0.6, "sst_promjena_3d_C": -0.1, "upwelling": 0.0, "hladnije_C": -0.2, "izgledi": "osrednji"}}, {"type": "Feature", "geometry": {"type": "Polygon", "coordinates": [[[18.92, 42.125], [18.89, 42.125], [18.885, 42.12], [18.885, 42.1], [18.9, 42.075], [18.93, 42.075], [18.935, 42.08], [18.935, 42.11], [18.92, 42.125]]]}, "properties": {"score_mean": 32.1, "score_max": 38.4, "area_km2": 20.2, "centroid": [18.9109, 42.1005], "razlog": "povoljna dubina + termalni front", "dubina_panule_m": 10.3, "sst_raspon_C": 0.3, "sst_promjena_3d_C": -0.4, "upwelling": 0.1, "hladnije_C": 0.1, "izgledi": "osrednji"}}, {"type": "Feature", "geometry": {"type": "Polygon", "coordinates": [[[18.93, 42.045], [18.905, 42.04], [18.905, 42.01], [18.91, 42.005], [18.935, 42.01], [18.935, 42.04], [18.93, 42.045]]]}, "properties": {"score_mean": 29.7, "score_max": 32.3, "area_km2": 11.0, "centroid": [18.92, 42.025], "razlog": "povoljna dubina + termalni front", "dubina_panule_m": 8.7, "sst_raspon_C": 0.5, "sst_promjena_3d_C": -0.3, "upwelling": 0.0, "hladnije_C": -0.1, "izgledi": "osrednji"}}, {"type": "Feature", "geometry": {"type": "Polygon", "coordinates": [[[18.65, 42.345], [18.58, 42.345], [18.575, 42.32], [18.595, 42.31], [18.595, 42.3], [18.61, 42.285], [18.62, 42.285], [18.63, 42.275], [18.66, 42.275], [18.665, 42.28], [18.665, 42.32], [18.65, 42.345]]]}, "properties": {"score_mean": 29.0, "score_max": 36.1, "area_km2": 44.9, "centroid": [18.6251, 42.3137], "razlog": "povoljna dubina + termalni front", "dubina_panule_m": 12.0, "sst_raspon_C": 0.5, "sst_promjena_3d_C": -0.3, "upwelling": 0.0, "hladnije_C": -0.1, "izgledi": "osrednji"}}]}