{"type": "FeatureCollection", "properties": {"vrsta": "sabljarka", "naziv": "Sabljarka", "latinski": "Xiphias gladius", "datum": "2026-08-24", "profil": "duboko, izvan selfa", "panula": {"dubina_m": [15.0, 50.0], "brzina_kn": [1.5, 3.0], "sati": "posljednja tri sata dnevnog svjetla", "granica_dubine_m": 50.0}, "vertikala": {"termoklina_m": 11.9, "termoklina_C_po_m": 0.1, "dcm_m": 91.2, "dcm_odnos": 1.0, "dcm_debljina_m": 38.0, "mld_m": 11.9, "sloj_plijena_m": [64.7, 104.5], "dohvatljivost": 0.0, "objasnjenje": "Termoklina na 12 m. Sloj plijena lezi pretezno ispod 50 m, dakle izvan dohvata panule. Najveca gustina hlorofila je na 91 m (sloj debljine 38 m) - tu se skuplja sitna riba koja se hrani planktonom, pa je i najveca vjerovatnoca da su grabljivice tu negdje."}, "bezbjednost": {"nivo": "crveno", "razlog": "vjetar 17 cv, udari 23 cv", "izlazak_preporucen": false}, "napomena": "Ne lovi se nocu - osim povrsinskim parangalima daleko od obale. Preko dana bez cvrstog pravila, najcesce pred kraj dana.", "razlog_praznog": null}, "features": [{"type": "Feature", "geometry": {"type": "Polygon", "coordinates": [[[19.18, 41.885], [19.15, 41.885], [19.145, 41.86], [19.17, 41.845], [19.19, 41.845], [19.195, 41.87], [19.18, 41.885]]]}, "properties": {"score_mean": 28.9, "score_max": 42.6, "area_km2": 15.7, "centroid": [19.1706, 41.8659], "razlog": "termoklina u dohvatu + prisustvo mamca", "dubina_panule_m": 15.0, "sst_raspon_C": 1.1, "sst_promjena_3d_C": 1.1, "upwelling": 0.0, "hladnije_C": -0.1, "izgledi": "osrednji"}}, {"type": "Feature", "geometry": {"type": "Polygon", "coordinates": [[[19.11, 41.915], [19.085, 41.91], [19.09, 41.885], [19.115, 41.89], [19.11, 41.915]]]}, "properties": {"score_mean": 21.9, "score_max": 40.8, "area_km2": 8.3, "centroid": [19.1, 41.9], "razlog": "termoklina u dohvatu + gradijent hlorofila", "dubina_panule_m": 15.0, "sst_raspon_C": 1.0, "sst_promjena_3d_C": 0.8, "upwelling": 0.0, "hladnije_C": -0.1, "izgledi": "slabi"}}, {"type": "Feature", "geometry": {"type": "Polygon", "coordinates": [[[18.72, 42.255], [18.7, 42.255], [18.685, 42.24], [18.685, 42.21], [18.71, 42.195], [18.735, 42.2], [18.735, 42.24], [18.72, 42.255]]]}, "properties": {"score_mean": 10.0, "score_max": 38.9, "area_km2": 23.9, "centroid": [18.7112, 42.225], "razlog": "termoklina u dohvatu + zora/sumrak", "dubina_panule_m": 15.0, "sst_raspon_C": 0.9, "sst_promjena_3d_C": -0.1, "upwelling": 0.0, "hladnije_C": -0.2, "izgledi": "vrlo slabi"}}, {"type": "Feature", "geometry": {"type": "Polygon", "coordinates": [[[18.99, 42.075], [18.95, 42.075], [18.945, 42.05], [18.95, 42.045], [18.99, 42.045], [18.995, 42.05], [18.99, 42.075]]]}, "properties": {"score_mean": 6.3, "score_max": 24.1, "area_km2": 13.8, "centroid": [18.97, 42.06], "razlog": "zora/sumrak + gradijent hlorofila", "dubina_panule_m": 50.0, "sst_raspon_C": 0.7, "sst_promjena_3d_C": 0.5, "upwelling": 0.0, "hladnije_C": -0.0, "izgledi": "vrlo slabi"}}, {"type": "Feature", "geometry": {"type": "Polygon", "coordinates": [[[18.59, 41.725], [18.565, 41.72], [18.565, 41.69], [18.57, 41.685], [18.595, 41.69], [18.595, 41.72], [18.59, 41.725]]]}, "properties": {"score_mean": 1.6, "score_max": 2.2, "area_km2": 11.1, "centroid": [18.58, 41.705], "razlog": "kanjon + termoklina u dohvatu", "dubina_panule_m": 50.0, "sst_raspon_C": 0.2, "sst_promjena_3d_C": 0.4, "upwelling": 0.0, "hladnije_C": -0.1, "izgledi": "vrlo slabi"}}, {"type": "Feature", "geometry": {"type": "Polygon", "coordinates": [[[18.53, 41.755], [18.505, 41.75], [18.51, 41.725], [18.535, 41.73], [18.53, 41.755]]]}, "properties": {"score_mean": 1.6, "score_max": 2.3, "area_km2": 8.3, "centroid": [18.52, 41.74], "razlog": "kanjon + termoklina u dohvatu", "dubina_panule_m": 50.0, "sst_raspon_C": 0.1, "sst_promjena_3d_C": 0.8, "upwelling": 0.0, "hladnije_C": -0.1, "izgledi": "vrlo slabi"}}]}