{"type": "FeatureCollection", "properties": {"vrsta": "sabljarka", "naziv": "Sabljarka", "latinski": "Xiphias gladius", "datum": "2026-10-06", "profil": "jesenji, uz obalu", "panula": {"dubina_m": [0.0, 30.0], "brzina_kn": [1.5, 3.0], "sati": "posljednja tri sata dnevnog svjetla", "granica_dubine_m": 50.0}, "vertikala": {"termoklina_m": 35.8, "termoklina_C_po_m": 0.1, "dcm_m": 91.2, "dcm_odnos": 1.0, "dcm_debljina_m": 41.6, "mld_m": 16.8, "sloj_plijena_m": [67.1, 107.4], "dohvatljivost": 0.0, "objasnjenje": "Termoklina na 36 m. Sloj plijena lezi pretezno ispod 50 m, dakle izvan dohvata panule. Najveca gustina hlorofila je na 91 m (sloj debljine 42 m) - tu se skuplja sitna riba koja se hrani planktonom, pa je i najveca vjerovatnoca da su grabljivice tu negdje."}, "bezbjednost": {"nivo": "zeleno", "razlog": "uslovi povoljni", "izlazak_preporucen": true}, "napomena": "Septembar i oktobar: prolaze male sabljarke od 5 do 8 kg, relativno ceste, obicno 500 m do 1 km od obale.", "razlog_praznog": null}, "features": [{"type": "Feature", "geometry": {"type": "Polygon", "coordinates": [[[18.94, 42.145], [18.915, 42.14], [18.92, 42.115], [18.945, 42.12], [18.94, 42.145]]]}, "properties": {"score_mean": 41.3, "score_max": 41.9, "area_km2": 8.3, "centroid": [18.93, 42.13], "razlog": "termalni front + povoljna dubina", "dubina_panule_m": 10.6, "sst_raspon_C": 0.9, "sst_promjena_3d_C": -0.7, "upwelling": 0.0, "hladnije_C": 0.0, "izgledi": "dobri"}}, {"type": "Feature", "geometry": {"type": "Polygon", "coordinates": [[[18.73, 42.275], [18.705, 42.27], [18.71, 42.245], [18.735, 42.25], [18.73, 42.275]]]}, "properties": {"score_mean": 32.7, "score_max": 35.3, "area_km2": 8.3, "centroid": [18.72, 42.26], "razlog": "povoljna dubina + termalni front", "dubina_panule_m": 8.5, "sst_raspon_C": 0.4, "sst_promjena_3d_C": -0.4, "upwelling": 0.0, "hladnije_C": -0.1, "izgledi": "osrednji"}}, {"type": "Feature", "geometry": {"type": "Polygon", "coordinates": [[[18.94, 41.995], [18.915, 41.99], [18.915, 41.95], [18.92, 41.945], [18.945, 41.95], [18.945, 41.99], [18.94, 41.995]]]}, "properties": {"score_mean": 18.9, "score_max": 32.2, "area_km2": 13.8, "centroid": [18.93, 41.97], "razlog": "termalni front + povoljna dubina", "dubina_panule_m": 11.1, "sst_raspon_C": 0.5, "sst_promjena_3d_C": 0.2, "upwelling": 0.0, "hladnije_C": -0.3, "izgledi": "slabi"}}]}