{"type": "FeatureCollection", "properties": {"vrsta": "sabljarka", "naziv": "Sabljarka", "latinski": "Xiphias gladius", "datum": "2026-09-27", "profil": "jesenji, uz obalu", "panula": {"dubina_m": [0.0, 30.0], "brzina_kn": [1.5, 3.0], "sati": "posljednja tri sata dnevnog svjetla", "granica_dubine_m": 50.0}, "vertikala": {"termoklina_m": 28.0, "termoklina_C_po_m": 0.2, "dcm_m": 91.2, "dcm_odnos": 1.0, "dcm_debljina_m": 39.6, "mld_m": 18.3, "sloj_plijena_m": [67.7, 104.5], "dohvatljivost": 0.0, "objasnjenje": "Termoklina na 28 m. Sloj plijena lezi pretezno ispod 50 m, dakle izvan dohvata panule. Najveca gustina hlorofila je na 91 m (sloj debljine 40 m) - tu se skuplja sitna riba koja se hrani planktonom, pa je i najveca vjerovatnoca da su grabljivice tu negdje."}, "bezbjednost": {"nivo": "zuto", "razlog": "talasi do 1.3 m", "izlazak_preporucen": true}, "napomena": "Septembar i oktobar: prolaze male sabljarke od 5 do 8 kg, relativno ceste, obicno 500 m do 1 km od obale.", "razlog_praznog": null}, "features": [{"type": "Feature", "geometry": {"type": "Polygon", "coordinates": [[[19.06, 42.005], [19.03, 42.005], [19.025, 42.0], [19.025, 41.97], [19.04, 41.955], [19.065, 41.96], [19.065, 42.0], [19.06, 42.005]]]}, "properties": {"score_mean": 46.0, "score_max": 46.9, "area_km2": 17.5, "centroid": [19.0458, 41.9811], "razlog": "termalni front + povoljna dubina", "dubina_panule_m": 8.0, "sst_raspon_C": 0.8, "sst_promjena_3d_C": 0.1, "upwelling": 0.0, "hladnije_C": 0.1, "izgledi": "dobri"}}, {"type": "Feature", "geometry": {"type": "Polygon", "coordinates": [[[18.7, 42.315], [18.67, 42.315], [18.665, 42.31], [18.665, 42.28], [18.68, 42.265], [18.695, 42.26], [18.71, 42.225], [18.74, 42.225], [18.745, 42.23], [18.745, 42.27], [18.74, 42.275], [18.71, 42.275], [18.7, 42.315]]]}, "properties": {"score_mean": 41.2, "score_max": 77.5, "area_km2": 37.6, "centroid": [18.7056, 42.2693], "razlog": "termalni front + povoljna dubina", "dubina_panule_m": 7.1, "sst_raspon_C": 0.6, "sst_promjena_3d_C": -0.4, "upwelling": 0.0, "hladnije_C": 0.0, "izgledi": "dobri"}}, {"type": "Feature", "geometry": {"type": "Polygon", "coordinates": [[[18.945, 42.06], [18.92, 42.065], [18.9, 42.045], [18.885, 42.04], [18.885, 41.99], [18.89, 41.985], [18.94, 41.985], [18.945, 41.99], [18.945, 42.06]]]}, "properties": {"score_mean": 39.6, "score_max": 41.9, "area_km2": 39.6, "centroid": [18.917, 42.0214], "razlog": "povoljna dubina + prisustvo mamca", "dubina_panule_m": 9.0, "sst_raspon_C": 0.2, "sst_promjena_3d_C": -0.6, "upwelling": 0.0, "hladnije_C": 0.0, "izgledi": "osrednji"}}]}