{"type": "FeatureCollection", "properties": {"vrsta": "sabljarka", "naziv": "Sabljarka", "latinski": "Xiphias gladius", "datum": "2026-09-17", "profil": "jesenji, uz obalu", "panula": {"dubina_m": [0.0, 30.0], "brzina_kn": [1.5, 3.0], "sati": "posljednja tri sata dnevnog svjetla", "granica_dubine_m": 50.0}, "vertikala": {"termoklina_m": 28.0, "termoklina_C_po_m": 0.2, "dcm_m": 97.9, "dcm_odnos": 1.0, "dcm_debljina_m": 36.6, "mld_m": 16.2, "sloj_plijena_m": [57.8, 104.5], "dohvatljivost": 0.0, "objasnjenje": "Termoklina na 28 m. Sloj plijena lezi pretezno ispod 50 m, dakle izvan dohvata panule. Najveca gustina hlorofila je na 98 m (sloj debljine 37 m) - tu se skuplja sitna riba koja se hrani planktonom, pa je i najveca vjerovatnoca da su grabljivice tu negdje."}, "bezbjednost": {"nivo": "zeleno", "razlog": "uslovi povoljni", "izlazak_preporucen": true}, "napomena": "Septembar i oktobar: prolaze male sabljarke od 5 do 8 kg, relativno ceste, obicno 500 m do 1 km od obale.", "razlog_praznog": null}, "features": [{"type": "Feature", "geometry": {"type": "Polygon", "coordinates": [[[19.1, 41.935], [19.075, 41.93], [19.08, 41.905], [19.105, 41.91], [19.1, 41.935]]]}, "properties": {"score_mean": 43.6, "score_max": 50.6, "area_km2": 8.3, "centroid": [19.09, 41.92], "razlog": "povoljna dubina + prisustvo mamca", "dubina_panule_m": 7.6, "sst_raspon_C": 0.3, "sst_promjena_3d_C": -0.1, "upwelling": 0.3, "hladnije_C": 0.1, "izgledi": "dobri"}}, {"type": "Feature", "geometry": {"type": "Polygon", "coordinates": [[[18.93, 42.025], [18.9, 42.025], [18.895, 42.02], [18.895, 42.01], [18.865, 41.98], [18.87, 41.955], [18.89, 41.955], [18.9, 41.945], [18.94, 41.945], [18.945, 41.95], [18.945, 42.0], [18.93, 42.025]]]}, "properties": {"score_mean": 34.0, "score_max": 38.3, "area_km2": 46.1, "centroid": [18.91, 41.9816], "razlog": "termalni front + povoljna dubina", "dubina_panule_m": 12.6, "sst_raspon_C": 0.6, "sst_promjena_3d_C": -0.1, "upwelling": 0.0, "hladnije_C": 0.0, "izgledi": "osrednji"}}, {"type": "Feature", "geometry": {"type": "Polygon", "coordinates": [[[18.73, 42.265], [18.705, 42.26], [18.71, 42.235], [18.735, 42.24], [18.73, 42.265]]]}, "properties": {"score_mean": 28.7, "score_max": 29.4, "area_km2": 8.3, "centroid": [18.72, 42.25], "razlog": "termalni front + povoljna dubina", "dubina_panule_m": 30.0, "sst_raspon_C": 0.5, "sst_promjena_3d_C": -0.0, "upwelling": 0.0, "hladnije_C": -0.1, "izgledi": "osrednji"}}, {"type": "Feature", "geometry": {"type": "Polygon", "coordinates": [[[18.7, 42.305], [18.675, 42.3], [18.68, 42.275], [18.705, 42.28], [18.7, 42.305]]]}, "properties": {"score_mean": 28.7, "score_max": 29.8, "area_km2": 8.3, "centroid": [18.69, 42.29], "razlog": "termalni front + povoljna dubina", "dubina_panule_m": 8.3, "sst_raspon_C": 0.6, "sst_promjena_3d_C": 0.0, "upwelling": 0.0, "hladnije_C": -0.2, "izgledi": "osrednji"}}]}