{"type": "FeatureCollection", "properties": {"vrsta": "sabljarka", "naziv": "Sabljarka", "latinski": "Xiphias gladius", "datum": "2026-08-28", "profil": "duboko, izvan selfa", "panula": {"dubina_m": [15.0, 50.0], "brzina_kn": [1.5, 3.0], "sati": "posljednja tri sata dnevnog svjetla", "granica_dubine_m": 50.0}, "vertikala": {"termoklina_m": 11.9, "termoklina_C_po_m": 0.2, "dcm_m": 91.2, "dcm_odnos": 1.0, "dcm_debljina_m": 31.0, "mld_m": 11.9, "sloj_plijena_m": [64.8, 100.5], "dohvatljivost": 0.0, "objasnjenje": "Termoklina na 12 m. Sloj plijena lezi pretezno ispod 50 m, dakle izvan dohvata panule. Najveca gustina hlorofila je na 91 m (sloj debljine 31 m) - tu se skuplja sitna riba koja se hrani planktonom, pa je i najveca vjerovatnoca da su grabljivice tu negdje."}, "bezbjednost": {"nivo": "zeleno", "razlog": "uslovi povoljni", "izlazak_preporucen": true}, "napomena": "Ne lovi se nocu - osim povrsinskim parangalima daleko od obale. Preko dana bez cvrstog pravila, najcesce pred kraj dana.", "razlog_praznog": null}, "features": [{"type": "Feature", "geometry": {"type": "Polygon", "coordinates": [[[19.25, 41.855], [19.225, 41.85], [19.225, 41.82], [19.23, 41.815], [19.255, 41.82], [19.255, 41.85], [19.25, 41.855]]]}, "properties": {"score_mean": 40.7, "score_max": 48.5, "area_km2": 11.1, "centroid": [19.24, 41.835], "razlog": "termoklina u dohvatu + prisustvo mamca", "dubina_panule_m": 15.0, "sst_raspon_C": 0.6, "sst_promjena_3d_C": -0.3, "upwelling": 0.1, "hladnije_C": 0.0, "izgledi": "dobri"}}, {"type": "Feature", "geometry": {"type": "Polygon", "coordinates": [[[19.2, 41.855], [19.175, 41.85], [19.18, 41.825], [19.205, 41.83], [19.2, 41.855]]]}, "properties": {"score_mean": 29.8, "score_max": 38.3, "area_km2": 8.3, "centroid": [19.19, 41.84], "razlog": "termoklina u dohvatu + zora/sumrak", "dubina_panule_m": 15.0, "sst_raspon_C": 0.5, "sst_promjena_3d_C": -0.4, "upwelling": 0.0, "hladnije_C": -0.1, "izgledi": "osrednji"}}, {"type": "Feature", "geometry": {"type": "Polygon", "coordinates": [[[19.06, 41.955], [19.03, 41.955], [19.025, 41.93], [19.03, 41.925], [19.06, 41.925], [19.065, 41.93], [19.06, 41.955]]]}, "properties": {"score_mean": 13.7, "score_max": 42.5, "area_km2": 11.1, "centroid": [19.045, 41.94], "razlog": "termoklina u dohvatu + gradijent hlorofila", "dubina_panule_m": 50.0, "sst_raspon_C": 0.4, "sst_promjena_3d_C": -0.5, "upwelling": 0.0, "hladnije_C": -0.1, "izgledi": "slabi"}}, {"type": "Feature", "geometry": {"type": "Polygon", "coordinates": [[[19.1, 41.915], [19.075, 41.91], [19.075, 41.88], [19.09, 41.875], [19.11, 41.855], [19.13, 41.855], [19.135, 41.86], [19.135, 41.89], [19.11, 41.895], [19.1, 41.915]]]}, "properties": {"score_mean": 13.0, "score_max": 41.6, "area_km2": 23.1, "centroid": [19.1048, 41.8844], "razlog": "termoklina u dohvatu + zora/sumrak", "dubina_panule_m": 50.0, "sst_raspon_C": 0.3, "sst_promjena_3d_C": -0.6, "upwelling": 0.0, "hladnije_C": -0.0, "izgledi": "slabi"}}]}