{"type": "FeatureCollection", "properties": {"vrsta": "sabljarka", "naziv": "Sabljarka", "latinski": "Xiphias gladius", "datum": "2026-09-30", "profil": "jesenji, uz obalu", "panula": {"dubina_m": [0.0, 30.0], "brzina_kn": [1.5, 3.0], "sati": "posljednja tri sata dnevnog svjetla", "granica_dubine_m": 50.0}, "vertikala": {"termoklina_m": 35.8, "termoklina_C_po_m": 0.1, "dcm_m": 97.9, "dcm_odnos": 1.0, "dcm_debljina_m": 39.6, "mld_m": 18.6, "sloj_plijena_m": [71.6, 111.8], "dohvatljivost": 0.0, "objasnjenje": "Termoklina na 36 m. Sloj plijena lezi pretezno ispod 50 m, dakle izvan dohvata panule. Najveca gustina hlorofila je na 98 m (sloj debljine 40 m) - tu se skuplja sitna riba koja se hrani planktonom, pa je i najveca vjerovatnoca da su grabljivice tu negdje."}, "bezbjednost": {"nivo": "zuto", "razlog": "vjetar 14 cv", "izlazak_preporucen": true}, "napomena": "Septembar i oktobar: prolaze male sabljarke od 5 do 8 kg, relativno ceste, obicno 500 m do 1 km od obale.", "razlog_praznog": null}, "features": [{"type": "Feature", "geometry": {"type": "Polygon", "coordinates": [[[18.87, 42.225], [18.84, 42.225], [18.835, 42.22], [18.835, 42.19], [18.84, 42.185], [18.87, 42.185], [18.875, 42.19], [18.875, 42.22], [18.87, 42.225]]]}, "properties": {"score_mean": 47.7, "score_max": 49.8, "area_km2": 14.7, "centroid": [18.855, 42.205], "razlog": "termalni front + povoljna dubina", "dubina_panule_m": 9.1, "sst_raspon_C": 1.2, "sst_promjena_3d_C": -0.1, "upwelling": 0.3, "hladnije_C": 0.2, "izgledi": "dobri"}}, {"type": "Feature", "geometry": {"type": "Polygon", "coordinates": [[[19.02, 42.075], [18.98, 42.075], [18.97, 42.065], [18.95, 42.065], [18.945, 42.06], [18.945, 42.03], [18.95, 42.025], [18.98, 42.025], [19.01, 42.005], [19.04, 42.005], [19.045, 42.01], [19.045, 42.04], [19.025, 42.06], [19.02, 42.075]]]}, "properties": {"score_mean": 47.5, "score_max": 50.0, "area_km2": 47.9, "centroid": [18.9977, 42.0412], "razlog": "termalni front + povoljna dubina", "dubina_panule_m": 8.6, "sst_raspon_C": 0.9, "sst_promjena_3d_C": -0.3, "upwelling": 0.2, "hladnije_C": 0.1, "izgledi": "dobri"}}, {"type": "Feature", "geometry": {"type": "Polygon", "coordinates": [[[18.7, 42.315], [18.67, 42.315], [18.665, 42.31], [18.665, 42.28], [18.695, 42.27], [18.695, 42.25], [18.71, 42.225], [18.74, 42.225], [18.745, 42.23], [18.745, 42.27], [18.74, 42.275], [18.71, 42.275], [18.7, 42.315]]]}, "properties": {"score_mean": 43.7, "score_max": 75.2, "area_km2": 35.8, "centroid": [18.7067, 42.2692], "razlog": "termalni front + povoljna dubina", "dubina_panule_m": 8.8, "sst_raspon_C": 0.9, "sst_promjena_3d_C": 0.1, "upwelling": 0.0, "hladnije_C": -0.4, "izgledi": "dobri"}}]}