{"type": "FeatureCollection", "properties": {"vrsta": "sabljarka", "naziv": "Sabljarka", "latinski": "Xiphias gladius", "datum": "2026-09-01", "profil": "jesenji, uz obalu", "panula": {"dubina_m": [0.0, 30.0], "brzina_kn": [1.5, 3.0], "sati": "posljednja tri sata dnevnog svjetla", "granica_dubine_m": 50.0}, "vertikala": {"termoklina_m": 11.9, "termoklina_C_po_m": 0.3, "dcm_m": 91.2, "dcm_odnos": 1.0, "dcm_debljina_m": 31.0, "mld_m": 11.9, "sloj_plijena_m": [67.1, 100.5], "dohvatljivost": 0.0, "objasnjenje": "Termoklina na 12 m. Sloj plijena lezi pretezno ispod 50 m, dakle izvan dohvata panule. Najveca gustina hlorofila je na 91 m (sloj debljine 31 m) - tu se skuplja sitna riba koja se hrani planktonom, pa je i najveca vjerovatnoca da su grabljivice tu negdje."}, "bezbjednost": {"nivo": "zuto", "razlog": "vjetar 14 cv", "izlazak_preporucen": true}, "napomena": "Septembar i oktobar: prolaze male sabljarke od 5 do 8 kg, relativno ceste, obicno 500 m do 1 km od obale.", "razlog_praznog": null}, "features": [{"type": "Feature", "geometry": {"type": "Polygon", "coordinates": [[[19.08, 42.045], [19.055, 42.04], [19.055, 41.96], [19.09, 41.925], [19.11, 41.925], [19.115, 41.93], [19.115, 42.01], [19.1, 42.025], [19.085, 42.03], [19.08, 42.045]]]}, "properties": {"score_mean": 27.4, "score_max": 34.3, "area_km2": 54.3, "centroid": [19.0849, 41.9842], "razlog": "termalni front + prisustvo mamca", "dubina_panule_m": 7.1, "sst_raspon_C": 0.5, "sst_promjena_3d_C": -0.2, "upwelling": 0.7, "hladnije_C": 0.5, "izgledi": "osrednji"}}, {"type": "Feature", "geometry": {"type": "Polygon", "coordinates": [[[18.7, 42.305], [18.675, 42.3], [18.68, 42.275], [18.705, 42.28], [18.7, 42.305]]]}, "properties": {"score_mean": 16.4, "score_max": 16.8, "area_km2": 8.3, "centroid": [18.69, 42.29], "razlog": "povoljna dubina + zora/sumrak", "dubina_panule_m": 7.1, "sst_raspon_C": 0.3, "sst_promjena_3d_C": 0.4, "upwelling": 0.0, "hladnije_C": 0.0, "izgledi": "slabi"}}, {"type": "Feature", "geometry": {"type": "Polygon", "coordinates": [[[18.9, 42.185], [18.875, 42.18], [18.875, 42.15], [18.9, 42.145], [18.905, 42.12], [18.92, 42.105], [18.94, 42.105], [18.945, 42.11], [18.945, 42.14], [18.915, 42.15], [18.915, 42.17], [18.9, 42.185]]]}, "properties": {"score_mean": 16.1, "score_max": 20.9, "area_km2": 27.6, "centroid": [18.91, 42.145], "razlog": "povoljna dubina + termalni front", "dubina_panule_m": 30.0, "sst_raspon_C": 0.6, "sst_promjena_3d_C": 0.5, "upwelling": 0.0, "hladnije_C": -0.1, "izgledi": "slabi"}}, {"type": "Feature", "geometry": {"type": "Polygon", "coordinates": [[[18.86, 42.225], [18.835, 42.22], [18.835, 42.19], [18.84, 42.185], [18.87, 42.185], [18.875, 42.19], [18.875, 42.21], [18.86, 42.225]]]}, "properties": {"score_mean": 15.8, "score_max": 17.5, "area_km2": 13.8, "centroid": [18.854, 42.204], "razlog": "povoljna dubina + termalni front", "dubina_panule_m": 30.0, "sst_raspon_C": 0.5, "sst_promjena_3d_C": 0.7, "upwelling": 0.0, "hladnije_C": -0.2, "izgledi": "slabi"}}, {"type": "Feature", "geometry": {"type": "Polygon", "coordinates": [[[18.73, 42.275], [18.705, 42.27], [18.705, 42.24], [18.71, 42.235], [18.74, 42.235], [18.745, 42.24], [18.745, 42.26], [18.73, 42.275]]]}, "properties": {"score_mean": 14.7, "score_max": 15.3, "area_km2": 13.8, "centroid": [18.724, 42.254], "razlog": "povoljna dubina + zora/sumrak", "dubina_panule_m": 30.0, "sst_raspon_C": 0.2, "sst_promjena_3d_C": 0.4, "upwelling": 0.0, "hladnije_C": 0.1, "izgledi": "slabi"}}]}