{"type": "FeatureCollection", "properties": {"vrsta": "sabljarka", "naziv": "Sabljarka", "latinski": "Xiphias gladius", "datum": "2026-08-27", "profil": "duboko, izvan selfa", "panula": {"dubina_m": [15.0, 50.0], "brzina_kn": [1.5, 3.0], "sati": "posljednja tri sata dnevnog svjetla", "granica_dubine_m": 50.0}, "vertikala": {"termoklina_m": 11.9, "termoklina_C_po_m": 0.1, "dcm_m": 91.2, "dcm_odnos": 1.4, "dcm_debljina_m": 32.3, "mld_m": 11.9, "sloj_plijena_m": [64.7, 100.5], "dohvatljivost": 0.0, "objasnjenje": "Termoklina na 12 m. Sloj plijena lezi pretezno ispod 50 m, dakle izvan dohvata panule. Najveca gustina hlorofila je na 91 m (sloj debljine 32 m) - tu se skuplja sitna riba koja se hrani planktonom, pa je i najveca vjerovatnoca da su grabljivice tu negdje."}, "bezbjednost": {"nivo": "zuto", "razlog": "vjetar 12 cv", "izlazak_preporucen": true}, "napomena": "Ne lovi se nocu - osim povrsinskim parangalima daleko od obale. Preko dana bez cvrstog pravila, najcesce pred kraj dana.", "razlog_praznog": null}, "features": [{"type": "Feature", "geometry": {"type": "Polygon", "coordinates": [[[19.18, 41.885], [19.15, 41.885], [19.145, 41.86], [19.17, 41.845], [19.19, 41.845], [19.195, 41.87], [19.18, 41.885]]]}, "properties": {"score_mean": 27.7, "score_max": 38.2, "area_km2": 15.7, "centroid": [19.1706, 41.8659], "razlog": "termoklina u dohvatu + prisustvo mamca", "dubina_panule_m": 29.9, "sst_raspon_C": 0.9, "sst_promjena_3d_C": 0.0, "upwelling": 0.0, "hladnije_C": -0.1, "izgledi": "osrednji"}}, {"type": "Feature", "geometry": {"type": "Polygon", "coordinates": [[[19.11, 41.915], [19.085, 41.91], [19.09, 41.885], [19.115, 41.89], [19.11, 41.915]]]}, "properties": {"score_mean": 21.7, "score_max": 38.3, "area_km2": 8.3, "centroid": [19.1, 41.9], "razlog": "gradijent hlorofila + termoklina u dohvatu", "dubina_panule_m": 33.8, "sst_raspon_C": 0.8, "sst_promjena_3d_C": 0.0, "upwelling": 0.1, "hladnije_C": 0.0, "izgledi": "slabi"}}, {"type": "Feature", "geometry": {"type": "Polygon", "coordinates": [[[18.72, 42.255], [18.7, 42.255], [18.685, 42.24], [18.685, 42.21], [18.71, 42.195], [18.735, 42.2], [18.735, 42.24], [18.72, 42.255]]]}, "properties": {"score_mean": 9.9, "score_max": 36.5, "area_km2": 23.9, "centroid": [18.7112, 42.225], "razlog": "zora/sumrak + termoklina u dohvatu", "dubina_panule_m": 15.0, "sst_raspon_C": 0.6, "sst_promjena_3d_C": 0.0, "upwelling": 0.3, "hladnije_C": 0.1, "izgledi": "vrlo slabi"}}, {"type": "Feature", "geometry": {"type": "Polygon", "coordinates": [[[18.99, 42.075], [18.94, 42.075], [18.93, 42.055], [18.91, 42.055], [18.9, 42.065], [18.85, 42.065], [18.845, 42.06], [18.845, 42.03], [18.88, 42.005], [18.9, 42.005], [18.92, 42.045], [18.99, 42.045], [18.995, 42.05], [18.99, 42.075]]]}, "properties": {"score_mean": 2.0, "score_max": 14.3, "area_km2": 50.6, "centroid": [18.9095, 42.0456], "razlog": "termoklina u dohvatu + zora/sumrak", "dubina_panule_m": 50.0, "sst_raspon_C": 0.4, "sst_promjena_3d_C": 0.0, "upwelling": 0.0, "hladnije_C": -0.1, "izgledi": "vrlo slabi"}}, {"type": "Feature", "geometry": {"type": "Polygon", "coordinates": [[[18.58, 41.675], [18.56, 41.675], [18.55, 41.655], [18.49, 41.655], [18.485, 41.63], [18.49, 41.625], [18.55, 41.625], [18.56, 41.645], [18.585, 41.65], [18.58, 41.675]]]}, "properties": {"score_mean": 1.4, "score_max": 1.7, "area_km2": 27.8, "centroid": [18.535, 41.646], "razlog": "kanjon + termoklina u dohvatu", "dubina_panule_m": 50.0, "sst_raspon_C": 0.2, "sst_promjena_3d_C": 0.0, "upwelling": 0.0, "hladnije_C": -0.1, "izgledi": "vrlo slabi"}}]}