{"type": "FeatureCollection", "properties": {"vrsta": "sabljarka", "naziv": "Sabljarka", "latinski": "Xiphias gladius", "datum": "2026-09-23", "profil": "jesenji, uz obalu", "panula": {"dubina_m": [0.0, 30.0], "brzina_kn": [1.5, 3.0], "sati": "posljednja tri sata dnevnog svjetla", "granica_dubine_m": 50.0}, "vertikala": {"termoklina_m": 28.0, "termoklina_C_po_m": 0.2, "dcm_m": 97.9, "dcm_odnos": 1.0, "dcm_debljina_m": 39.8, "mld_m": 20.7, "sloj_plijena_m": [61.2, 109.0], "dohvatljivost": 0.0, "objasnjenje": "Termoklina na 28 m. Sloj plijena lezi pretezno ispod 50 m, dakle izvan dohvata panule. Najveca gustina hlorofila je na 98 m (sloj debljine 40 m) - tu se skuplja sitna riba koja se hrani planktonom, pa je i najveca vjerovatnoca da su grabljivice tu negdje."}, "bezbjednost": {"nivo": "crveno", "razlog": "talasi do 1.6 m, vjetar 16 cv, udari 26 cv", "izlazak_preporucen": false}, "napomena": "Septembar i oktobar: prolaze male sabljarke od 5 do 8 kg, relativno ceste, obicno 500 m do 1 km od obale.", "razlog_praznog": null}, "features": [{"type": "Feature", "geometry": {"type": "Polygon", "coordinates": [[[19.09, 41.965], [19.065, 41.96], [19.065, 41.9], [19.09, 41.875], [19.11, 41.875], [19.12, 41.855], [19.14, 41.855], [19.145, 41.88], [19.115, 41.89], [19.115, 41.93], [19.09, 41.965]]]}, "properties": {"score_mean": 43.5, "score_max": 50.1, "area_km2": 43.3, "centroid": [19.0972, 41.91], "razlog": "povoljna dubina + termalni front", "dubina_panule_m": 9.4, "sst_raspon_C": 0.6, "sst_promjena_3d_C": 0.3, "upwelling": 0.0, "hladnije_C": 0.1, "izgledi": "dobri"}}, {"type": "Feature", "geometry": {"type": "Polygon", "coordinates": [[[18.7, 42.315], [18.675, 42.31], [18.675, 42.28], [18.68, 42.275], [18.705, 42.28], [18.705, 42.31], [18.7, 42.315]]]}, "properties": {"score_mean": 38.7, "score_max": 62.2, "area_km2": 11.0, "centroid": [18.69, 42.295], "razlog": "povoljna dubina + prisustvo mamca", "dubina_panule_m": 8.5, "sst_raspon_C": 0.2, "sst_promjena_3d_C": -0.0, "upwelling": 0.0, "hladnije_C": 0.0, "izgledi": "osrednji"}}, {"type": "Feature", "geometry": {"type": "Polygon", "coordinates": [[[18.81, 42.075], [18.785, 42.07], [18.79, 42.045], [18.815, 42.05], [18.81, 42.075]]]}, "properties": {"score_mean": 35.4, "score_max": 37.5, "area_km2": 8.3, "centroid": [18.8, 42.06], "razlog": "povoljna dubina + prisustvo mamca", "dubina_panule_m": 14.2, "sst_raspon_C": 0.2, "sst_promjena_3d_C": 0.2, "upwelling": 0.1, "hladnije_C": 0.1, "izgledi": "osrednji"}}, {"type": "Feature", "geometry": {"type": "Polygon", "coordinates": [[[18.73, 42.275], [18.705, 42.27], [18.705, 42.24], [18.71, 42.235], [18.74, 42.235], [18.745, 42.24], [18.745, 42.26], [18.73, 42.275]]]}, "properties": {"score_mean": 33.0, "score_max": 35.5, "area_km2": 13.8, "centroid": [18.724, 42.254], "razlog": "povoljna dubina + prisustvo mamca", "dubina_panule_m": 8.8, "sst_raspon_C": 0.2, "sst_promjena_3d_C": 0.1, "upwelling": 0.0, "hladnije_C": 0.0, "izgledi": "osrednji"}}, {"type": "Feature", "geometry": {"type": "Polygon", "coordinates": [[[18.92, 42.025], [18.895, 42.02], [18.895, 41.99], [18.92, 41.955], [18.94, 41.955], [18.945, 41.96], [18.945, 42.01], [18.92, 42.025]]]}, "properties": {"score_mean": 32.8, "score_max": 36.3, "area_km2": 26.7, "centroid": [18.9214, 41.991], "razlog": "povoljna dubina + zora/sumrak", "dubina_panule_m": 10.6, "sst_raspon_C": 0.1, "sst_promjena_3d_C": 0.6, "upwelling": 0.0, "hladnije_C": -0.0, "izgledi": "osrednji"}}, {"type": "Feature", "geometry": {"type": "Polygon", "coordinates": [[[18.89, 42.165], [18.87, 42.165], [18.865, 42.14], [18.885, 42.13], [18.895, 42.1], [18.91, 42.085], [18.94, 42.085], [18.945, 42.09], [18.945, 42.12], [18.93, 42.135], [18.9, 42.145], [18.89, 42.165]]]}, "properties": {"score_mean": 30.5, "score_max": 36.9, "area_km2": 33.1, "centroid": [18.9075, 42.1225], "razlog": "povoljna dubina + zora/sumrak", "dubina_panule_m": 9.5, "sst_raspon_C": 0.2, "sst_promjena_3d_C": 0.1, "upwelling": 0.0, "hladnije_C": 0.1, "izgledi": "osrednji"}}]}