{"type": "FeatureCollection", "properties": {"vrsta": "strelka", "naziv": "Strelka", "latinski": "Pomatomus saltatrix", "datum": "2026-08-27", "profil": "ljetnji, otvoreno more", "panula": {"dubina_m": [0.0, 25.0], "brzina_kn": [3.0, 5.0], "sati": "zora i sumrak", "granica_dubine_m": 50.0}, "vertikala": {"termoklina_m": 11.9, "termoklina_C_po_m": 0.1, "dcm_m": 91.2, "dcm_odnos": 1.0, "dcm_debljina_m": 32.3, "mld_m": 11.9, "sloj_plijena_m": [64.7, 100.5], "dohvatljivost": 0.0, "objasnjenje": "Termoklina na 12 m. Sloj plijena lezi pretezno ispod 50 m, dakle izvan dohvata panule. Najveca gustina hlorofila je na 91 m (sloj debljine 32 m) - tu se skuplja sitna riba koja se hrani planktonom, pa je i najveca vjerovatnoca da su grabljivice tu negdje."}, "bezbjednost": {"nivo": "crveno", "razlog": "vjetar 17 cv, udari 22 cv", "izlazak_preporucen": false}, "napomena": "Ljeti ne ide uz obalu nego prati mamac na otvorenom.", "razlog_praznog": null}, "features": [{"type": "Feature", "geometry": {"type": "Polygon", "coordinates": [[[18.86, 42.215], [18.835, 42.21], [18.84, 42.185], [18.865, 42.19], [18.86, 42.215]]]}, "properties": {"score_mean": 53.0, "score_max": 54.1, "area_km2": 8.3, "centroid": [18.85, 42.2], "razlog": "prisustvo mamca + termalni front", "dubina_panule_m": 7.1, "sst_raspon_C": 0.7, "sst_promjena_3d_C": -0.3, "upwelling": 0.5, "hladnije_C": 0.3, "izgledi": "dobri"}}, {"type": "Feature", "geometry": {"type": "Polygon", "coordinates": [[[18.9, 42.175], [18.875, 42.17], [18.88, 42.145], [18.905, 42.15], [18.9, 42.175]]]}, "properties": {"score_mean": 51.8, "score_max": 55.5, "area_km2": 8.3, "centroid": [18.89, 42.16], "razlog": "prisustvo mamca + termalni front", "dubina_panule_m": 7.1, "sst_raspon_C": 0.8, "sst_promjena_3d_C": -0.1, "upwelling": 0.3, "hladnije_C": 0.3, "izgledi": "dobri"}}, {"type": "Feature", "geometry": {"type": "Polygon", "coordinates": [[[19.08, 42.015], [19.055, 42.01], [19.055, 41.96], [19.08, 41.935], [19.1, 41.935], [19.105, 41.94], [19.105, 41.99], [19.08, 42.015]]]}, "properties": {"score_mean": 48.1, "score_max": 54.1, "area_km2": 31.3, "centroid": [19.08, 41.975], "razlog": "prisustvo mamca + povoljna dubina", "dubina_panule_m": 7.1, "sst_raspon_C": 0.5, "sst_promjena_3d_C": -0.2, "upwelling": 0.3, "hladnije_C": 0.1, "izgledi": "dobri"}}, {"type": "Feature", "geometry": {"type": "Polygon", "coordinates": [[[19.22, 41.875], [19.19, 41.875], [19.185, 41.85], [19.22, 41.815], [19.23, 41.815], [19.24, 41.805], [19.27, 41.805], [19.275, 41.83], [19.24, 41.845], [19.235, 41.86], [19.22, 41.875]]]}, "properties": {"score_mean": 44.8, "score_max": 53.6, "area_km2": 34.2, "centroid": [19.2281, 41.8389], "razlog": "termalni front + povoljna dubina", "dubina_panule_m": 7.1, "sst_raspon_C": 0.7, "sst_promjena_3d_C": -0.4, "upwelling": 0.0, "hladnije_C": 0.2, "izgledi": "dobri"}}, {"type": "Feature", "geometry": {"type": "Polygon", "coordinates": [[[19.02, 42.095], [18.995, 42.09], [19.0, 42.065], [19.025, 42.07], [19.02, 42.095]]]}, "properties": {"score_mean": 42.8, "score_max": 48.3, "area_km2": 8.3, "centroid": [19.01, 42.08], "razlog": "termalni front + prisustvo mamca", "dubina_panule_m": 7.1, "sst_raspon_C": 1.0, "sst_promjena_3d_C": 0.3, "upwelling": 0.1, "hladnije_C": 0.0, "izgledi": "dobri"}}, {"type": "Feature", "geometry": {"type": "Polygon", "coordinates": [[[18.69, 42.305], [18.665, 42.3], [18.665, 42.27], [18.67, 42.265], [18.695, 42.27], [18.695, 42.3], [18.69, 42.305]]]}, "properties": {"score_mean": 38.3, "score_max": 52.4, "area_km2": 11.0, "centroid": [18.68, 42.285], "razlog": "termalni front + povoljna dubina", "dubina_panule_m": 7.1, "sst_raspon_C": 0.5, "sst_promjena_3d_C": -0.1, "upwelling": 0.0, "hladnije_C": 0.2, "izgledi": "osrednji"}}]}