{"type": "FeatureCollection", "properties": {"vrsta": "strelka", "naziv": "Strelka", "latinski": "Pomatomus saltatrix", "datum": "2026-09-24", "profil": "ljetnji, otvoreno more", "panula": {"dubina_m": [0.0, 25.0], "brzina_kn": [3.0, 5.0], "sati": "zora i sumrak", "granica_dubine_m": 50.0}, "vertikala": {"termoklina_m": 31.8, "termoklina_C_po_m": 0.2, "dcm_m": 97.9, "dcm_odnos": 1.0, "dcm_debljina_m": 41.3, "mld_m": 20.3, "sloj_plijena_m": [64.8, 108.5], "dohvatljivost": 0.0, "objasnjenje": "Termoklina na 32 m. Sloj plijena lezi pretezno ispod 50 m, dakle izvan dohvata panule. Najveca gustina hlorofila je na 98 m (sloj debljine 41 m) - tu se skuplja sitna riba koja se hrani planktonom, pa je i najveca vjerovatnoca da su grabljivice tu negdje."}, "bezbjednost": {"nivo": "crveno", "razlog": "vjetar 16 cv, udari 26 cv", "izlazak_preporucen": false}, "napomena": "Ljeti ne ide uz obalu nego prati mamac na otvorenom.", "razlog_praznog": null}, "features": [{"type": "Feature", "geometry": {"type": "Polygon", "coordinates": [[[19.09, 41.965], [19.065, 41.96], [19.065, 41.92], [19.08, 41.905], [19.105, 41.91], [19.105, 41.93], [19.095, 41.94], [19.09, 41.965]]]}, "properties": {"score_mean": 51.9, "score_max": 57.3, "area_km2": 18.4, "centroid": [19.0835, 41.934], "razlog": "povoljna dubina + prisustvo mamca", "dubina_panule_m": 8.6, "sst_raspon_C": 0.5, "sst_promjena_3d_C": 0.3, "upwelling": 0.0, "hladnije_C": -0.0, "izgledi": "dobri"}}, {"type": "Feature", "geometry": {"type": "Polygon", "coordinates": [[[18.78, 42.045], [18.755, 42.04], [18.755, 42.02], [18.77, 42.005], [18.795, 42.01], [18.795, 42.03], [18.78, 42.045]]]}, "properties": {"score_mean": 43.4, "score_max": 49.0, "area_km2": 12.9, "centroid": [18.775, 42.025], "razlog": "povoljna dubina + prisustvo mamca", "dubina_panule_m": 15.4, "sst_raspon_C": 0.4, "sst_promjena_3d_C": 0.3, "upwelling": 0.0, "hladnije_C": 0.1, "izgledi": "dobri"}}, {"type": "Feature", "geometry": {"type": "Polygon", "coordinates": [[[18.94, 42.055], [18.9, 42.055], [18.875, 42.03], [18.875, 41.99], [18.88, 41.985], [18.89, 41.985], [18.9, 41.975], [18.94, 41.975], [18.945, 41.98], [18.945, 42.05], [18.94, 42.055]]]}, "properties": {"score_mean": 40.4, "score_max": 44.7, "area_km2": 47.0, "centroid": [18.9125, 42.0145], "razlog": "povoljna dubina + prisustvo mamca", "dubina_panule_m": 12.1, "sst_raspon_C": 0.1, "sst_promjena_3d_C": 0.1, "upwelling": 0.0, "hladnije_C": -0.0, "izgledi": "dobri"}}, {"type": "Feature", "geometry": {"type": "Polygon", "coordinates": [[[18.73, 42.265], [18.7, 42.265], [18.695, 42.26], [18.695, 42.23], [18.71, 42.215], [18.735, 42.22], [18.735, 42.26], [18.73, 42.265]]]}, "properties": {"score_mean": 25.8, "score_max": 42.8, "area_km2": 17.4, "centroid": [18.7158, 42.2411], "razlog": "povoljna dubina + zora/sumrak", "dubina_panule_m": 9.2, "sst_raspon_C": 0.2, "sst_promjena_3d_C": 0.1, "upwelling": 0.0, "hladnije_C": 0.1, "izgledi": "osrednji"}}, {"type": "Feature", "geometry": {"type": "Polygon", "coordinates": [[[18.69, 42.305], [18.66, 42.305], [18.655, 42.3], [18.655, 42.28], [18.67, 42.265], [18.695, 42.27], [18.695, 42.3], [18.69, 42.305]]]}, "properties": {"score_mean": 25.8, "score_max": 43.3, "area_km2": 13.8, "centroid": [18.676, 42.286], "razlog": "povoljna dubina + zora/sumrak", "dubina_panule_m": 8.9, "sst_raspon_C": 0.2, "sst_promjena_3d_C": 0.1, "upwelling": 0.0, "hladnije_C": 0.0, "izgledi": "osrednji"}}]}