{"type": "FeatureCollection", "properties": {"vrsta": "strelka", "naziv": "Strelka", "latinski": "Pomatomus saltatrix", "datum": "2026-09-09", "profil": "ljetnji, otvoreno more", "panula": {"dubina_m": [0.0, 25.0], "brzina_kn": [3.0, 5.0], "sati": "zora i sumrak", "granica_dubine_m": 50.0}, "vertikala": {"termoklina_m": 17.8, "termoklina_C_po_m": 0.3, "dcm_m": 97.9, "dcm_odnos": 1.0, "dcm_debljina_m": 36.6, "mld_m": 11.9, "sloj_plijena_m": [59.4, 106.5], "dohvatljivost": 0.0, "objasnjenje": "Termoklina na 18 m. Sloj plijena lezi pretezno ispod 50 m, dakle izvan dohvata panule. Najveca gustina hlorofila je na 98 m (sloj debljine 37 m) - tu se skuplja sitna riba koja se hrani planktonom, pa je i najveca vjerovatnoca da su grabljivice tu negdje."}, "bezbjednost": {"nivo": "zuto", "razlog": "vjetar 12 cv", "izlazak_preporucen": true}, "napomena": "Ljeti ne ide uz obalu nego prati mamac na otvorenom.", "razlog_praznog": null}, "features": [{"type": "Feature", "geometry": {"type": "Polygon", "coordinates": [[[19.09, 42.005], [19.06, 42.005], [19.055, 42.0], [19.055, 41.95], [19.08, 41.905], [19.105, 41.91], [19.105, 41.99], [19.09, 42.005]]]}, "properties": {"score_mean": 41.3, "score_max": 51.7, "area_km2": 39.6, "centroid": [19.0819, 41.9586], "razlog": "povoljna dubina + prisustvo mamca", "dubina_panule_m": 7.1, "sst_raspon_C": 0.3, "sst_promjena_3d_C": 0.0, "upwelling": 0.0, "hladnije_C": -0.1, "izgledi": "dobri"}}, {"type": "Feature", "geometry": {"type": "Polygon", "coordinates": [[[19.14, 41.865], [19.115, 41.86], [19.12, 41.835], [19.145, 41.84], [19.14, 41.865]]]}, "properties": {"score_mean": 39.9, "score_max": 46.0, "area_km2": 8.3, "centroid": [19.13, 41.85], "razlog": "povoljna dubina + termalni front", "dubina_panule_m": 7.2, "sst_raspon_C": 0.5, "sst_promjena_3d_C": 0.0, "upwelling": 0.1, "hladnije_C": 0.0, "izgledi": "osrednji"}}, {"type": "Feature", "geometry": {"type": "Polygon", "coordinates": [[[18.86, 42.215], [18.83, 42.215], [18.825, 42.21], [18.825, 42.18], [18.83, 42.175], [18.86, 42.175], [18.865, 42.18], [18.865, 42.21], [18.86, 42.215]]]}, "properties": {"score_mean": 28.1, "score_max": 54.4, "area_km2": 14.7, "centroid": [18.845, 42.195], "razlog": "termalni front + povoljna dubina", "dubina_panule_m": 25.0, "sst_raspon_C": 1.1, "sst_promjena_3d_C": 0.0, "upwelling": 0.2, "hladnije_C": 0.0, "izgledi": "osrednji"}}, {"type": "Feature", "geometry": {"type": "Polygon", "coordinates": [[[18.9, 42.175], [18.87, 42.175], [18.865, 42.17], [18.865, 42.15], [18.88, 42.135], [18.905, 42.14], [18.905, 42.17], [18.9, 42.175]]]}, "properties": {"score_mean": 18.8, "score_max": 37.6, "area_km2": 13.8, "centroid": [18.886, 42.156], "razlog": "termalni front + povoljna dubina", "dubina_panule_m": 25.0, "sst_raspon_C": 0.9, "sst_promjena_3d_C": 0.0, "upwelling": 0.0, "hladnije_C": -0.2, "izgledi": "slabi"}}, {"type": "Feature", "geometry": {"type": "Polygon", "coordinates": [[[18.69, 42.305], [18.65, 42.305], [18.645, 42.3], [18.645, 42.27], [18.66, 42.255], [18.675, 42.25], [18.685, 42.22], [18.7, 42.205], [18.73, 42.205], [18.735, 42.21], [18.735, 42.26], [18.71, 42.265], [18.7, 42.275], [18.69, 42.305]]]}, "properties": {"score_mean": 16.9, "score_max": 45.6, "area_km2": 50.4, "centroid": [18.6924, 42.256], "razlog": "povoljna dubina + termalni front", "dubina_panule_m": 25.0, "sst_raspon_C": 0.5, "sst_promjena_3d_C": 0.0, "upwelling": 0.0, "hladnije_C": -0.2, "izgledi": "slabi"}}, {"type": "Feature", "geometry": {"type": "Polygon", "coordinates": [[[18.94, 42.135], [18.91, 42.135], [18.905, 42.13], [18.905, 42.11], [18.92, 42.095], [18.945, 42.1], [18.945, 42.13], [18.94, 42.135]]]}, "properties": {"score_mean": 16.6, "score_max": 28.5, "area_km2": 13.8, "centroid": [18.926, 42.116], "razlog": "povoljna dubina + termalni front", "dubina_panule_m": 25.0, "sst_raspon_C": 0.5, "sst_promjena_3d_C": 0.0, "upwelling": 0.0, "hladnije_C": -0.2, "izgledi": "slabi"}}]}