{"type": "FeatureCollection", "properties": {"vrsta": "strelka", "naziv": "Strelka", "latinski": "Pomatomus saltatrix", "datum": "2026-09-15", "profil": "ljetnji, otvoreno more", "panula": {"dubina_m": [0.0, 25.0], "brzina_kn": [3.0, 5.0], "sati": "zora i sumrak", "granica_dubine_m": 50.0}, "vertikala": {"termoklina_m": 24.5, "termoklina_C_po_m": 0.3, "dcm_m": 97.9, "dcm_odnos": 1.0, "dcm_debljina_m": 39.8, "mld_m": 16.2, "sloj_plijena_m": [54.2, 102.9], "dohvatljivost": 0.0, "objasnjenje": "Termoklina na 24 m. Sloj plijena lezi pretezno ispod 50 m, dakle izvan dohvata panule. Najveca gustina hlorofila je na 98 m (sloj debljine 40 m) - tu se skuplja sitna riba koja se hrani planktonom, pa je i najveca vjerovatnoca da su grabljivice tu negdje."}, "bezbjednost": {"nivo": "zuto", "razlog": "vjetar 12 cv", "izlazak_preporucen": true}, "napomena": "Ljeti ne ide uz obalu nego prati mamac na otvorenom.", "razlog_praznog": null}, "features": [{"type": "Feature", "geometry": {"type": "Polygon", "coordinates": [[[18.9, 41.995], [18.87, 41.995], [18.865, 41.97], [18.89, 41.945], [18.94, 41.935], [18.945, 41.94], [18.945, 41.98], [18.94, 41.985], [18.91, 41.985], [18.9, 41.995]]]}, "properties": {"score_mean": 42.8, "score_max": 52.1, "area_km2": 33.2, "centroid": [18.9075, 41.9667], "razlog": "termalni front + povoljna dubina", "dubina_panule_m": 11.8, "sst_raspon_C": 0.7, "sst_promjena_3d_C": -1.0, "upwelling": 0.0, "hladnije_C": -0.1, "izgledi": "dobri"}}, {"type": "Feature", "geometry": {"type": "Polygon", "coordinates": [[[18.66, 42.315], [18.635, 42.31], [18.635, 42.28], [18.65, 42.265], [18.685, 42.25], [18.7, 42.215], [18.73, 42.215], [18.735, 42.22], [18.735, 42.26], [18.73, 42.265], [18.7, 42.265], [18.695, 42.27], [18.695, 42.3], [18.67, 42.305], [18.66, 42.315]]]}, "properties": {"score_mean": 22.0, "score_max": 49.2, "area_km2": 46.8, "centroid": [18.6861, 42.2661], "razlog": "povoljna dubina + termalni front", "dubina_panule_m": 25.0, "sst_raspon_C": 0.5, "sst_promjena_3d_C": -0.7, "upwelling": 0.0, "hladnije_C": -0.2, "izgledi": "slabi"}}]}