{"type": "FeatureCollection", "properties": {"vrsta": "strelka", "naziv": "Strelka", "latinski": "Pomatomus saltatrix", "datum": "2026-10-01", "profil": "priobalni", "panula": {"dubina_m": [0.0, 10.0], "brzina_kn": [3.0, 5.0], "sati": "zora i sumrak", "granica_dubine_m": 50.0}, "vertikala": {"termoklina_m": 35.8, "termoklina_C_po_m": 0.1, "dcm_m": 91.2, "dcm_odnos": 1.0, "dcm_debljina_m": 40.7, "mld_m": 19.3, "sloj_plijena_m": [65.7, 111.0], "dohvatljivost": 0.0, "objasnjenje": "Termoklina na 36 m. Sloj plijena lezi pretezno ispod 50 m, dakle izvan dohvata panule. Najveca gustina hlorofila je na 91 m (sloj debljine 41 m) - tu se skuplja sitna riba koja se hrani planktonom, pa je i najveca vjerovatnoca da su grabljivice tu negdje."}, "bezbjednost": {"nivo": "zuto", "razlog": "talasi do 1.0 m", "izlazak_preporucen": true}, "napomena": "U jesen uz obalu i na usce. Domen modela je more ispred usca i samo usce - ne i rijeka.", "razlog_praznog": null}, "features": [{"type": "Feature", "geometry": {"type": "Polygon", "coordinates": [[[18.9, 42.185], [18.875, 42.18], [18.88, 42.155], [18.905, 42.16], [18.9, 42.185]]]}, "properties": {"score_mean": 26.5, "score_max": 27.3, "area_km2": 8.3, "centroid": [18.89, 42.17], "razlog": "zora/sumrak + prisustvo mamca", "dubina_panule_m": 5.0, "sst_raspon_C": 0.7, "sst_promjena_3d_C": -0.3, "upwelling": 0.3, "hladnije_C": 0.4, "izgledi": "osrednji"}}, {"type": "Feature", "geometry": {"type": "Polygon", "coordinates": [[[18.87, 42.215], [18.845, 42.21], [18.85, 42.185], [18.875, 42.19], [18.87, 42.215]]]}, "properties": {"score_mean": 25.8, "score_max": 29.1, "area_km2": 8.3, "centroid": [18.86, 42.2], "razlog": "zora/sumrak + prisustvo mamca", "dubina_panule_m": 5.0, "sst_raspon_C": 0.9, "sst_promjena_3d_C": -0.4, "upwelling": 0.0, "hladnije_C": 0.4, "izgledi": "osrednji"}}, {"type": "Feature", "geometry": {"type": "Polygon", "coordinates": [[[18.7, 42.315], [18.67, 42.315], [18.665, 42.31], [18.665, 42.28], [18.67, 42.275], [18.7, 42.275], [18.705, 42.28], [18.705, 42.31], [18.7, 42.315]]]}, "properties": {"score_mean": 24.4, "score_max": 28.3, "area_km2": 14.7, "centroid": [18.685, 42.295], "razlog": "zora/sumrak + prisustvo mamca", "dubina_panule_m": 5.0, "sst_raspon_C": 0.8, "sst_promjena_3d_C": -0.2, "upwelling": 0.0, "hladnije_C": -0.4, "izgledi": "slabi"}}, {"type": "Feature", "geometry": {"type": "Polygon", "coordinates": [[[18.74, 42.275], [18.71, 42.275], [18.705, 42.27], [18.705, 42.23], [18.71, 42.225], [18.74, 42.225], [18.745, 42.23], [18.745, 42.27], [18.74, 42.275]]]}, "properties": {"score_mean": 23.2, "score_max": 26.8, "area_km2": 18.3, "centroid": [18.725, 42.25], "razlog": "zora/sumrak + prisustvo mamca", "dubina_panule_m": 5.0, "sst_raspon_C": 0.8, "sst_promjena_3d_C": -0.2, "upwelling": 0.0, "hladnije_C": -0.2, "izgledi": "slabi"}}, {"type": "Feature", "geometry": {"type": "Polygon", "coordinates": [[[18.945, 42.01], [18.92, 42.015], [18.895, 42.0], [18.895, 41.97], [18.91, 41.945], [18.94, 41.945], [18.945, 41.95], [18.945, 42.01]]]}, "properties": {"score_mean": 6.1, "score_max": 7.9, "area_km2": 28.6, "centroid": [18.9223, 41.9797], "razlog": "zora/sumrak + prisustvo mamca", "dubina_panule_m": 5.0, "sst_raspon_C": 0.4, "sst_promjena_3d_C": 0.2, "upwelling": 0.1, "hladnije_C": 0.3, "izgledi": "vrlo slabi"}}, {"type": "Feature", "geometry": {"type": "Polygon", "coordinates": [[[18.87, 41.885], [18.845, 41.88], [18.845, 41.85], [18.86, 41.835], [18.89, 41.835], [18.895, 41.84], [18.895, 41.87], [18.87, 41.885]]]}, "properties": {"score_mean": 1.0, "score_max": 1.2, "area_km2": 20.3, "centroid": [18.8695, 41.8591], "razlog": "zora/sumrak + prisustvo mamca", "dubina_panule_m": 5.0, "sst_raspon_C": 0.6, "sst_promjena_3d_C": -0.4, "upwelling": 0.3, "hladnije_C": 0.1, "izgledi": "vrlo slabi"}}]}