{"type": "FeatureCollection", "properties": {"vrsta": "strelka", "naziv": "Strelka", "latinski": "Pomatomus saltatrix", "datum": "2026-09-22", "profil": "ljetnji, otvoreno more", "panula": {"dubina_m": [0.0, 25.0], "brzina_kn": [3.0, 5.0], "sati": "zora i sumrak", "granica_dubine_m": 50.0}, "vertikala": {"termoklina_m": 21.1, "termoklina_C_po_m": 0.2, "dcm_m": 97.9, "dcm_odnos": 1.0, "dcm_debljina_m": 39.8, "mld_m": 14.4, "sloj_plijena_m": [57.0, 108.5], "dohvatljivost": 0.0, "objasnjenje": "Termoklina na 21 m. Sloj plijena lezi pretezno ispod 50 m, dakle izvan dohvata panule. Najveca gustina hlorofila je na 98 m (sloj debljine 40 m) - tu se skuplja sitna riba koja se hrani planktonom, pa je i najveca vjerovatnoca da su grabljivice tu negdje."}, "bezbjednost": {"nivo": "crveno", "razlog": "talasi do 1.1 m, vjetar 23 cv, udari 33 cv", "izlazak_preporucen": false}, "napomena": "Ljeti ne ide uz obalu nego prati mamac na otvorenom.", "razlog_praznog": null}, "features": [{"type": "Feature", "geometry": {"type": "Polygon", "coordinates": [[[18.98, 42.015], [18.93, 42.015], [18.925, 41.99], [18.93, 41.985], [18.98, 41.985], [18.985, 41.99], [18.98, 42.015]]]}, "properties": {"score_mean": 54.0, "score_max": 56.3, "area_km2": 16.6, "centroid": [18.955, 42.0], "razlog": "termalni front + povoljna dubina", "dubina_panule_m": 7.6, "sst_raspon_C": 0.7, "sst_promjena_3d_C": -0.4, "upwelling": 0.2, "hladnije_C": 0.1, "izgledi": "dobri"}}]}