{"type": "FeatureCollection", "properties": {"vrsta": "strelka", "naziv": "Strelka", "latinski": "Pomatomus saltatrix", "datum": "2026-09-01", "profil": "ljetnji, otvoreno more", "panula": {"dubina_m": [0.0, 25.0], "brzina_kn": [3.0, 5.0], "sati": "zora i sumrak", "granica_dubine_m": 50.0}, "vertikala": {"termoklina_m": 14.8, "termoklina_C_po_m": 0.3, "dcm_m": 91.2, "dcm_odnos": 1.0, "dcm_debljina_m": 31.0, "mld_m": 11.9, "sloj_plijena_m": [67.1, 100.5], "dohvatljivost": 0.0, "objasnjenje": "Termoklina na 15 m. Sloj plijena lezi pretezno ispod 50 m, dakle izvan dohvata panule. Najveca gustina hlorofila je na 91 m (sloj debljine 31 m) - tu se skuplja sitna riba koja se hrani planktonom, pa je i najveca vjerovatnoca da su grabljivice tu negdje."}, "bezbjednost": {"nivo": "zuto", "razlog": "vjetar 14 cv", "izlazak_preporucen": true}, "napomena": "Ljeti ne ide uz obalu nego prati mamac na otvorenom.", "razlog_praznog": null}, "features": [{"type": "Feature", "geometry": {"type": "Polygon", "coordinates": [[[19.08, 42.015], [19.055, 42.01], [19.055, 41.96], [19.07, 41.945], [19.09, 41.945], [19.105, 41.97], [19.105, 41.99], [19.08, 42.015]]]}, "properties": {"score_mean": 47.5, "score_max": 61.5, "area_km2": 26.7, "centroid": [19.0776, 41.98], "razlog": "prisustvo mamca + termalni front", "dubina_panule_m": 7.1, "sst_raspon_C": 1.1, "sst_promjena_3d_C": 0.7, "upwelling": 0.6, "hladnije_C": 0.3, "izgledi": "dobri"}}, {"type": "Feature", "geometry": {"type": "Polygon", "coordinates": [[[19.23, 41.875], [19.2, 41.875], [19.195, 41.85], [19.22, 41.825], [19.23, 41.825], [19.24, 41.815], [19.26, 41.815], [19.265, 41.84], [19.24, 41.855], [19.23, 41.875]]]}, "properties": {"score_mean": 43.6, "score_max": 64.7, "area_km2": 24.9, "centroid": [19.2289, 41.8452], "razlog": "termalni front + prisustvo mamca", "dubina_panule_m": 7.1, "sst_raspon_C": 1.5, "sst_promjena_3d_C": 0.5, "upwelling": 0.2, "hladnije_C": 0.8, "izgledi": "dobri"}}, {"type": "Feature", "geometry": {"type": "Polygon", "coordinates": [[[19.02, 42.095], [18.995, 42.09], [19.0, 42.065], [19.025, 42.07], [19.02, 42.095]]]}, "properties": {"score_mean": 35.0, "score_max": 40.1, "area_km2": 8.3, "centroid": [19.01, 42.08], "razlog": "prisustvo mamca + termalni front", "dubina_panule_m": 7.1, "sst_raspon_C": 0.7, "sst_promjena_3d_C": 1.0, "upwelling": 0.0, "hladnije_C": 0.3, "izgledi": "osrednji"}}, {"type": "Feature", "geometry": {"type": "Polygon", "coordinates": [[[18.66, 42.315], [18.635, 42.31], [18.635, 42.27], [18.66, 42.265], [18.67, 42.255], [18.69, 42.255], [18.695, 42.28], [18.66, 42.315]]]}, "properties": {"score_mean": 9.0, "score_max": 37.9, "area_km2": 24.8, "centroid": [18.6626, 42.2837], "razlog": "povoljna dubina + ivica struje", "dubina_panule_m": 25.0, "sst_raspon_C": 0.3, "sst_promjena_3d_C": 0.9, "upwelling": 0.0, "hladnije_C": 0.0, "izgledi": "vrlo slabi"}}]}