{"type": "FeatureCollection", "properties": {"vrsta": "strelka", "naziv": "Strelka", "latinski": "Pomatomus saltatrix", "datum": "2026-10-11", "profil": "priobalni", "panula": {"dubina_m": [0.0, 10.0], "brzina_kn": [3.0, 5.0], "sati": "zora i sumrak", "granica_dubine_m": 50.0}, "vertikala": {"termoklina_m": 35.8, "termoklina_C_po_m": 0.1, "dcm_m": 78.6, "dcm_odnos": 1.0, "dcm_debljina_m": 44.5, "mld_m": 23.0, "sloj_plijena_m": [45.6, 92.1], "dohvatljivost": 0.1, "objasnjenje": "Termoklina na 36 m. Sloj plijena lezi pretezno ispod 50 m, dakle izvan dohvata panule. Najveca gustina hlorofila je na 79 m (sloj debljine 44 m) - tu se skuplja sitna riba koja se hrani planktonom, pa je i najveca vjerovatnoca da su grabljivice tu negdje."}, "bezbjednost": {"nivo": "crveno", "razlog": "talasi do 1.8 m, vjetar 18 cv, udari 24 cv", "izlazak_preporucen": false}, "napomena": "U jesen uz obalu i na usce. Domen modela je more ispred usca i samo usce - ne i rijeka.", "razlog_praznog": null}, "features": [{"type": "Feature", "geometry": {"type": "Polygon", "coordinates": [[[19.06, 41.995], [19.035, 41.99], [19.035, 41.96], [19.04, 41.955], [19.065, 41.96], [19.065, 41.99], [19.06, 41.995]]]}, "properties": {"score_mean": 23.6, "score_max": 24.9, "area_km2": 11.1, "centroid": [19.05, 41.975], "razlog": "zora/sumrak + prisustvo mamca", "dubina_panule_m": 5.0, "sst_raspon_C": 0.4, "sst_promjena_3d_C": 0.0, "upwelling": 0.4, "hladnije_C": 0.4, "izgledi": "slabi"}}, {"type": "Feature", "geometry": {"type": "Polygon", "coordinates": [[[18.88, 42.165], [18.85, 42.165], [18.845, 42.14], [18.87, 42.115], [18.895, 42.11], [18.905, 42.08], [18.92, 42.065], [18.94, 42.065], [18.945, 42.07], [18.945, 42.1], [18.92, 42.125], [18.895, 42.13], [18.895, 42.15], [18.88, 42.165]]]}, "properties": {"score_mean": 18.0, "score_max": 21.5, "area_km2": 40.4, "centroid": [18.8973, 42.1173], "razlog": "zora/sumrak + prisustvo mamca", "dubina_panule_m": 5.0, "sst_raspon_C": 0.3, "sst_promjena_3d_C": 0.1, "upwelling": 0.0, "hladnije_C": 0.0, "izgledi": "slabi"}}, {"type": "Feature", "geometry": {"type": "Polygon", "coordinates": [[[18.73, 42.265], [18.705, 42.26], [18.71, 42.235], [18.735, 42.24], [18.73, 42.265]]]}, "properties": {"score_mean": 17.3, "score_max": 18.9, "area_km2": 8.3, "centroid": [18.72, 42.25], "razlog": "zora/sumrak + prisustvo mamca", "dubina_panule_m": 5.0, "sst_raspon_C": 0.6, "sst_promjena_3d_C": -0.2, "upwelling": 0.0, "hladnije_C": -0.1, "izgledi": "slabi"}}]}