{"type": "FeatureCollection", "properties": {"vrsta": "strelka", "naziv": "Strelka", "latinski": "Pomatomus saltatrix", "datum": "2026-08-29", "profil": "ljetnji, otvoreno more", "panula": {"dubina_m": [0.0, 25.0], "brzina_kn": [3.0, 5.0], "sati": "zora i sumrak", "granica_dubine_m": 50.0}, "vertikala": {"termoklina_m": 11.9, "termoklina_C_po_m": 0.2, "dcm_m": 91.2, "dcm_odnos": 1.0, "dcm_debljina_m": 33.7, "mld_m": 11.9, "sloj_plijena_m": [67.1, 100.5], "dohvatljivost": 0.0, "objasnjenje": "Termoklina na 12 m. Sloj plijena lezi pretezno ispod 50 m, dakle izvan dohvata panule. Najveca gustina hlorofila je na 91 m (sloj debljine 34 m) - tu se skuplja sitna riba koja se hrani planktonom, pa je i najveca vjerovatnoca da su grabljivice tu negdje."}, "bezbjednost": {"nivo": "zeleno", "razlog": "uslovi povoljni", "izlazak_preporucen": true}, "napomena": "Ljeti ne ide uz obalu nego prati mamac na otvorenom.", "razlog_praznog": null}, "features": [{"type": "Feature", "geometry": {"type": "Polygon", "coordinates": [[[19.25, 41.845], [19.225, 41.84], [19.23, 41.815], [19.255, 41.82], [19.25, 41.845]]]}, "properties": {"score_mean": 44.7, "score_max": 50.8, "area_km2": 8.3, "centroid": [19.24, 41.83], "razlog": "prisustvo mamca + povoljna dubina", "dubina_panule_m": 7.1, "sst_raspon_C": 0.5, "sst_promjena_3d_C": -0.9, "upwelling": 0.3, "hladnije_C": 0.1, "izgledi": "dobri"}}, {"type": "Feature", "geometry": {"type": "Polygon", "coordinates": [[[19.2, 41.855], [19.175, 41.85], [19.175, 41.83], [19.155, 41.82], [19.155, 41.8], [19.17, 41.795], [19.2, 41.765], [19.23, 41.765], [19.235, 41.77], [19.235, 41.8], [19.22, 41.815], [19.195, 41.82], [19.205, 41.83], [19.2, 41.855]]]}, "properties": {"score_mean": 15.5, "score_max": 41.8, "area_km2": 39.7, "centroid": [19.1963, 41.8053], "razlog": "povoljna dubina + termalni front", "dubina_panule_m": 25.0, "sst_raspon_C": 0.3, "sst_promjena_3d_C": -0.7, "upwelling": 0.0, "hladnije_C": -0.1, "izgledi": "slabi"}}, {"type": "Feature", "geometry": {"type": "Polygon", "coordinates": [[[19.06, 41.955], [19.02, 41.955], [19.015, 41.93], [19.02, 41.925], [19.06, 41.925], [19.065, 41.93], [19.06, 41.955]]]}, "properties": {"score_mean": 12.1, "score_max": 50.2, "area_km2": 13.8, "centroid": [19.04, 41.94], "razlog": "povoljna dubina + termalni front", "dubina_panule_m": 25.0, "sst_raspon_C": 0.4, "sst_promjena_3d_C": -0.5, "upwelling": 0.0, "hladnije_C": -0.1, "izgledi": "slabi"}}, {"type": "Feature", "geometry": {"type": "Polygon", "coordinates": [[[19.1, 41.915], [19.08, 41.915], [19.07, 41.905], [19.065, 41.88], [19.095, 41.87], [19.11, 41.835], [19.13, 41.835], [19.135, 41.84], [19.135, 41.88], [19.12, 41.895], [19.11, 41.895], [19.1, 41.915]]]}, "properties": {"score_mean": 10.1, "score_max": 49.3, "area_km2": 31.4, "centroid": [19.1035, 41.8771], "razlog": "povoljna dubina + zora/sumrak", "dubina_panule_m": 25.0, "sst_raspon_C": 0.3, "sst_promjena_3d_C": -0.6, "upwelling": 0.0, "hladnije_C": -0.0, "izgledi": "vrlo slabi"}}]}