{"type": "FeatureCollection", "properties": {"vrsta": "strelka", "naziv": "Strelka", "latinski": "Pomatomus saltatrix", "datum": "2026-09-17", "profil": "ljetnji, otvoreno more", "panula": {"dubina_m": [0.0, 25.0], "brzina_kn": [3.0, 5.0], "sati": "zora i sumrak", "granica_dubine_m": 50.0}, "vertikala": {"termoklina_m": 28.0, "termoklina_C_po_m": 0.2, "dcm_m": 97.9, "dcm_odnos": 1.0, "dcm_debljina_m": 36.6, "mld_m": 16.2, "sloj_plijena_m": [57.8, 104.5], "dohvatljivost": 0.0, "objasnjenje": "Termoklina na 28 m. Sloj plijena lezi pretezno ispod 50 m, dakle izvan dohvata panule. Najveca gustina hlorofila je na 98 m (sloj debljine 37 m) - tu se skuplja sitna riba koja se hrani planktonom, pa je i najveca vjerovatnoca da su grabljivice tu negdje."}, "bezbjednost": {"nivo": "zeleno", "razlog": "uslovi povoljni", "izlazak_preporucen": true}, "napomena": "Ljeti ne ide uz obalu nego prati mamac na otvorenom.", "razlog_praznog": null}, "features": [{"type": "Feature", "geometry": {"type": "Polygon", "coordinates": [[[18.925, 42.04], [18.9, 42.045], [18.885, 42.02], [18.885, 42.0], [18.87, 41.985], [18.855, 41.98], [18.86, 41.955], [18.94, 41.955], [18.945, 41.96], [18.945, 41.99], [18.925, 42.01], [18.925, 42.04]]]}, "properties": {"score_mean": 45.5, "score_max": 50.6, "area_km2": 48.8, "centroid": [18.9042, 41.9896], "razlog": "termalni front + povoljna dubina", "dubina_panule_m": 12.7, "sst_raspon_C": 0.5, "sst_promjena_3d_C": -0.0, "upwelling": 0.0, "hladnije_C": 0.0, "izgledi": "dobri"}}, {"type": "Feature", "geometry": {"type": "Polygon", "coordinates": [[[18.73, 42.265], [18.7, 42.265], [18.695, 42.26], [18.695, 42.23], [18.71, 42.215], [18.735, 42.22], [18.735, 42.26], [18.73, 42.265]]]}, "properties": {"score_mean": 29.0, "score_max": 47.0, "area_km2": 17.4, "centroid": [18.7158, 42.2411], "razlog": "povoljna dubina + termalni front", "dubina_panule_m": 25.0, "sst_raspon_C": 0.5, "sst_promjena_3d_C": 0.0, "upwelling": 0.0, "hladnije_C": -0.0, "izgledi": "osrednji"}}, {"type": "Feature", "geometry": {"type": "Polygon", "coordinates": [[[18.69, 42.305], [18.66, 42.305], [18.655, 42.3], [18.655, 42.28], [18.67, 42.265], [18.695, 42.27], [18.695, 42.3], [18.69, 42.305]]]}, "properties": {"score_mean": 29.0, "score_max": 49.5, "area_km2": 13.8, "centroid": [18.676, 42.286], "razlog": "povoljna dubina + termalni front", "dubina_panule_m": 8.3, "sst_raspon_C": 0.6, "sst_promjena_3d_C": 0.0, "upwelling": 0.0, "hladnije_C": -0.2, "izgledi": "osrednji"}}, {"type": "Feature", "geometry": {"type": "Polygon", "coordinates": [[[18.65, 42.345], [18.6, 42.345], [18.595, 42.32], [18.62, 42.305], [18.65, 42.305], [18.655, 42.31], [18.655, 42.34], [18.65, 42.345]]]}, "properties": {"score_mean": 15.9, "score_max": 24.1, "area_km2": 20.2, "centroid": [18.6268, 42.3264], "razlog": "termalni front + povoljna dubina", "dubina_panule_m": 25.0, "sst_raspon_C": 0.6, "sst_promjena_3d_C": 0.3, "upwelling": 0.0, "hladnije_C": -0.2, "izgledi": "slabi"}}]}