{"type": "FeatureCollection", "properties": {"vrsta": "strelka", "naziv": "Strelka", "latinski": "Pomatomus saltatrix", "datum": "2026-09-03", "profil": "ljetnji, otvoreno more", "panula": {"dubina_m": [0.0, 25.0], "brzina_kn": [3.0, 5.0], "sati": "zora i sumrak", "granica_dubine_m": 50.0}, "vertikala": {"termoklina_m": 14.8, "termoklina_C_po_m": 0.3, "dcm_m": 91.2, "dcm_odnos": 1.0, "dcm_debljina_m": 46.5, "mld_m": 11.9, "sloj_plijena_m": [59.6, 108.0], "dohvatljivost": 0.0, "objasnjenje": "Termoklina na 15 m. Sloj plijena lezi pretezno ispod 50 m, dakle izvan dohvata panule. Najveca gustina hlorofila je na 91 m (sloj debljine 46 m) - tu se skuplja sitna riba koja se hrani planktonom, pa je i najveca vjerovatnoca da su grabljivice tu negdje."}, "bezbjednost": {"nivo": "crveno", "razlog": "vjetar 16 cv, udari 22 cv", "izlazak_preporucen": false}, "napomena": "Ljeti ne ide uz obalu nego prati mamac na otvorenom.", "razlog_praznog": null}, "features": [{"type": "Feature", "geometry": {"type": "Polygon", "coordinates": [[[19.02, 42.095], [18.995, 42.09], [19.0, 42.065], [19.025, 42.07], [19.02, 42.095]]]}, "properties": {"score_mean": 50.2, "score_max": 54.0, "area_km2": 8.3, "centroid": [19.01, 42.08], "razlog": "prisustvo mamca + termalni front", "dubina_panule_m": 7.1, "sst_raspon_C": 0.5, "sst_promjena_3d_C": -0.3, "upwelling": 0.3, "hladnije_C": 0.1, "izgledi": "dobri"}}, {"type": "Feature", "geometry": {"type": "Polygon", "coordinates": [[[19.08, 42.015], [19.055, 42.01], [19.055, 41.97], [19.07, 41.945], [19.1, 41.945], [19.105, 41.95], [19.105, 42.0], [19.08, 42.015]]]}, "properties": {"score_mean": 41.5, "score_max": 47.0, "area_km2": 28.6, "centroid": [19.0803, 41.9797], "razlog": "prisustvo mamca + povoljna dubina", "dubina_panule_m": 7.1, "sst_raspon_C": 0.3, "sst_promjena_3d_C": -0.1, "upwelling": 0.2, "hladnije_C": 0.0, "izgledi": "dobri"}}, {"type": "Feature", "geometry": {"type": "Polygon", "coordinates": [[[18.86, 42.215], [18.835, 42.21], [18.84, 42.185], [18.865, 42.19], [18.86, 42.215]]]}, "properties": {"score_mean": 35.8, "score_max": 37.1, "area_km2": 8.3, "centroid": [18.85, 42.2], "razlog": "povoljna dubina + prisustvo mamca", "dubina_panule_m": 25.0, "sst_raspon_C": 0.2, "sst_promjena_3d_C": -0.5, "upwelling": 0.0, "hladnije_C": -0.1, "izgledi": "osrednji"}}, {"type": "Feature", "geometry": {"type": "Polygon", "coordinates": [[[18.94, 42.135], [18.915, 42.13], [18.92, 42.105], [18.945, 42.11], [18.94, 42.135]]]}, "properties": {"score_mean": 32.3, "score_max": 33.6, "area_km2": 8.3, "centroid": [18.93, 42.12], "razlog": "prisustvo mamca + povoljna dubina", "dubina_panule_m": 25.0, "sst_raspon_C": 0.5, "sst_promjena_3d_C": -0.7, "upwelling": 0.3, "hladnije_C": 0.1, "izgledi": "osrednji"}}, {"type": "Feature", "geometry": {"type": "Polygon", "coordinates": [[[18.9, 42.175], [18.875, 42.17], [18.88, 42.145], [18.905, 42.15], [18.9, 42.175]]]}, "properties": {"score_mean": 29.3, "score_max": 31.4, "area_km2": 8.3, "centroid": [18.89, 42.16], "razlog": "povoljna dubina + prisustvo mamca", "dubina_panule_m": 25.0, "sst_raspon_C": 0.5, "sst_promjena_3d_C": -0.6, "upwelling": 0.0, "hladnije_C": -0.1, "izgledi": "osrednji"}}, {"type": "Feature", "geometry": {"type": "Polygon", "coordinates": [[[18.73, 42.265], [18.7, 42.265], [18.695, 42.26], [18.695, 42.23], [18.71, 42.215], [18.735, 42.22], [18.735, 42.26], [18.73, 42.265]]]}, "properties": {"score_mean": 28.3, "score_max": 47.0, "area_km2": 17.4, "centroid": [18.7158, 42.2411], "razlog": "povoljna dubina + ivica struje", "dubina_panule_m": 25.0, "sst_raspon_C": 0.2, "sst_promjena_3d_C": -0.4, "upwelling": 0.0, "hladnije_C": -0.0, "izgledi": "osrednji"}}]}