{"type": "FeatureCollection", "properties": {"vrsta": "strelka", "naziv": "Strelka", "latinski": "Pomatomus saltatrix", "datum": "2026-10-12", "profil": "priobalni", "panula": {"dubina_m": [0.0, 10.0], "brzina_kn": [3.0, 5.0], "sati": "zora i sumrak", "granica_dubine_m": 50.0}, "vertikala": {"termoklina_m": 40.0, "termoklina_C_po_m": 0.1, "dcm_m": 78.6, "dcm_odnos": 1.0, "dcm_debljina_m": 39.8, "mld_m": 23.9, "sloj_plijena_m": [45.6, 90.8], "dohvatljivost": 0.1, "objasnjenje": "Termoklina na 40 m. Sloj plijena lezi pretezno ispod 50 m, dakle izvan dohvata panule. Najveca gustina hlorofila je na 79 m (sloj debljine 40 m) - tu se skuplja sitna riba koja se hrani planktonom, pa je i najveca vjerovatnoca da su grabljivice tu negdje."}, "bezbjednost": {"nivo": "crveno", "razlog": "vjetar 18 cv, udari 24 cv", "izlazak_preporucen": false}, "napomena": "U jesen uz obalu i na usce. Domen modela je more ispred usca i samo usce - ne i rijeka.", "razlog_praznog": null}, "features": [{"type": "Feature", "geometry": {"type": "Polygon", "coordinates": [[[18.94, 42.085], [18.91, 42.085], [18.905, 42.08], [18.905, 42.05], [18.915, 42.04], [18.915, 42.03], [18.96, 41.985], [18.99, 41.985], [18.995, 41.96], [19.01, 41.945], [19.03, 41.945], [19.035, 41.95], [19.035, 41.98], [19.025, 41.99], [19.025, 42.01], [19.02, 42.015], [18.99, 42.015], [18.98, 42.025], [18.97, 42.025], [18.945, 42.05], [18.945, 42.08], [18.94, 42.085]]]}, "properties": {"score_mean": 22.2, "score_max": 25.5, "area_km2": 64.4, "centroid": [18.9691, 42.014], "razlog": "zora/sumrak + prisustvo mamca", "dubina_panule_m": 5.0, "sst_raspon_C": 0.6, "sst_promjena_3d_C": 0.0, "upwelling": 0.0, "hladnije_C": 0.1, "izgledi": "slabi"}}, {"type": "Feature", "geometry": {"type": "Polygon", "coordinates": [[[18.63, 41.835], [18.605, 41.83], [18.605, 41.81], [18.64, 41.765], [18.66, 41.765], [18.665, 41.79], [18.655, 41.8], [18.655, 41.81], [18.63, 41.835]]]}, "properties": {"score_mean": 2.7, "score_max": 2.9, "area_km2": 24.9, "centroid": [18.6356, 41.8004], "razlog": "zora/sumrak + prisustvo mamca", "dubina_panule_m": 5.0, "sst_raspon_C": 0.3, "sst_promjena_3d_C": 0.0, "upwelling": 0.0, "hladnije_C": -0.1, "izgledi": "vrlo slabi"}}]}