{"type": "FeatureCollection", "properties": {"vrsta": "strelka", "naziv": "Strelka", "latinski": "Pomatomus saltatrix", "datum": "2026-10-02", "profil": "priobalni", "panula": {"dubina_m": [0.0, 10.0], "brzina_kn": [3.0, 5.0], "sati": "zora i sumrak", "granica_dubine_m": 50.0}, "vertikala": {"termoklina_m": 31.8, "termoklina_C_po_m": 0.1, "dcm_m": 97.9, "dcm_odnos": 1.0, "dcm_debljina_m": 40.7, "mld_m": 23.0, "sloj_plijena_m": [67.5, 112.7], "dohvatljivost": 0.0, "objasnjenje": "Termoklina na 32 m. Sloj plijena lezi pretezno ispod 50 m, dakle izvan dohvata panule. Najveca gustina hlorofila je na 98 m (sloj debljine 41 m) - tu se skuplja sitna riba koja se hrani planktonom, pa je i najveca vjerovatnoca da su grabljivice tu negdje."}, "bezbjednost": {"nivo": "zuto", "razlog": "talasi do 1.2 m", "izlazak_preporucen": true}, "napomena": "U jesen uz obalu i na usce. Domen modela je more ispred usca i samo usce - ne i rijeka.", "razlog_praznog": null}, "features": [{"type": "Feature", "geometry": {"type": "Polygon", "coordinates": [[[18.7, 42.315], [18.67, 42.315], [18.665, 42.31], [18.665, 42.28], [18.68, 42.265], [18.695, 42.26], [18.695, 42.24], [18.71, 42.225], [18.74, 42.225], [18.745, 42.23], [18.745, 42.27], [18.74, 42.275], [18.71, 42.275], [18.7, 42.315]]]}, "properties": {"score_mean": 21.0, "score_max": 26.5, "area_km2": 38.5, "centroid": [18.7055, 42.2686], "razlog": "zora/sumrak + prisustvo mamca", "dubina_panule_m": 5.0, "sst_raspon_C": 0.7, "sst_promjena_3d_C": -0.5, "upwelling": 0.0, "hladnije_C": -0.1, "izgledi": "slabi"}}, {"type": "Feature", "geometry": {"type": "Polygon", "coordinates": [[[18.86, 42.225], [18.835, 42.22], [18.835, 42.19], [18.86, 42.185], [18.865, 42.16], [18.88, 42.145], [18.9, 42.145], [18.905, 42.12], [18.92, 42.105], [18.94, 42.105], [18.945, 42.11], [18.945, 42.14], [18.915, 42.15], [18.915, 42.18], [18.91, 42.185], [18.88, 42.185], [18.875, 42.19], [18.875, 42.21], [18.86, 42.225]]]}, "properties": {"score_mean": 20.5, "score_max": 27.2, "area_km2": 45.0, "centroid": [18.8904, 42.1653], "razlog": "zora/sumrak + prisustvo mamca", "dubina_panule_m": 5.0, "sst_raspon_C": 1.2, "sst_promjena_3d_C": 0.0, "upwelling": 0.0, "hladnije_C": 0.0, "izgledi": "slabi"}}, {"type": "Feature", "geometry": {"type": "Polygon", "coordinates": [[[18.945, 42.0], [18.92, 42.005], [18.895, 41.98], [18.895, 41.94], [18.91, 41.925], [18.94, 41.925], [18.945, 41.93], [18.945, 42.0]]]}, "properties": {"score_mean": 1.6, "score_max": 3.0, "area_km2": 33.2, "centroid": [18.9219, 41.9633], "razlog": "zora/sumrak + prisustvo mamca", "dubina_panule_m": 5.0, "sst_raspon_C": 0.8, "sst_promjena_3d_C": 0.5, "upwelling": 0.0, "hladnije_C": -0.4, "izgledi": "vrlo slabi"}}, {"type": "Feature", "geometry": {"type": "Polygon", "coordinates": [[[18.85, 41.875], [18.825, 41.87], [18.825, 41.85], [18.84, 41.835], [18.855, 41.83], [18.855, 41.82], [18.89, 41.785], [18.94, 41.775], [18.945, 41.78], [18.945, 41.84], [18.94, 41.845], [18.87, 41.845], [18.865, 41.86], [18.85, 41.875]]]}, "properties": {"score_mean": 1.1, "score_max": 1.2, "area_km2": 59.1, "centroid": [18.8931, 41.8234], "razlog": "zora/sumrak + prisustvo mamca", "dubina_panule_m": 5.0, "sst_raspon_C": 0.5, "sst_promjena_3d_C": -0.4, "upwelling": 0.1, "hladnije_C": 0.3, "izgledi": "vrlo slabi"}}]}