{"type": "FeatureCollection", "properties": {"vrsta": "strelka", "naziv": "Strelka", "latinski": "Pomatomus saltatrix", "datum": "2026-09-12", "profil": "ljetnji, otvoreno more", "panula": {"dubina_m": [0.0, 25.0], "brzina_kn": [3.0, 5.0], "sati": "zora i sumrak", "granica_dubine_m": 50.0}, "vertikala": {"termoklina_m": 17.8, "termoklina_C_po_m": 0.2, "dcm_m": 97.9, "dcm_odnos": 1.0, "dcm_debljina_m": 42.1, "mld_m": 11.9, "sloj_plijena_m": [51.8, 99.4], "dohvatljivost": 0.0, "objasnjenje": "Termoklina na 18 m. Sloj plijena lezi pretezno ispod 50 m, dakle izvan dohvata panule. Najveca gustina hlorofila je na 98 m (sloj debljine 42 m) - tu se skuplja sitna riba koja se hrani planktonom, pa je i najveca vjerovatnoca da su grabljivice tu negdje."}, "bezbjednost": {"nivo": "zeleno", "razlog": "uslovi povoljni", "izlazak_preporucen": true}, "napomena": "Ljeti ne ide uz obalu nego prati mamac na otvorenom.", "razlog_praznog": null}, "features": [{"type": "Feature", "geometry": {"type": "Polygon", "coordinates": [[[18.98, 41.975], [18.91, 41.975], [18.895, 41.96], [18.895, 41.94], [18.91, 41.925], [18.93, 41.925], [18.95, 41.905], [19.0, 41.895], [19.005, 41.9], [19.005, 41.94], [18.98, 41.975]]]}, "properties": {"score_mean": 53.7, "score_max": 59.2, "area_km2": 59.9, "centroid": [18.9549, 41.94], "razlog": "termalni front + prisustvo mamca", "dubina_panule_m": 7.4, "sst_raspon_C": 0.7, "sst_promjena_3d_C": 0.0, "upwelling": 0.4, "hladnije_C": 0.3, "izgledi": "dobri"}}, {"type": "Feature", "geometry": {"type": "Polygon", "coordinates": [[[18.69, 42.305], [18.65, 42.305], [18.645, 42.28], [18.685, 42.24], [18.685, 42.23], [18.7, 42.215], [18.73, 42.215], [18.735, 42.22], [18.735, 42.26], [18.71, 42.265], [18.7, 42.275], [18.69, 42.305]]]}, "properties": {"score_mean": 25.0, "score_max": 56.0, "area_km2": 43.1, "centroid": [18.6923, 42.2606], "razlog": "termalni front + povoljna dubina", "dubina_panule_m": 25.0, "sst_raspon_C": 0.7, "sst_promjena_3d_C": 0.0, "upwelling": 0.0, "hladnije_C": -0.2, "izgledi": "osrednji"}}]}