{"type": "FeatureCollection", "properties": {"vrsta": "strelka", "naziv": "Strelka", "latinski": "Pomatomus saltatrix", "datum": "2026-09-20", "profil": "ljetnji, otvoreno more", "panula": {"dubina_m": [0.0, 25.0], "brzina_kn": [3.0, 5.0], "sati": "zora i sumrak", "granica_dubine_m": 50.0}, "vertikala": {"termoklina_m": 24.5, "termoklina_C_po_m": 0.2, "dcm_m": 97.9, "dcm_odnos": 1.0, "dcm_debljina_m": 36.6, "mld_m": 12.7, "sloj_plijena_m": [58.4, 106.5], "dohvatljivost": 0.0, "objasnjenje": "Termoklina na 24 m. Sloj plijena lezi pretezno ispod 50 m, dakle izvan dohvata panule. Najveca gustina hlorofila je na 98 m (sloj debljine 37 m) - tu se skuplja sitna riba koja se hrani planktonom, pa je i najveca vjerovatnoca da su grabljivice tu negdje."}, "bezbjednost": {"nivo": "zuto", "razlog": "vjetar 12 cv", "izlazak_preporucen": true}, "napomena": "Ljeti ne ide uz obalu nego prati mamac na otvorenom.", "razlog_praznog": null}, "features": [{"type": "Feature", "geometry": {"type": "Polygon", "coordinates": [[[19.14, 41.865], [19.08, 41.865], [19.075, 41.86], [19.075, 41.84], [19.095, 41.82], [19.095, 41.81], [19.105, 41.8], [19.105, 41.78], [19.12, 41.765], [19.145, 41.77], [19.145, 41.86], [19.14, 41.865]]]}, "properties": {"score_mean": 51.4, "score_max": 58.9, "area_km2": 48.0, "centroid": [19.1171, 41.8225], "razlog": "termalni front + prisustvo mamca", "dubina_panule_m": 7.1, "sst_raspon_C": 1.0, "sst_promjena_3d_C": 0.0, "upwelling": 0.0, "hladnije_C": -0.0, "izgledi": "dobri"}}, {"type": "Feature", "geometry": {"type": "Polygon", "coordinates": [[[18.945, 42.03], [18.92, 42.035], [18.885, 42.0], [18.885, 41.97], [18.92, 41.945], [18.945, 41.95], [18.945, 42.03]]]}, "properties": {"score_mean": 42.8, "score_max": 46.3, "area_km2": 40.5, "centroid": [18.9191, 41.9889], "razlog": "povoljna dubina + prisustvo mamca", "dubina_panule_m": 11.0, "sst_raspon_C": 0.4, "sst_promjena_3d_C": 0.0, "upwelling": 0.0, "hladnije_C": -0.0, "izgledi": "dobri"}}]}