{"type": "FeatureCollection", "properties": {"vrsta": "strelka", "naziv": "Strelka", "latinski": "Pomatomus saltatrix", "datum": "2026-09-26", "profil": "ljetnji, otvoreno more", "panula": {"dubina_m": [0.0, 25.0], "brzina_kn": [3.0, 5.0], "sati": "zora i sumrak", "granica_dubine_m": 50.0}, "vertikala": {"termoklina_m": 24.5, "termoklina_C_po_m": 0.2, "dcm_m": 91.2, "dcm_odnos": 1.0, "dcm_debljina_m": 39.8, "mld_m": 15.6, "sloj_plijena_m": [64.8, 104.5], "dohvatljivost": 0.0, "objasnjenje": "Termoklina na 24 m. Sloj plijena lezi pretezno ispod 50 m, dakle izvan dohvata panule. Najveca gustina hlorofila je na 91 m (sloj debljine 40 m) - tu se skuplja sitna riba koja se hrani planktonom, pa je i najveca vjerovatnoca da su grabljivice tu negdje."}, "bezbjednost": {"nivo": "zeleno", "razlog": "uslovi povoljni", "izlazak_preporucen": true}, "napomena": "Ljeti ne ide uz obalu nego prati mamac na otvorenom.", "razlog_praznog": null}, "features": [{"type": "Feature", "geometry": {"type": "Polygon", "coordinates": [[[19.08, 41.965], [19.055, 41.96], [19.06, 41.935], [19.085, 41.94], [19.08, 41.965]]]}, "properties": {"score_mean": 53.9, "score_max": 56.8, "area_km2": 8.3, "centroid": [19.07, 41.95], "razlog": "prisustvo mamca + termalni front", "dubina_panule_m": 7.7, "sst_raspon_C": 0.6, "sst_promjena_3d_C": -1.1, "upwelling": 0.3, "hladnije_C": 0.1, "izgledi": "dobri"}}, {"type": "Feature", "geometry": {"type": "Polygon", "coordinates": [[[19.01, 42.065], [18.985, 42.06], [18.99, 42.035], [19.015, 42.04], [19.01, 42.065]]]}, "properties": {"score_mean": 51.8, "score_max": 53.0, "area_km2": 8.3, "centroid": [19.0, 42.05], "razlog": "termalni front + prisustvo mamca", "dubina_panule_m": 8.0, "sst_raspon_C": 0.8, "sst_promjena_3d_C": -1.1, "upwelling": 0.3, "hladnije_C": 0.2, "izgledi": "dobri"}}, {"type": "Feature", "geometry": {"type": "Polygon", "coordinates": [[[18.945, 42.06], [18.92, 42.065], [18.895, 42.04], [18.895, 42.0], [18.91, 41.985], [18.94, 41.985], [18.945, 41.99], [18.945, 42.06]]]}, "properties": {"score_mean": 46.5, "score_max": 49.2, "area_km2": 33.1, "centroid": [18.9219, 42.0233], "razlog": "povoljna dubina + termalni front", "dubina_panule_m": 8.7, "sst_raspon_C": 0.5, "sst_promjena_3d_C": -0.9, "upwelling": 0.0, "hladnije_C": -0.1, "izgledi": "dobri"}}, {"type": "Feature", "geometry": {"type": "Polygon", "coordinates": [[[18.69, 42.305], [18.665, 42.3], [18.665, 42.27], [18.67, 42.265], [18.695, 42.27], [18.695, 42.3], [18.69, 42.305]]]}, "properties": {"score_mean": 39.6, "score_max": 54.9, "area_km2": 11.0, "centroid": [18.68, 42.285], "razlog": "termalni front + prisustvo mamca", "dubina_panule_m": 7.2, "sst_raspon_C": 0.6, "sst_promjena_3d_C": -0.6, "upwelling": 0.2, "hladnije_C": 0.1, "izgledi": "osrednji"}}, {"type": "Feature", "geometry": {"type": "Polygon", "coordinates": [[[18.73, 42.265], [18.7, 42.265], [18.695, 42.26], [18.695, 42.24], [18.71, 42.225], [18.735, 42.23], [18.735, 42.26], [18.73, 42.265]]]}, "properties": {"score_mean": 36.6, "score_max": 48.8, "area_km2": 13.8, "centroid": [18.716, 42.246], "razlog": "povoljna dubina + prisustvo mamca", "dubina_panule_m": 7.2, "sst_raspon_C": 0.3, "sst_promjena_3d_C": -0.8, "upwelling": 0.0, "hladnije_C": 0.2, "izgledi": "osrednji"}}, {"type": "Feature", "geometry": {"type": "Polygon", "coordinates": [[[18.78, 42.015], [18.755, 42.01], [18.755, 41.98], [18.77, 41.965], [18.795, 41.97], [18.795, 42.0], [18.78, 42.015]]]}, "properties": {"score_mean": 2.0, "score_max": 2.2, "area_km2": 16.6, "centroid": [18.775, 41.99], "razlog": "povoljna dubina + zora/sumrak", "dubina_panule_m": 25.0, "sst_raspon_C": 0.2, "sst_promjena_3d_C": -0.7, "upwelling": 0.0, "hladnije_C": 0.0, "izgledi": "vrlo slabi"}}]}