{"type": "FeatureCollection", "properties": {"vrsta": "strelka", "naziv": "Strelka", "latinski": "Pomatomus saltatrix", "datum": "2026-09-23", "profil": "ljetnji, otvoreno more", "panula": {"dubina_m": [0.0, 25.0], "brzina_kn": [3.0, 5.0], "sati": "zora i sumrak", "granica_dubine_m": 50.0}, "vertikala": {"termoklina_m": 28.0, "termoklina_C_po_m": 0.2, "dcm_m": 97.9, "dcm_odnos": 1.0, "dcm_debljina_m": 39.8, "mld_m": 20.7, "sloj_plijena_m": [61.2, 109.0], "dohvatljivost": 0.0, "objasnjenje": "Termoklina na 28 m. Sloj plijena lezi pretezno ispod 50 m, dakle izvan dohvata panule. Najveca gustina hlorofila je na 98 m (sloj debljine 40 m) - tu se skuplja sitna riba koja se hrani planktonom, pa je i najveca vjerovatnoca da su grabljivice tu negdje."}, "bezbjednost": {"nivo": "crveno", "razlog": "talasi do 1.6 m, vjetar 16 cv, udari 26 cv", "izlazak_preporucen": false}, "napomena": "Ljeti ne ide uz obalu nego prati mamac na otvorenom.", "razlog_praznog": null}, "features": [{"type": "Feature", "geometry": {"type": "Polygon", "coordinates": [[[19.1, 41.925], [19.075, 41.92], [19.075, 41.89], [19.08, 41.885], [19.105, 41.89], [19.105, 41.92], [19.1, 41.925]]]}, "properties": {"score_mean": 53.5, "score_max": 57.5, "area_km2": 11.1, "centroid": [19.09, 41.905], "razlog": "povoljna dubina + termalni front", "dubina_panule_m": 9.5, "sst_raspon_C": 0.6, "sst_promjena_3d_C": 0.3, "upwelling": 0.0, "hladnije_C": 0.1, "izgledi": "dobri"}}, {"type": "Feature", "geometry": {"type": "Polygon", "coordinates": [[[18.96, 42.015], [18.92, 42.015], [18.915, 42.01], [18.915, 41.98], [18.94, 41.965], [18.96, 41.965], [18.975, 41.98], [18.975, 42.0], [18.96, 42.015]]]}, "properties": {"score_mean": 50.1, "score_max": 52.5, "area_km2": 23.9, "centroid": [18.9446, 41.9915], "razlog": "povoljna dubina + prisustvo mamca", "dubina_panule_m": 10.2, "sst_raspon_C": 0.1, "sst_promjena_3d_C": 0.6, "upwelling": 0.0, "hladnije_C": -0.0, "izgledi": "dobri"}}, {"type": "Feature", "geometry": {"type": "Polygon", "coordinates": [[[18.82, 42.075], [18.79, 42.075], [18.785, 42.05], [18.79, 42.045], [18.82, 42.045], [18.825, 42.05], [18.82, 42.075]]]}, "properties": {"score_mean": 39.1, "score_max": 46.1, "area_km2": 11.0, "centroid": [18.805, 42.06], "razlog": "povoljna dubina + prisustvo mamca", "dubina_panule_m": 14.2, "sst_raspon_C": 0.2, "sst_promjena_3d_C": 0.2, "upwelling": 0.1, "hladnije_C": 0.1, "izgledi": "osrednji"}}]}