{"type": "FeatureCollection", "properties": {"vrsta": "strelka", "naziv": "Strelka", "latinski": "Pomatomus saltatrix", "datum": "2026-09-19", "profil": "ljetnji, otvoreno more", "panula": {"dubina_m": [0.0, 25.0], "brzina_kn": [3.0, 5.0], "sati": "zora i sumrak", "granica_dubine_m": 50.0}, "vertikala": {"termoklina_m": 24.5, "termoklina_C_po_m": 0.2, "dcm_m": 97.9, "dcm_odnos": 1.0, "dcm_debljina_m": 38.1, "mld_m": 13.1, "sloj_plijena_m": [59.4, 106.0], "dohvatljivost": 0.0, "objasnjenje": "Termoklina na 24 m. Sloj plijena lezi pretezno ispod 50 m, dakle izvan dohvata panule. Najveca gustina hlorofila je na 98 m (sloj debljine 38 m) - tu se skuplja sitna riba koja se hrani planktonom, pa je i najveca vjerovatnoca da su grabljivice tu negdje."}, "bezbjednost": {"nivo": "zuto", "razlog": "vjetar 11 cv", "izlazak_preporucen": true}, "napomena": "Ljeti ne ide uz obalu nego prati mamac na otvorenom.", "razlog_praznog": null}, "features": [{"type": "Feature", "geometry": {"type": "Polygon", "coordinates": [[[19.1, 41.785], [19.08, 41.785], [19.075, 41.76], [19.1, 41.745], [19.12, 41.745], [19.125, 41.77], [19.1, 41.785]]]}, "properties": {"score_mean": 57.9, "score_max": 62.2, "area_km2": 14.8, "centroid": [19.1, 41.765], "razlog": "prisustvo mamca + termalni front", "dubina_panule_m": 7.1, "sst_raspon_C": 0.9, "sst_promjena_3d_C": -0.1, "upwelling": 0.5, "hladnije_C": 0.3, "izgledi": "dobri"}}, {"type": "Feature", "geometry": {"type": "Polygon", "coordinates": [[[18.69, 42.305], [18.665, 42.3], [18.67, 42.275], [18.695, 42.28], [18.69, 42.305]]]}, "properties": {"score_mean": 46.9, "score_max": 47.6, "area_km2": 8.3, "centroid": [18.68, 42.29], "razlog": "termalni front + povoljna dubina", "dubina_panule_m": 7.7, "sst_raspon_C": 0.5, "sst_promjena_3d_C": -0.4, "upwelling": 0.0, "hladnije_C": -0.2, "izgledi": "dobri"}}, {"type": "Feature", "geometry": {"type": "Polygon", "coordinates": [[[18.94, 41.995], [18.91, 41.995], [18.905, 41.99], [18.905, 41.97], [18.92, 41.955], [18.945, 41.96], [18.945, 41.99], [18.94, 41.995]]]}, "properties": {"score_mean": 45.8, "score_max": 48.2, "area_km2": 13.8, "centroid": [18.926, 41.976], "razlog": "termalni front + povoljna dubina", "dubina_panule_m": 11.7, "sst_raspon_C": 0.5, "sst_promjena_3d_C": -0.3, "upwelling": 0.0, "hladnije_C": -0.1, "izgledi": "dobri"}}, {"type": "Feature", "geometry": {"type": "Polygon", "coordinates": [[[18.89, 42.045], [18.86, 42.045], [18.845, 42.03], [18.845, 41.99], [18.86, 41.965], [18.88, 41.965], [18.895, 41.98], [18.895, 42.04], [18.89, 42.045]]]}, "properties": {"score_mean": 45.4, "score_max": 49.5, "area_km2": 33.1, "centroid": [18.8711, 42.0067], "razlog": "termalni front + povoljna dubina", "dubina_panule_m": 12.9, "sst_raspon_C": 0.8, "sst_promjena_3d_C": -0.8, "upwelling": 0.0, "hladnije_C": 0.4, "izgledi": "dobri"}}, {"type": "Feature", "geometry": {"type": "Polygon", "coordinates": [[[18.73, 42.265], [18.7, 42.265], [18.695, 42.26], [18.695, 42.24], [18.71, 42.225], [18.735, 42.23], [18.735, 42.26], [18.73, 42.265]]]}, "properties": {"score_mean": 35.8, "score_max": 46.4, "area_km2": 13.8, "centroid": [18.716, 42.246], "razlog": "povoljna dubina + termalni front", "dubina_panule_m": 25.0, "sst_raspon_C": 0.4, "sst_promjena_3d_C": -0.2, "upwelling": 0.0, "hladnije_C": -0.1, "izgledi": "osrednji"}}]}