{"type": "FeatureCollection", "properties": {"vrsta": "strelka", "naziv": "Strelka", "latinski": "Pomatomus saltatrix", "datum": "2026-09-25", "profil": "ljetnji, otvoreno more", "panula": {"dubina_m": [0.0, 25.0], "brzina_kn": [3.0, 5.0], "sati": "zora i sumrak", "granica_dubine_m": 50.0}, "vertikala": {"termoklina_m": 31.8, "termoklina_C_po_m": 0.2, "dcm_m": 97.9, "dcm_odnos": 1.0, "dcm_debljina_m": 38.1, "mld_m": 20.7, "sloj_plijena_m": [67.5, 107.7], "dohvatljivost": 0.0, "objasnjenje": "Termoklina na 32 m. Sloj plijena lezi pretezno ispod 50 m, dakle izvan dohvata panule. Najveca gustina hlorofila je na 98 m (sloj debljine 38 m) - tu se skuplja sitna riba koja se hrani planktonom, pa je i najveca vjerovatnoca da su grabljivice tu negdje."}, "bezbjednost": {"nivo": "crveno", "razlog": "vjetar 16 cv, udari 26 cv", "izlazak_preporucen": false}, "napomena": "Ljeti ne ide uz obalu nego prati mamac na otvorenom.", "razlog_praznog": null}, "features": [{"type": "Feature", "geometry": {"type": "Polygon", "coordinates": [[[19.08, 41.995], [19.055, 41.99], [19.055, 41.95], [19.07, 41.935], [19.095, 41.94], [19.095, 41.98], [19.08, 41.995]]]}, "properties": {"score_mean": 50.5, "score_max": 59.5, "area_km2": 20.3, "centroid": [19.075, 41.965], "razlog": "povoljna dubina + prisustvo mamca", "dubina_panule_m": 7.4, "sst_raspon_C": 0.4, "sst_promjena_3d_C": 0.0, "upwelling": 0.0, "hladnije_C": -0.1, "izgledi": "dobri"}}, {"type": "Feature", "geometry": {"type": "Polygon", "coordinates": [[[18.78, 42.055], [18.755, 42.05], [18.755, 42.02], [18.76, 42.015], [18.79, 42.015], [18.795, 42.02], [18.795, 42.04], [18.78, 42.055]]]}, "properties": {"score_mean": 42.5, "score_max": 49.1, "area_km2": 13.8, "centroid": [18.774, 42.034], "razlog": "povoljna dubina + prisustvo mamca", "dubina_panule_m": 16.1, "sst_raspon_C": 0.4, "sst_promjena_3d_C": 0.0, "upwelling": 0.0, "hladnije_C": 0.1, "izgledi": "dobri"}}, {"type": "Feature", "geometry": {"type": "Polygon", "coordinates": [[[18.92, 42.095], [18.9, 42.095], [18.885, 42.07], [18.885, 41.99], [18.89, 41.985], [18.91, 41.985], [18.945, 42.01], [18.945, 42.08], [18.92, 42.095]]]}, "properties": {"score_mean": 40.1, "score_max": 44.3, "area_km2": 53.4, "centroid": [18.914, 42.04], "razlog": "povoljna dubina + prisustvo mamca", "dubina_panule_m": 11.0, "sst_raspon_C": 0.2, "sst_promjena_3d_C": 0.0, "upwelling": 0.0, "hladnije_C": -0.0, "izgledi": "dobri"}}, {"type": "Feature", "geometry": {"type": "Polygon", "coordinates": [[[18.73, 42.265], [18.7, 42.265], [18.695, 42.26], [18.695, 42.23], [18.71, 42.215], [18.735, 42.22], [18.735, 42.26], [18.73, 42.265]]]}, "properties": {"score_mean": 26.2, "score_max": 42.3, "area_km2": 17.4, "centroid": [18.7158, 42.2411], "razlog": "povoljna dubina + zora/sumrak", "dubina_panule_m": 9.9, "sst_raspon_C": 0.2, "sst_promjena_3d_C": 0.0, "upwelling": 0.0, "hladnije_C": 0.1, "izgledi": "osrednji"}}, {"type": "Feature", "geometry": {"type": "Polygon", "coordinates": [[[18.69, 42.305], [18.66, 42.305], [18.655, 42.3], [18.655, 42.28], [18.67, 42.265], [18.695, 42.27], [18.695, 42.3], [18.69, 42.305]]]}, "properties": {"score_mean": 25.7, "score_max": 43.5, "area_km2": 13.8, "centroid": [18.676, 42.286], "razlog": "povoljna dubina + zora/sumrak", "dubina_panule_m": 9.2, "sst_raspon_C": 0.2, "sst_promjena_3d_C": 0.0, "upwelling": 0.0, "hladnije_C": 0.0, "izgledi": "osrednji"}}]}