{"type": "FeatureCollection", "properties": {"vrsta": "strelka", "naziv": "Strelka", "latinski": "Pomatomus saltatrix", "datum": "2026-10-06", "profil": "priobalni", "panula": {"dubina_m": [0.0, 10.0], "brzina_kn": [3.0, 5.0], "sati": "zora i sumrak", "granica_dubine_m": 50.0}, "vertikala": {"termoklina_m": 35.8, "termoklina_C_po_m": 0.1, "dcm_m": 91.2, "dcm_odnos": 1.0, "dcm_debljina_m": 41.6, "mld_m": 16.8, "sloj_plijena_m": [67.1, 107.4], "dohvatljivost": 0.0, "objasnjenje": "Termoklina na 36 m. Sloj plijena lezi pretezno ispod 50 m, dakle izvan dohvata panule. Najveca gustina hlorofila je na 91 m (sloj debljine 42 m) - tu se skuplja sitna riba koja se hrani planktonom, pa je i najveca vjerovatnoca da su grabljivice tu negdje."}, "bezbjednost": {"nivo": "zeleno", "razlog": "uslovi povoljni", "izlazak_preporucen": true}, "napomena": "U jesen uz obalu i na usce. Domen modela je more ispred usca i samo usce - ne i rijeka.", "razlog_praznog": null}, "features": [{"type": "Feature", "geometry": {"type": "Polygon", "coordinates": [[[18.87, 42.225], [18.83, 42.225], [18.825, 42.22], [18.825, 42.19], [18.84, 42.175], [18.865, 42.17], [18.865, 42.15], [18.88, 42.135], [18.905, 42.13], [18.905, 42.11], [18.92, 42.095], [18.94, 42.095], [18.945, 42.1], [18.945, 42.14], [18.915, 42.15], [18.915, 42.18], [18.91, 42.185], [18.88, 42.185], [18.875, 42.19], [18.875, 42.22], [18.87, 42.225]]]}, "properties": {"score_mean": 17.7, "score_max": 28.1, "area_km2": 59.7, "centroid": [18.8863, 42.164], "razlog": "zora/sumrak + prisustvo mamca", "dubina_panule_m": 5.0, "sst_raspon_C": 0.9, "sst_promjena_3d_C": -0.6, "upwelling": 0.0, "hladnije_C": 0.0, "izgledi": "slabi"}}, {"type": "Feature", "geometry": {"type": "Polygon", "coordinates": [[[18.66, 42.345], [18.63, 42.345], [18.625, 42.32], [18.64, 42.305], [18.65, 42.305], [18.655, 42.29], [18.68, 42.265], [18.695, 42.26], [18.695, 42.24], [18.72, 42.215], [18.74, 42.215], [18.745, 42.22], [18.745, 42.27], [18.74, 42.275], [18.71, 42.275], [18.705, 42.28], [18.705, 42.31], [18.7, 42.315], [18.67, 42.315], [18.66, 42.345]]]}, "properties": {"score_mean": 17.6, "score_max": 29.1, "area_km2": 56.8, "centroid": [18.6908, 42.281], "razlog": "zora/sumrak + prisustvo mamca", "dubina_panule_m": 5.0, "sst_raspon_C": 0.4, "sst_promjena_3d_C": -0.3, "upwelling": 0.0, "hladnije_C": 0.0, "izgledi": "slabi"}}, {"type": "Feature", "geometry": {"type": "Polygon", "coordinates": [[[18.94, 41.995], [18.915, 41.99], [18.915, 41.95], [18.92, 41.945], [18.945, 41.95], [18.945, 41.99], [18.94, 41.995]]]}, "properties": {"score_mean": 12.1, "score_max": 20.7, "area_km2": 13.8, "centroid": [18.93, 41.97], "razlog": "zora/sumrak + prisustvo mamca", "dubina_panule_m": 5.0, "sst_raspon_C": 0.5, "sst_promjena_3d_C": 0.2, "upwelling": 0.0, "hladnije_C": -0.3, "izgledi": "slabi"}}]}