{"type": "FeatureCollection", "properties": {"vrsta": "strelka", "naziv": "Strelka", "latinski": "Pomatomus saltatrix", "datum": "2026-09-05", "profil": "ljetnji, otvoreno more", "panula": {"dubina_m": [0.0, 25.0], "brzina_kn": [3.0, 5.0], "sati": "zora i sumrak", "granica_dubine_m": 50.0}, "vertikala": {"termoklina_m": 14.8, "termoklina_C_po_m": 0.4, "dcm_m": 91.2, "dcm_odnos": 1.0, "dcm_debljina_m": 43.0, "mld_m": 11.9, "sloj_plijena_m": [57.9, 102.9], "dohvatljivost": 0.0, "objasnjenje": "Termoklina na 15 m. Sloj plijena lezi pretezno ispod 50 m, dakle izvan dohvata panule. Najveca gustina hlorofila je na 91 m (sloj debljine 43 m) - tu se skuplja sitna riba koja se hrani planktonom, pa je i najveca vjerovatnoca da su grabljivice tu negdje."}, "bezbjednost": {"nivo": "zuto", "razlog": "vjetar 14 cv", "izlazak_preporucen": true}, "napomena": "Ljeti ne ide uz obalu nego prati mamac na otvorenom.", "razlog_praznog": null}, "features": [{"type": "Feature", "geometry": {"type": "Polygon", "coordinates": [[[19.09, 42.005], [19.065, 42.0], [19.065, 41.94], [19.08, 41.925], [19.105, 41.93], [19.105, 41.98], [19.09, 42.005]]]}, "properties": {"score_mean": 42.6, "score_max": 46.4, "area_km2": 26.7, "centroid": [19.0845, 41.9641], "razlog": "prisustvo mamca + povoljna dubina", "dubina_panule_m": 7.1, "sst_raspon_C": 0.4, "sst_promjena_3d_C": -0.1, "upwelling": 0.3, "hladnije_C": 0.2, "izgledi": "dobri"}}, {"type": "Feature", "geometry": {"type": "Polygon", "coordinates": [[[18.69, 42.305], [18.66, 42.305], [18.655, 42.3], [18.655, 42.27], [18.685, 42.26], [18.685, 42.24], [18.71, 42.205], [18.73, 42.205], [18.735, 42.21], [18.735, 42.26], [18.695, 42.27], [18.695, 42.3], [18.69, 42.305]]]}, "properties": {"score_mean": 20.5, "score_max": 43.8, "area_km2": 38.5, "centroid": [18.6983, 42.2557], "razlog": "povoljna dubina + prisustvo mamca", "dubina_panule_m": 25.0, "sst_raspon_C": 0.2, "sst_promjena_3d_C": 0.2, "upwelling": 0.0, "hladnije_C": -0.0, "izgledi": "slabi"}}, {"type": "Feature", "geometry": {"type": "Polygon", "coordinates": [[[18.86, 42.215], [18.82, 42.215], [18.815, 42.19], [18.84, 42.165], [18.85, 42.165], [18.855, 42.15], [18.87, 42.135], [18.9, 42.135], [18.905, 42.14], [18.905, 42.17], [18.9, 42.175], [18.87, 42.175], [18.86, 42.215]]]}, "properties": {"score_mean": 19.8, "score_max": 50.1, "area_km2": 36.7, "centroid": [18.8603, 42.1755], "razlog": "termalni front + povoljna dubina", "dubina_panule_m": 25.0, "sst_raspon_C": 0.7, "sst_promjena_3d_C": -0.2, "upwelling": 0.2, "hladnije_C": 0.2, "izgledi": "slabi"}}, {"type": "Feature", "geometry": {"type": "Polygon", "coordinates": [[[18.94, 42.135], [18.91, 42.135], [18.905, 42.13], [18.905, 42.1], [18.91, 42.095], [18.94, 42.095], [18.945, 42.1], [18.945, 42.13], [18.94, 42.135]]]}, "properties": {"score_mean": 18.8, "score_max": 34.1, "area_km2": 14.7, "centroid": [18.925, 42.115], "razlog": "povoljna dubina + prisustvo mamca", "dubina_panule_m": 25.0, "sst_raspon_C": 0.4, "sst_promjena_3d_C": 0.4, "upwelling": 0.0, "hladnije_C": -0.1, "izgledi": "slabi"}}, {"type": "Feature", "geometry": {"type": "Polygon", "coordinates": [[[18.73, 41.775], [18.705, 41.77], [18.705, 41.74], [18.72, 41.725], [18.76, 41.725], [18.765, 41.75], [18.73, 41.775]]]}, "properties": {"score_mean": 2.3, "score_max": 2.5, "area_km2": 23.1, "centroid": [18.7332, 41.748], "razlog": "povoljna dubina + zora/sumrak", "dubina_panule_m": 25.0, "sst_raspon_C": 0.1, "sst_promjena_3d_C": 0.2, "upwelling": 0.0, "hladnije_C": -0.0, "izgledi": "vrlo slabi"}}]}