{"type": "FeatureCollection", "properties": {"vrsta": "strelka", "naziv": "Strelka", "latinski": "Pomatomus saltatrix", "datum": "2026-10-05", "profil": "priobalni", "panula": {"dubina_m": [0.0, 10.0], "brzina_kn": [3.0, 5.0], "sati": "zora i sumrak", "granica_dubine_m": 50.0}, "vertikala": {"termoklina_m": 40.0, "termoklina_C_po_m": 0.1, "dcm_m": 97.9, "dcm_odnos": 1.0, "dcm_debljina_m": 39.8, "mld_m": 17.6, "sloj_plijena_m": [69.2, 110.6], "dohvatljivost": 0.0, "objasnjenje": "Termoklina na 40 m. Sloj plijena lezi pretezno ispod 50 m, dakle izvan dohvata panule. Najveca gustina hlorofila je na 98 m (sloj debljine 40 m) - tu se skuplja sitna riba koja se hrani planktonom, pa je i najveca vjerovatnoca da su grabljivice tu negdje."}, "bezbjednost": {"nivo": "zuto", "razlog": "vjetar 12 cv", "izlazak_preporucen": true}, "napomena": "U jesen uz obalu i na usce. Domen modela je more ispred usca i samo usce - ne i rijeka.", "razlog_praznog": null}, "features": [{"type": "Feature", "geometry": {"type": "Polygon", "coordinates": [[[19.17, 41.875], [19.14, 41.875], [19.135, 41.85], [19.14, 41.845], [19.17, 41.845], [19.175, 41.85], [19.17, 41.875]]]}, "properties": {"score_mean": 29.6, "score_max": 31.4, "area_km2": 11.1, "centroid": [19.155, 41.86], "razlog": "zora/sumrak + prisustvo mamca", "dubina_panule_m": 5.0, "sst_raspon_C": 0.9, "sst_promjena_3d_C": -0.3, "upwelling": 0.0, "hladnije_C": -0.1, "izgledi": "osrednji"}}, {"type": "Feature", "geometry": {"type": "Polygon", "coordinates": [[[18.87, 42.225], [18.84, 42.225], [18.835, 42.22], [18.835, 42.19], [18.85, 42.175], [18.865, 42.17], [18.865, 42.16], [18.89, 42.135], [18.905, 42.13], [18.905, 42.12], [18.92, 42.105], [18.94, 42.105], [18.945, 42.11], [18.945, 42.14], [18.915, 42.15], [18.915, 42.18], [18.91, 42.185], [18.88, 42.185], [18.875, 42.19], [18.875, 42.22], [18.87, 42.225]]]}, "properties": {"score_mean": 22.0, "score_max": 29.1, "area_km2": 49.6, "centroid": [18.8889, 42.1659], "razlog": "zora/sumrak + prisustvo mamca", "dubina_panule_m": 5.0, "sst_raspon_C": 1.2, "sst_promjena_3d_C": -0.3, "upwelling": 0.0, "hladnije_C": 0.0, "izgledi": "slabi"}}, {"type": "Feature", "geometry": {"type": "Polygon", "coordinates": [[[18.7, 42.315], [18.67, 42.315], [18.665, 42.31], [18.665, 42.28], [18.68, 42.265], [18.695, 42.26], [18.695, 42.24], [18.71, 42.225], [18.74, 42.225], [18.745, 42.23], [18.745, 42.27], [18.74, 42.275], [18.71, 42.275], [18.7, 42.315]]]}, "properties": {"score_mean": 21.9, "score_max": 30.6, "area_km2": 38.5, "centroid": [18.7055, 42.2686], "razlog": "zora/sumrak + prisustvo mamca", "dubina_panule_m": 5.0, "sst_raspon_C": 0.4, "sst_promjena_3d_C": 0.4, "upwelling": 0.0, "hladnije_C": -0.1, "izgledi": "slabi"}}, {"type": "Feature", "geometry": {"type": "Polygon", "coordinates": [[[18.94, 41.975], [18.915, 41.97], [18.915, 41.95], [18.905, 41.94], [18.905, 41.92], [18.915, 41.91], [18.92, 41.885], [18.945, 41.89], [18.945, 41.97], [18.94, 41.975]]]}, "properties": {"score_mean": 1.5, "score_max": 17.7, "area_km2": 27.7, "centroid": [18.928, 41.93], "razlog": "zora/sumrak + prisustvo mamca", "dubina_panule_m": 5.0, "sst_raspon_C": 0.5, "sst_promjena_3d_C": -0.4, "upwelling": 0.0, "hladnije_C": 0.3, "izgledi": "vrlo slabi"}}]}