{"type": "FeatureCollection", "properties": {"vrsta": "strelka", "naziv": "Strelka", "latinski": "Pomatomus saltatrix", "datum": "2026-09-04", "profil": "ljetnji, otvoreno more", "panula": {"dubina_m": [0.0, 25.0], "brzina_kn": [3.0, 5.0], "sati": "zora i sumrak", "granica_dubine_m": 50.0}, "vertikala": {"termoklina_m": 14.8, "termoklina_C_po_m": 0.3, "dcm_m": 91.2, "dcm_odnos": 1.0, "dcm_debljina_m": 46.5, "mld_m": 11.9, "sloj_plijena_m": [58.9, 105.3], "dohvatljivost": 0.0, "objasnjenje": "Termoklina na 15 m. Sloj plijena lezi pretezno ispod 50 m, dakle izvan dohvata panule. Najveca gustina hlorofila je na 91 m (sloj debljine 46 m) - tu se skuplja sitna riba koja se hrani planktonom, pa je i najveca vjerovatnoca da su grabljivice tu negdje."}, "bezbjednost": {"nivo": "crveno", "razlog": "vjetar 16 cv, udari 22 cv", "izlazak_preporucen": false}, "napomena": "Ljeti ne ide uz obalu nego prati mamac na otvorenom.", "razlog_praznog": null}, "features": [{"type": "Feature", "geometry": {"type": "Polygon", "coordinates": [[[19.08, 42.025], [19.05, 42.025], [19.045, 42.02], [19.045, 41.96], [19.055, 41.95], [19.055, 41.94], [19.08, 41.915], [19.1, 41.915], [19.115, 41.94], [19.115, 42.0], [19.08, 42.025]]]}, "properties": {"score_mean": 40.1, "score_max": 50.7, "area_km2": 59.0, "centroid": [19.0803, 41.9728], "razlog": "prisustvo mamca + povoljna dubina", "dubina_panule_m": 7.1, "sst_raspon_C": 0.3, "sst_promjena_3d_C": 0.8, "upwelling": 0.1, "hladnije_C": 0.0, "izgledi": "dobri"}}, {"type": "Feature", "geometry": {"type": "Polygon", "coordinates": [[[19.14, 41.885], [19.11, 41.885], [19.105, 41.88], [19.105, 41.85], [19.12, 41.825], [19.145, 41.83], [19.145, 41.88], [19.14, 41.885]]]}, "properties": {"score_mean": 36.8, "score_max": 43.8, "area_km2": 20.3, "centroid": [19.1264, 41.8568], "razlog": "prisustvo mamca + povoljna dubina", "dubina_panule_m": 7.1, "sst_raspon_C": 0.2, "sst_promjena_3d_C": 0.1, "upwelling": 0.0, "hladnije_C": 0.1, "izgledi": "osrednji"}}, {"type": "Feature", "geometry": {"type": "Polygon", "coordinates": [[[18.69, 42.305], [18.65, 42.305], [18.645, 42.28], [18.67, 42.255], [18.685, 42.25], [18.685, 42.23], [18.7, 42.215], [18.73, 42.215], [18.735, 42.22], [18.735, 42.26], [18.695, 42.27], [18.695, 42.3], [18.69, 42.305]]]}, "properties": {"score_mean": 20.6, "score_max": 50.1, "area_km2": 41.3, "centroid": [18.6924, 42.2607], "razlog": "povoljna dubina + prisustvo mamca", "dubina_panule_m": 25.0, "sst_raspon_C": 0.3, "sst_promjena_3d_C": 0.3, "upwelling": 0.0, "hladnije_C": -0.0, "izgledi": "slabi"}}, {"type": "Feature", "geometry": {"type": "Polygon", "coordinates": [[[18.86, 42.215], [18.83, 42.215], [18.825, 42.21], [18.825, 42.18], [18.84, 42.165], [18.85, 42.165], [18.855, 42.15], [18.88, 42.125], [18.89, 42.125], [18.895, 42.11], [18.92, 42.085], [18.94, 42.085], [18.945, 42.09], [18.945, 42.13], [18.94, 42.135], [18.91, 42.135], [18.905, 42.14], [18.905, 42.17], [18.9, 42.175], [18.87, 42.175], [18.86, 42.215]]]}, "properties": {"score_mean": 16.1, "score_max": 41.8, "area_km2": 56.0, "centroid": [18.8854, 42.15], "razlog": "povoljna dubina + prisustvo mamca", "dubina_panule_m": 25.0, "sst_raspon_C": 0.5, "sst_promjena_3d_C": 0.1, "upwelling": 0.0, "hladnije_C": -0.0, "izgledi": "slabi"}}, {"type": "Feature", "geometry": {"type": "Polygon", "coordinates": [[[18.62, 42.345], [18.595, 42.34], [18.6, 42.315], [18.625, 42.32], [18.62, 42.345]]]}, "properties": {"score_mean": 8.3, "score_max": 14.3, "area_km2": 8.2, "centroid": [18.61, 42.33], "razlog": "povoljna dubina + ivica struje", "dubina_panule_m": 25.0, "sst_raspon_C": 0.2, "sst_promjena_3d_C": 0.4, "upwelling": 0.0, "hladnije_C": -0.1, "izgledi": "vrlo slabi"}}, {"type": "Feature", "geometry": {"type": "Polygon", "coordinates": [[[18.75, 41.765], [18.73, 41.765], [18.715, 41.75], [18.715, 41.71], [18.74, 41.685], [18.75, 41.685], [18.76, 41.675], [18.8, 41.675], [18.805, 41.68], [18.805, 41.72], [18.75, 41.765]]]}, "properties": {"score_mean": 2.1, "score_max": 2.9, "area_km2": 56.4, "centroid": [18.759, 41.7172], "razlog": "povoljna dubina + zora/sumrak", "dubina_panule_m": 25.0, "sst_raspon_C": 0.1, "sst_promjena_3d_C": 0.3, "upwelling": 0.0, "hladnije_C": -0.0, "izgledi": "vrlo slabi"}}]}