{"type": "FeatureCollection", "properties": {"vrsta": "strelka", "naziv": "Strelka", "latinski": "Pomatomus saltatrix", "datum": "2026-08-22", "profil": "ljetnji, otvoreno more", "panula": {"dubina_m": [0.0, 25.0], "brzina_kn": [3.0, 5.0], "sati": "zora i sumrak", "granica_dubine_m": 50.0}, "vertikala": {"termoklina_m": 11.9, "termoklina_C_po_m": 0.1, "dcm_m": 91.2, "dcm_odnos": 1.0, "dcm_debljina_m": 39.8, "mld_m": 11.9, "sloj_plijena_m": [64.2, 107.6], "dohvatljivost": 0.0, "objasnjenje": "Termoklina na 12 m. Sloj plijena lezi pretezno ispod 50 m, dakle izvan dohvata panule. Najveca gustina hlorofila je na 91 m (sloj debljine 40 m) - tu se skuplja sitna riba koja se hrani planktonom, pa je i najveca vjerovatnoca da su grabljivice tu negdje."}, "bezbjednost": {"nivo": "zuto", "razlog": "vjetar 12 cv", "izlazak_preporucen": true}, "napomena": "Ljeti ne ide uz obalu nego prati mamac na otvorenom.", "razlog_praznog": null}, "features": [{"type": "Feature", "geometry": {"type": "Polygon", "coordinates": [[[18.94, 42.135], [18.915, 42.13], [18.92, 42.105], [18.945, 42.11], [18.94, 42.135]]]}, "properties": {"score_mean": 50.4, "score_max": 56.4, "area_km2": 8.3, "centroid": [18.93, 42.12], "razlog": "prisustvo mamca + povoljna dubina", "dubina_panule_m": 7.1, "sst_raspon_C": 0.4, "sst_promjena_3d_C": 0.3, "upwelling": 0.2, "hladnije_C": 0.1, "izgledi": "dobri"}}, {"type": "Feature", "geometry": {"type": "Polygon", "coordinates": [[[18.9, 42.175], [18.87, 42.175], [18.865, 42.15], [18.87, 42.145], [18.9, 42.145], [18.905, 42.15], [18.9, 42.175]]]}, "properties": {"score_mean": 41.6, "score_max": 59.0, "area_km2": 11.0, "centroid": [18.885, 42.16], "razlog": "prisustvo mamca + povoljna dubina", "dubina_panule_m": 25.0, "sst_raspon_C": 0.6, "sst_promjena_3d_C": -0.0, "upwelling": 0.3, "hladnije_C": 0.1, "izgledi": "dobri"}}, {"type": "Feature", "geometry": {"type": "Polygon", "coordinates": [[[19.22, 41.875], [19.18, 41.875], [19.175, 41.87], [19.175, 41.84], [19.19, 41.835], [19.21, 41.815], [19.26, 41.805], [19.265, 41.83], [19.25, 41.835], [19.22, 41.875]]]}, "properties": {"score_mean": 40.7, "score_max": 53.0, "area_km2": 36.9, "centroid": [19.2175, 41.8412], "razlog": "termalni front + povoljna dubina", "dubina_panule_m": 7.1, "sst_raspon_C": 1.1, "sst_promjena_3d_C": 1.7, "upwelling": 0.0, "hladnije_C": 0.2, "izgledi": "dobri"}}, {"type": "Feature", "geometry": {"type": "Polygon", "coordinates": [[[19.06, 42.015], [19.035, 42.01], [19.035, 41.95], [19.06, 41.925], [19.07, 41.925], [19.075, 41.91], [19.09, 41.895], [19.11, 41.895], [19.115, 41.9], [19.115, 41.95], [19.085, 41.98], [19.085, 41.99], [19.065, 42.0], [19.06, 42.015]]]}, "properties": {"score_mean": 33.0, "score_max": 56.1, "area_km2": 56.2, "centroid": [19.0739, 41.9541], "razlog": "termalni front + povoljna dubina", "dubina_panule_m": 7.1, "sst_raspon_C": 0.9, "sst_promjena_3d_C": 1.4, "upwelling": 0.0, "hladnije_C": -0.0, "izgledi": "osrednji"}}, {"type": "Feature", "geometry": {"type": "Polygon", "coordinates": [[[19.005, 42.09], [18.98, 42.095], [18.965, 42.08], [18.97, 42.055], [19.0, 42.055], [19.005, 42.06], [19.005, 42.09]]]}, "properties": {"score_mean": 29.2, "score_max": 56.4, "area_km2": 13.8, "centroid": [18.986, 42.074], "razlog": "povoljna dubina + prisustvo mamca", "dubina_panule_m": 7.1, "sst_raspon_C": 0.3, "sst_promjena_3d_C": 0.6, "upwelling": 0.4, "hladnije_C": 0.2, "izgledi": "osrednji"}}, {"type": "Feature", "geometry": {"type": "Polygon", "coordinates": [[[18.7, 42.275], [18.675, 42.27], [18.675, 42.22], [18.7, 42.195], [18.74, 42.195], [18.745, 42.22], [18.73, 42.235], [18.715, 42.24], [18.715, 42.26], [18.7, 42.275]]]}, "properties": {"score_mean": 9.5, "score_max": 56.9, "area_km2": 35.8, "centroid": [18.7051, 42.2305], "razlog": "termalni front + povoljna dubina", "dubina_panule_m": 25.0, "sst_raspon_C": 0.8, "sst_promjena_3d_C": -0.9, "upwelling": 0.6, "hladnije_C": 0.3, "izgledi": "vrlo slabi"}}]}