{"type": "FeatureCollection", "properties": {"vrsta": "strelka", "naziv": "Strelka", "latinski": "Pomatomus saltatrix", "datum": "2026-10-07", "profil": "priobalni", "panula": {"dubina_m": [0.0, 10.0], "brzina_kn": [3.0, 5.0], "sati": "zora i sumrak", "granica_dubine_m": 50.0}, "vertikala": {"termoklina_m": 31.8, "termoklina_C_po_m": 0.1, "dcm_m": 91.2, "dcm_odnos": 1.0, "dcm_debljina_m": 39.8, "mld_m": 17.8, "sloj_plijena_m": [67.4, 105.8], "dohvatljivost": 0.0, "objasnjenje": "Termoklina na 32 m. Sloj plijena lezi pretezno ispod 50 m, dakle izvan dohvata panule. Najveca gustina hlorofila je na 91 m (sloj debljine 40 m) - tu se skuplja sitna riba koja se hrani planktonom, pa je i najveca vjerovatnoca da su grabljivice tu negdje."}, "bezbjednost": {"nivo": "crveno", "razlog": "vjetar 17 cv, udari 24 cv", "izlazak_preporucen": false}, "napomena": "U jesen uz obalu i na usce. Domen modela je more ispred usca i samo usce - ne i rijeka.", "razlog_praznog": null}, "features": [{"type": "Feature", "geometry": {"type": "Polygon", "coordinates": [[[18.87, 42.225], [18.83, 42.225], [18.825, 42.22], [18.825, 42.19], [18.84, 42.175], [18.865, 42.17], [18.865, 42.15], [18.88, 42.135], [18.905, 42.13], [18.905, 42.11], [18.92, 42.095], [18.94, 42.095], [18.945, 42.1], [18.945, 42.14], [18.915, 42.15], [18.915, 42.18], [18.91, 42.185], [18.88, 42.185], [18.875, 42.19], [18.875, 42.22], [18.87, 42.225]]]}, "properties": {"score_mean": 18.7, "score_max": 30.3, "area_km2": 59.7, "centroid": [18.8863, 42.164], "razlog": "zora/sumrak + prisustvo mamca", "dubina_panule_m": 5.0, "sst_raspon_C": 0.8, "sst_promjena_3d_C": -0.1, "upwelling": 0.0, "hladnije_C": 0.0, "izgledi": "slabi"}}, {"type": "Feature", "geometry": {"type": "Polygon", "coordinates": [[[18.66, 42.345], [18.63, 42.345], [18.625, 42.32], [18.64, 42.305], [18.66, 42.305], [18.665, 42.29], [18.68, 42.275], [18.695, 42.27], [18.695, 42.24], [18.72, 42.215], [18.74, 42.215], [18.745, 42.22], [18.745, 42.27], [18.74, 42.275], [18.71, 42.275], [18.705, 42.28], [18.705, 42.31], [18.7, 42.315], [18.67, 42.315], [18.66, 42.345]]]}, "properties": {"score_mean": 16.3, "score_max": 24.0, "area_km2": 52.3, "centroid": [18.6925, 42.2809], "razlog": "zora/sumrak + prisustvo mamca", "dubina_panule_m": 5.0, "sst_raspon_C": 0.8, "sst_promjena_3d_C": 0.4, "upwelling": 0.0, "hladnije_C": -0.3, "izgledi": "slabi"}}, {"type": "Feature", "geometry": {"type": "Polygon", "coordinates": [[[18.94, 41.925], [18.89, 41.925], [18.885, 41.92], [18.885, 41.89], [18.92, 41.865], [18.94, 41.865], [18.945, 41.87], [18.945, 41.92], [18.94, 41.925]]]}, "properties": {"score_mean": 1.0, "score_max": 1.1, "area_km2": 29.5, "centroid": [18.9172, 41.8978], "razlog": "zora/sumrak + prisustvo mamca", "dubina_panule_m": 5.0, "sst_raspon_C": 0.4, "sst_promjena_3d_C": 0.1, "upwelling": 0.0, "hladnije_C": -0.3, "izgledi": "vrlo slabi"}}]}