{"type": "FeatureCollection", "properties": {"vrsta": "strelka", "naziv": "Strelka", "latinski": "Pomatomus saltatrix", "datum": "2026-09-14", "profil": "ljetnji, otvoreno more", "panula": {"dubina_m": [0.0, 25.0], "brzina_kn": [3.0, 5.0], "sati": "zora i sumrak", "granica_dubine_m": 50.0}, "vertikala": {"termoklina_m": 21.1, "termoklina_C_po_m": 0.3, "dcm_m": 97.9, "dcm_odnos": 1.0, "dcm_debljina_m": 40.7, "mld_m": 14.8, "sloj_plijena_m": [51.8, 102.9], "dohvatljivost": 0.0, "objasnjenje": "Termoklina na 21 m. Sloj plijena lezi pretezno ispod 50 m, dakle izvan dohvata panule. Najveca gustina hlorofila je na 98 m (sloj debljine 41 m) - tu se skuplja sitna riba koja se hrani planktonom, pa je i najveca vjerovatnoca da su grabljivice tu negdje."}, "bezbjednost": {"nivo": "crveno", "razlog": "talasi do 1.1 m, vjetar 15 cv, udari 20 cv", "izlazak_preporucen": false}, "napomena": "Ljeti ne ide uz obalu nego prati mamac na otvorenom.", "razlog_praznog": null}, "features": [{"type": "Feature", "geometry": {"type": "Polygon", "coordinates": [[[18.945, 41.99], [18.92, 41.995], [18.91, 41.985], [18.9, 41.985], [18.89, 41.995], [18.87, 41.995], [18.865, 41.97], [18.9, 41.935], [18.91, 41.935], [18.92, 41.925], [18.94, 41.925], [18.945, 41.93], [18.945, 41.99]]]}, "properties": {"score_mean": 47.7, "score_max": 53.3, "area_km2": 39.6, "centroid": [18.9107, 41.964], "razlog": "termalni front + povoljna dubina", "dubina_panule_m": 10.2, "sst_raspon_C": 0.8, "sst_promjena_3d_C": -0.3, "upwelling": 0.0, "hladnije_C": -0.0, "izgledi": "dobri"}}, {"type": "Feature", "geometry": {"type": "Polygon", "coordinates": [[[18.69, 42.305], [18.65, 42.305], [18.645, 42.28], [18.7, 42.215], [18.73, 42.215], [18.735, 42.22], [18.735, 42.26], [18.71, 42.265], [18.7, 42.275], [18.69, 42.305]]]}, "properties": {"score_mean": 24.3, "score_max": 49.3, "area_km2": 44.0, "centroid": [18.6921, 42.2602], "razlog": "povoljna dubina + termalni front", "dubina_panule_m": 25.0, "sst_raspon_C": 0.4, "sst_promjena_3d_C": -0.4, "upwelling": 0.0, "hladnije_C": -0.2, "izgledi": "slabi"}}]}