{"type": "FeatureCollection", "properties": {"vrsta": "strelka", "naziv": "Strelka", "latinski": "Pomatomus saltatrix", "datum": "2026-08-26", "profil": "ljetnji, otvoreno more", "panula": {"dubina_m": [0.0, 25.0], "brzina_kn": [3.0, 5.0], "sati": "zora i sumrak", "granica_dubine_m": 50.0}, "vertikala": {"termoklina_m": 11.9, "termoklina_C_po_m": 0.1, "dcm_m": 91.2, "dcm_odnos": 1.0, "dcm_debljina_m": 33.4, "mld_m": 11.9, "sloj_plijena_m": [64.7, 100.5], "dohvatljivost": 0.0, "objasnjenje": "Termoklina na 12 m. Sloj plijena lezi pretezno ispod 50 m, dakle izvan dohvata panule. Najveca gustina hlorofila je na 91 m (sloj debljine 33 m) - tu se skuplja sitna riba koja se hrani planktonom, pa je i najveca vjerovatnoca da su grabljivice tu negdje."}, "bezbjednost": {"nivo": "zuto", "razlog": "talasi do 1.1 m", "izlazak_preporucen": true}, "napomena": "Ljeti ne ide uz obalu nego prati mamac na otvorenom.", "razlog_praznog": null}, "features": [{"type": "Feature", "geometry": {"type": "Polygon", "coordinates": [[[19.18, 41.885], [19.14, 41.885], [19.135, 41.86], [19.15, 41.855], [19.17, 41.835], [19.19, 41.835], [19.2, 41.815], [19.22, 41.815], [19.225, 41.84], [19.195, 41.85], [19.195, 41.87], [19.18, 41.885]]]}, "properties": {"score_mean": 37.0, "score_max": 50.8, "area_km2": 30.5, "centroid": [19.1791, 41.8536], "razlog": "termalni front + povoljna dubina", "dubina_panule_m": 7.1, "sst_raspon_C": 0.9, "sst_promjena_3d_C": 0.2, "upwelling": 0.0, "hladnije_C": -0.1, "izgledi": "osrednji"}}, {"type": "Feature", "geometry": {"type": "Polygon", "coordinates": [[[19.05, 41.975], [19.025, 41.97], [19.025, 41.94], [19.04, 41.925], [19.065, 41.93], [19.065, 41.95], [19.05, 41.975]]]}, "properties": {"score_mean": 14.6, "score_max": 48.0, "area_km2": 15.7, "centroid": [19.0441, 41.9494], "razlog": "povoljna dubina + ivica struje", "dubina_panule_m": 25.0, "sst_raspon_C": 0.3, "sst_promjena_3d_C": 0.3, "upwelling": 0.0, "hladnije_C": 0.0, "izgledi": "slabi"}}, {"type": "Feature", "geometry": {"type": "Polygon", "coordinates": [[[18.72, 42.255], [18.7, 42.255], [18.675, 42.24], [18.675, 42.22], [18.7, 42.195], [18.73, 42.195], [18.735, 42.2], [18.735, 42.24], [18.72, 42.255]]]}, "properties": {"score_mean": 13.8, "score_max": 54.1, "area_km2": 27.5, "centroid": [18.7077, 42.2247], "razlog": "termalni front + povoljna dubina", "dubina_panule_m": 25.0, "sst_raspon_C": 0.6, "sst_promjena_3d_C": -0.2, "upwelling": 0.2, "hladnije_C": 0.1, "izgledi": "slabi"}}, {"type": "Feature", "geometry": {"type": "Polygon", "coordinates": [[[18.99, 42.075], [18.94, 42.075], [18.935, 42.05], [18.94, 42.045], [18.99, 42.045], [18.995, 42.05], [18.99, 42.075]]]}, "properties": {"score_mean": 3.6, "score_max": 12.9, "area_km2": 16.6, "centroid": [18.965, 42.06], "razlog": "termalni front + povoljna dubina", "dubina_panule_m": 25.0, "sst_raspon_C": 0.6, "sst_promjena_3d_C": 0.3, "upwelling": 0.0, "hladnije_C": -0.2, "izgledi": "vrlo slabi"}}, {"type": "Feature", "geometry": {"type": "Polygon", "coordinates": [[[18.91, 42.035], [18.885, 42.03], [18.89, 42.005], [18.915, 42.01], [18.91, 42.035]]]}, "properties": {"score_mean": 1.9, "score_max": 2.1, "area_km2": 8.3, "centroid": [18.9, 42.02], "razlog": "povoljna dubina + termalni front", "dubina_panule_m": 25.0, "sst_raspon_C": 0.5, "sst_promjena_3d_C": 0.2, "upwelling": 0.1, "hladnije_C": 0.0, "izgledi": "vrlo slabi"}}]}