{"type": "FeatureCollection", "properties": {"vrsta": "strelka", "naziv": "Strelka", "latinski": "Pomatomus saltatrix", "datum": "2026-09-06", "profil": "ljetnji, otvoreno more", "panula": {"dubina_m": [0.0, 25.0], "brzina_kn": [3.0, 5.0], "sati": "zora i sumrak", "granica_dubine_m": 50.0}, "vertikala": {"termoklina_m": 14.8, "termoklina_C_po_m": 0.4, "dcm_m": 91.2, "dcm_odnos": 1.0, "dcm_debljina_m": 41.6, "mld_m": 11.9, "sloj_plijena_m": [57.8, 101.5], "dohvatljivost": 0.0, "objasnjenje": "Termoklina na 15 m. Sloj plijena lezi pretezno ispod 50 m, dakle izvan dohvata panule. Najveca gustina hlorofila je na 91 m (sloj debljine 42 m) - tu se skuplja sitna riba koja se hrani planktonom, pa je i najveca vjerovatnoca da su grabljivice tu negdje."}, "bezbjednost": {"nivo": "zuto", "razlog": "vjetar 13 cv", "izlazak_preporucen": true}, "napomena": "Ljeti ne ide uz obalu nego prati mamac na otvorenom.", "razlog_praznog": null}, "features": [{"type": "Feature", "geometry": {"type": "Polygon", "coordinates": [[[19.09, 42.015], [19.06, 42.015], [19.055, 42.01], [19.055, 41.94], [19.08, 41.905], [19.105, 41.91], [19.105, 41.93], [19.115, 41.94], [19.115, 41.97], [19.105, 41.98], [19.105, 42.0], [19.09, 42.015]]]}, "properties": {"score_mean": 47.4, "score_max": 59.5, "area_km2": 49.8, "centroid": [19.0831, 41.9619], "razlog": "termalni front + prisustvo mamca", "dubina_panule_m": 7.1, "sst_raspon_C": 0.7, "sst_promjena_3d_C": -0.2, "upwelling": 0.1, "hladnije_C": 0.0, "izgledi": "dobri"}}, {"type": "Feature", "geometry": {"type": "Polygon", "coordinates": [[[18.9, 42.175], [18.875, 42.17], [18.88, 42.145], [18.905, 42.15], [18.9, 42.175]]]}, "properties": {"score_mean": 30.4, "score_max": 34.6, "area_km2": 8.3, "centroid": [18.89, 42.16], "razlog": "termalni front + povoljna dubina", "dubina_panule_m": 25.0, "sst_raspon_C": 1.0, "sst_promjena_3d_C": -0.1, "upwelling": 0.0, "hladnije_C": -0.0, "izgledi": "osrednji"}}, {"type": "Feature", "geometry": {"type": "Polygon", "coordinates": [[[18.86, 42.215], [18.83, 42.215], [18.825, 42.21], [18.825, 42.19], [18.84, 42.175], [18.865, 42.18], [18.865, 42.21], [18.86, 42.215]]]}, "properties": {"score_mean": 29.9, "score_max": 53.9, "area_km2": 13.8, "centroid": [18.846, 42.196], "razlog": "termalni front + povoljna dubina", "dubina_panule_m": 25.0, "sst_raspon_C": 0.9, "sst_promjena_3d_C": -0.2, "upwelling": 0.3, "hladnije_C": 0.2, "izgledi": "osrednji"}}, {"type": "Feature", "geometry": {"type": "Polygon", "coordinates": [[[18.65, 42.345], [18.62, 42.345], [18.615, 42.32], [18.63, 42.305], [18.645, 42.3], [18.645, 42.28], [18.685, 42.24], [18.685, 42.23], [18.7, 42.215], [18.71, 42.205], [18.73, 42.205], [18.735, 42.21], [18.735, 42.26], [18.71, 42.265], [18.7, 42.275], [18.69, 42.305], [18.66, 42.305], [18.655, 42.31], [18.655, 42.34], [18.65, 42.345]]]}, "properties": {"score_mean": 16.2, "score_max": 46.0, "area_km2": 59.6, "centroid": [18.6806, 42.2734], "razlog": "povoljna dubina + termalni front", "dubina_panule_m": 25.0, "sst_raspon_C": 0.5, "sst_promjena_3d_C": 0.1, "upwelling": 0.0, "hladnije_C": -0.3, "izgledi": "slabi"}}, {"type": "Feature", "geometry": {"type": "Polygon", "coordinates": [[[18.7, 41.805], [18.675, 41.8], [18.675, 41.76], [18.69, 41.745], [18.74, 41.745], [18.745, 41.77], [18.72, 41.795], [18.71, 41.795], [18.7, 41.805]]]}, "properties": {"score_mean": 2.6, "score_max": 3.1, "area_km2": 31.4, "centroid": [18.7068, 41.7718], "razlog": "povoljna dubina + zora/sumrak", "dubina_panule_m": 25.0, "sst_raspon_C": 0.1, "sst_promjena_3d_C": -0.3, "upwelling": 0.0, "hladnije_C": -0.1, "izgledi": "vrlo slabi"}}, {"type": "Feature", "geometry": {"type": "Polygon", "coordinates": [[[18.94, 41.915], [18.88, 41.915], [18.875, 41.91], [18.875, 41.89], [18.89, 41.885], [18.915, 41.86], [18.915, 41.81], [18.92, 41.805], [18.945, 41.81], [18.945, 41.91], [18.94, 41.915]]]}, "properties": {"score_mean": 1.7, "score_max": 1.8, "area_km2": 44.3, "centroid": [18.9198, 41.871], "razlog": "povoljna dubina + zora/sumrak", "dubina_panule_m": 25.0, "sst_raspon_C": 0.2, "sst_promjena_3d_C": -0.3, "upwelling": 0.0, "hladnije_C": 0.0, "izgledi": "vrlo slabi"}}]}