{"type": "FeatureCollection", "properties": {"vrsta": "strelka", "naziv": "Strelka", "latinski": "Pomatomus saltatrix", "datum": "2026-10-08", "profil": "priobalni", "panula": {"dubina_m": [0.0, 10.0], "brzina_kn": [3.0, 5.0], "sati": "zora i sumrak", "granica_dubine_m": 50.0}, "vertikala": {"termoklina_m": 28.0, "termoklina_C_po_m": 0.1, "dcm_m": 91.2, "dcm_odnos": 1.0, "dcm_debljina_m": 41.3, "mld_m": 20.0, "sloj_plijena_m": [62.0, 103.3], "dohvatljivost": 0.0, "objasnjenje": "Termoklina na 28 m. Sloj plijena lezi pretezno ispod 50 m, dakle izvan dohvata panule. Najveca gustina hlorofila je na 91 m (sloj debljine 41 m) - tu se skuplja sitna riba koja se hrani planktonom, pa je i najveca vjerovatnoca da su grabljivice tu negdje."}, "bezbjednost": {"nivo": "crveno", "razlog": "talasi do 1.5 m, vjetar 18 cv, udari 24 cv", "izlazak_preporucen": false}, "napomena": "U jesen uz obalu i na usce. Domen modela je more ispred usca i samo usce - ne i rijeka.", "razlog_praznog": null}, "features": [{"type": "Feature", "geometry": {"type": "Polygon", "coordinates": [[[18.86, 42.225], [18.81, 42.225], [18.805, 42.22], [18.805, 42.19], [18.81, 42.185], [18.87, 42.185], [18.875, 42.21], [18.86, 42.225]]]}, "properties": {"score_mean": 23.9, "score_max": 28.2, "area_km2": 24.8, "centroid": [18.8389, 42.2044], "razlog": "zora/sumrak + prisustvo mamca", "dubina_panule_m": 5.0, "sst_raspon_C": 1.3, "sst_promjena_3d_C": 0.0, "upwelling": 0.1, "hladnije_C": 0.1, "izgledi": "slabi"}}, {"type": "Feature", "geometry": {"type": "Polygon", "coordinates": [[[18.95, 42.105], [18.925, 42.1], [18.925, 42.05], [18.915, 42.04], [18.92, 42.015], [18.94, 42.015], [18.965, 42.04], [18.965, 42.05], [18.985, 42.06], [18.985, 42.08], [18.95, 42.105]]]}, "properties": {"score_mean": 21.9, "score_max": 25.7, "area_km2": 38.6, "centroid": [18.9469, 42.0617], "razlog": "zora/sumrak + prisustvo mamca", "dubina_panule_m": 5.0, "sst_raspon_C": 0.8, "sst_promjena_3d_C": 0.0, "upwelling": 0.2, "hladnije_C": 0.2, "izgledi": "slabi"}}, {"type": "Feature", "geometry": {"type": "Polygon", "coordinates": [[[18.74, 42.265], [18.715, 42.26], [18.72, 42.235], [18.745, 42.24], [18.74, 42.265]]]}, "properties": {"score_mean": 21.1, "score_max": 23.8, "area_km2": 8.3, "centroid": [18.73, 42.25], "razlog": "zora/sumrak + prisustvo mamca", "dubina_panule_m": 5.0, "sst_raspon_C": 0.9, "sst_promjena_3d_C": 0.0, "upwelling": 0.0, "hladnije_C": -0.0, "izgledi": "slabi"}}]}