{"type": "FeatureCollection", "properties": {"vrsta": "strelka", "naziv": "Strelka", "latinski": "Pomatomus saltatrix", "datum": "2026-10-09", "profil": "priobalni", "panula": {"dubina_m": [0.0, 10.0], "brzina_kn": [3.0, 5.0], "sati": "zora i sumrak", "granica_dubine_m": 50.0}, "vertikala": {"termoklina_m": 31.8, "termoklina_C_po_m": 0.1, "dcm_m": 91.2, "dcm_odnos": 1.0, "dcm_debljina_m": 42.6, "mld_m": 21.5, "sloj_plijena_m": [59.4, 104.0], "dohvatljivost": 0.0, "objasnjenje": "Termoklina na 32 m. Sloj plijena lezi pretezno ispod 50 m, dakle izvan dohvata panule. Najveca gustina hlorofila je na 91 m (sloj debljine 43 m) - tu se skuplja sitna riba koja se hrani planktonom, pa je i najveca vjerovatnoca da su grabljivice tu negdje."}, "bezbjednost": {"nivo": "crveno", "razlog": "talasi do 2.2 m, vjetar 16 cv, udari 22 cv", "izlazak_preporucen": false}, "napomena": "U jesen uz obalu i na usce. Domen modela je more ispred usca i samo usce - ne i rijeka.", "razlog_praznog": null}, "features": [{"type": "Feature", "geometry": {"type": "Polygon", "coordinates": [[[18.86, 42.225], [18.82, 42.225], [18.805, 42.21], [18.805, 42.19], [18.81, 42.185], [18.87, 42.185], [18.875, 42.21], [18.86, 42.225]]]}, "properties": {"score_mean": 25.8, "score_max": 30.9, "area_km2": 23.9, "centroid": [18.84, 42.2038], "razlog": "zora/sumrak + prisustvo mamca", "dubina_panule_m": 5.0, "sst_raspon_C": 1.2, "sst_promjena_3d_C": -0.6, "upwelling": 0.4, "hladnije_C": 0.4, "izgledi": "osrednji"}}, {"type": "Feature", "geometry": {"type": "Polygon", "coordinates": [[[18.72, 42.275], [18.69, 42.275], [18.685, 42.25], [18.71, 42.235], [18.73, 42.235], [18.735, 42.26], [18.72, 42.275]]]}, "properties": {"score_mean": 22.2, "score_max": 24.5, "area_km2": 15.6, "centroid": [18.7106, 42.2559], "razlog": "zora/sumrak + prisustvo mamca", "dubina_panule_m": 5.0, "sst_raspon_C": 0.8, "sst_promjena_3d_C": -0.0, "upwelling": 0.0, "hladnije_C": -0.4, "izgledi": "slabi"}}, {"type": "Feature", "geometry": {"type": "Polygon", "coordinates": [[[18.92, 42.125], [18.89, 42.125], [18.885, 42.12], [18.885, 42.1], [18.895, 42.09], [18.895, 42.06], [18.9, 42.055], [18.93, 42.055], [18.945, 42.07], [18.945, 42.1], [18.92, 42.125]]]}, "properties": {"score_mean": 21.4, "score_max": 25.9, "area_km2": 31.3, "centroid": [18.9153, 42.0903], "razlog": "zora/sumrak + prisustvo mamca", "dubina_panule_m": 5.0, "sst_raspon_C": 0.2, "sst_promjena_3d_C": -0.6, "upwelling": 0.0, "hladnije_C": 0.2, "izgledi": "slabi"}}, {"type": "Feature", "geometry": {"type": "Polygon", "coordinates": [[[19.0, 42.075], [18.975, 42.07], [18.98, 42.045], [19.005, 42.05], [19.0, 42.075]]]}, "properties": {"score_mean": 21.0, "score_max": 22.5, "area_km2": 8.3, "centroid": [18.99, 42.06], "razlog": "zora/sumrak + prisustvo mamca", "dubina_panule_m": 5.0, "sst_raspon_C": 0.4, "sst_promjena_3d_C": -0.3, "upwelling": 0.0, "hladnije_C": 0.1, "izgledi": "slabi"}}, {"type": "Feature", "geometry": {"type": "Polygon", "coordinates": [[[18.62, 42.345], [18.58, 42.345], [18.575, 42.32], [18.6, 42.305], [18.605, 42.29], [18.62, 42.275], [18.66, 42.275], [18.665, 42.28], [18.665, 42.31], [18.655, 42.32], [18.655, 42.33], [18.63, 42.335], [18.62, 42.345]]]}, "properties": {"score_mean": 19.4, "score_max": 23.2, "area_km2": 41.2, "centroid": [18.6238, 42.3113], "razlog": "zora/sumrak + prisustvo mamca", "dubina_panule_m": 5.0, "sst_raspon_C": 0.8, "sst_promjena_3d_C": -0.4, "upwelling": 0.0, "hladnije_C": -0.3, "izgledi": "slabi"}}]}