{"type": "FeatureCollection", "properties": {"vrsta": "strelka", "naziv": "Strelka", "latinski": "Pomatomus saltatrix", "datum": "2026-08-24", "profil": "ljetnji, otvoreno more", "panula": {"dubina_m": [0.0, 25.0], "brzina_kn": [3.0, 5.0], "sati": "zora i sumrak", "granica_dubine_m": 50.0}, "vertikala": {"termoklina_m": 11.9, "termoklina_C_po_m": 0.1, "dcm_m": 91.2, "dcm_odnos": 1.0, "dcm_debljina_m": 38.0, "mld_m": 11.9, "sloj_plijena_m": [64.2, 103.3], "dohvatljivost": 0.0, "objasnjenje": "Termoklina na 12 m. Sloj plijena lezi pretezno ispod 50 m, dakle izvan dohvata panule. Najveca gustina hlorofila je na 91 m (sloj debljine 38 m) - tu se skuplja sitna riba koja se hrani planktonom, pa je i najveca vjerovatnoca da su grabljivice tu negdje."}, "bezbjednost": {"nivo": "zuto", "razlog": "vjetar 12 cv", "izlazak_preporucen": true}, "napomena": "Ljeti ne ide uz obalu nego prati mamac na otvorenom.", "razlog_praznog": null}, "features": [{"type": "Feature", "geometry": {"type": "Polygon", "coordinates": [[[18.9, 42.175], [18.875, 42.17], [18.88, 42.145], [18.905, 42.15], [18.9, 42.175]]]}, "properties": {"score_mean": 52.6, "score_max": 56.6, "area_km2": 8.3, "centroid": [18.89, 42.16], "razlog": "prisustvo mamca + povoljna dubina", "dubina_panule_m": 7.1, "sst_raspon_C": 0.8, "sst_promjena_3d_C": 0.4, "upwelling": 0.2, "hladnije_C": 0.1, "izgledi": "dobri"}}, {"type": "Feature", "geometry": {"type": "Polygon", "coordinates": [[[18.94, 42.135], [18.915, 42.13], [18.92, 42.105], [18.945, 42.11], [18.94, 42.135]]]}, "properties": {"score_mean": 43.7, "score_max": 52.9, "area_km2": 8.3, "centroid": [18.93, 42.12], "razlog": "prisustvo mamca + povoljna dubina", "dubina_panule_m": 7.1, "sst_raspon_C": 0.4, "sst_promjena_3d_C": 0.0, "upwelling": 0.2, "hladnije_C": 0.1, "izgledi": "dobri"}}, {"type": "Feature", "geometry": {"type": "Polygon", "coordinates": [[[19.27, 41.835], [19.245, 41.83], [19.25, 41.805], [19.275, 41.81], [19.27, 41.835]]]}, "properties": {"score_mean": 41.7, "score_max": 46.5, "area_km2": 8.3, "centroid": [19.26, 41.82], "razlog": "termalni front + povoljna dubina", "dubina_panule_m": 7.1, "sst_raspon_C": 0.9, "sst_promjena_3d_C": 0.8, "upwelling": 0.0, "hladnije_C": 0.0, "izgledi": "dobri"}}, {"type": "Feature", "geometry": {"type": "Polygon", "coordinates": [[[19.22, 41.875], [19.18, 41.875], [19.175, 41.87], [19.175, 41.85], [19.2, 41.825], [19.23, 41.825], [19.235, 41.83], [19.235, 41.86], [19.22, 41.875]]]}, "properties": {"score_mean": 41.5, "score_max": 53.3, "area_km2": 24.0, "centroid": [19.2065, 41.8512], "razlog": "termalni front + povoljna dubina", "dubina_panule_m": 7.1, "sst_raspon_C": 1.2, "sst_promjena_3d_C": 0.6, "upwelling": 0.0, "hladnije_C": 0.3, "izgledi": "dobri"}}, {"type": "Feature", "geometry": {"type": "Polygon", "coordinates": [[[19.06, 42.015], [19.035, 42.01], [19.035, 41.96], [19.045, 41.95], [19.045, 41.94], [19.06, 41.925], [19.07, 41.925], [19.075, 41.91], [19.09, 41.895], [19.11, 41.895], [19.115, 41.9], [19.115, 41.95], [19.085, 41.98], [19.085, 41.99], [19.065, 42.0], [19.06, 42.015]]]}, "properties": {"score_mean": 33.8, "score_max": 53.4, "area_km2": 55.3, "centroid": [19.0745, 41.9542], "razlog": "termalni front + povoljna dubina", "dubina_panule_m": 7.1, "sst_raspon_C": 0.9, "sst_promjena_3d_C": 0.8, "upwelling": 0.0, "hladnije_C": -0.0, "izgledi": "osrednji"}}, {"type": "Feature", "geometry": {"type": "Polygon", "coordinates": [[[19.0, 42.095], [18.975, 42.09], [18.975, 42.06], [19.0, 42.025], [19.03, 42.025], [19.035, 42.05], [19.015, 42.06], [19.0, 42.095]]]}, "properties": {"score_mean": 32.0, "score_max": 51.7, "area_km2": 25.8, "centroid": [19.0021, 42.0571], "razlog": "povoljna dubina + prisustvo mamca", "dubina_panule_m": 7.1, "sst_raspon_C": 0.4, "sst_promjena_3d_C": 0.3, "upwelling": 0.2, "hladnije_C": 0.3, "izgledi": "osrednji"}}]}