{"type": "FeatureCollection", "properties": {"vrsta": "strelka", "naziv": "Strelka", "latinski": "Pomatomus saltatrix", "datum": "2026-08-25", "profil": "ljetnji, otvoreno more", "panula": {"dubina_m": [0.0, 25.0], "brzina_kn": [3.0, 5.0], "sati": "zora i sumrak", "granica_dubine_m": 50.0}, "vertikala": {"termoklina_m": 11.9, "termoklina_C_po_m": 0.1, "dcm_m": 91.2, "dcm_odnos": 1.0, "dcm_debljina_m": 36.4, "mld_m": 11.9, "sloj_plijena_m": [64.7, 103.3], "dohvatljivost": 0.0, "objasnjenje": "Termoklina na 12 m. Sloj plijena lezi pretezno ispod 50 m, dakle izvan dohvata panule. Najveca gustina hlorofila je na 91 m (sloj debljine 36 m) - tu se skuplja sitna riba koja se hrani planktonom, pa je i najveca vjerovatnoca da su grabljivice tu negdje."}, "bezbjednost": {"nivo": "zuto", "razlog": "vjetar 12 cv", "izlazak_preporucen": true}, "napomena": "Ljeti ne ide uz obalu nego prati mamac na otvorenom.", "razlog_praznog": null}, "features": [{"type": "Feature", "geometry": {"type": "Polygon", "coordinates": [[[19.18, 41.885], [19.14, 41.885], [19.135, 41.86], [19.15, 41.855], [19.17, 41.835], [19.18, 41.835], [19.19, 41.815], [19.22, 41.815], [19.235, 41.84], [19.235, 41.86], [19.21, 41.865], [19.2, 41.845], [19.195, 41.87], [19.18, 41.885]]]}, "properties": {"score_mean": 36.3, "score_max": 52.1, "area_km2": 38.8, "centroid": [19.1867, 41.8521], "razlog": "termalni front + povoljna dubina", "dubina_panule_m": 7.1, "sst_raspon_C": 1.0, "sst_promjena_3d_C": 0.8, "upwelling": 0.0, "hladnije_C": -0.1, "izgledi": "osrednji"}}, {"type": "Feature", "geometry": {"type": "Polygon", "coordinates": [[[18.72, 42.255], [18.7, 42.255], [18.675, 42.24], [18.675, 42.21], [18.68, 42.205], [18.69, 42.205], [18.7, 42.195], [18.74, 42.195], [18.745, 42.2], [18.745, 42.22], [18.72, 42.255]]]}, "properties": {"score_mean": 12.6, "score_max": 55.6, "area_km2": 31.2, "centroid": [18.7097, 42.2229], "razlog": "termalni front + povoljna dubina", "dubina_panule_m": 25.0, "sst_raspon_C": 0.6, "sst_promjena_3d_C": 0.6, "upwelling": 0.2, "hladnije_C": 0.1, "izgledi": "slabi"}}, {"type": "Feature", "geometry": {"type": "Polygon", "coordinates": [[[18.99, 42.075], [18.93, 42.075], [18.925, 42.05], [18.95, 42.035], [18.97, 42.035], [18.995, 42.05], [18.99, 42.075]]]}, "properties": {"score_mean": 6.0, "score_max": 29.8, "area_km2": 22.1, "centroid": [18.96, 42.0575], "razlog": "termalni front + povoljna dubina", "dubina_panule_m": 25.0, "sst_raspon_C": 0.6, "sst_promjena_3d_C": 0.7, "upwelling": 0.0, "hladnije_C": -0.2, "izgledi": "vrlo slabi"}}, {"type": "Feature", "geometry": {"type": "Polygon", "coordinates": [[[18.82, 42.055], [18.795, 42.05], [18.795, 42.03], [18.82, 42.005], [18.84, 42.005], [18.845, 42.03], [18.82, 42.055]]]}, "properties": {"score_mean": 1.8, "score_max": 2.0, "area_km2": 17.5, "centroid": [18.82, 42.03], "razlog": "termalni front + povoljna dubina", "dubina_panule_m": 25.0, "sst_raspon_C": 0.8, "sst_promjena_3d_C": -0.1, "upwelling": 0.0, "hladnije_C": 0.3, "izgledi": "vrlo slabi"}}]}