{"type": "FeatureCollection", "properties": {"vrsta": "trupac", "naziv": "Trupac", "latinski": "Auxis rochei", "datum": "2026-09-28", "profil": null, "panula": {"dubina_m": [0.0, 30.0], "brzina_kn": [4.0, 6.0], "sati": "zora i sumrak", "granica_dubine_m": 50.0}, "vertikala": {"termoklina_m": 31.8, "termoklina_C_po_m": 0.2, "dcm_m": 91.2, "dcm_odnos": 1.0, "dcm_debljina_m": 38.0, "mld_m": 17.7, "sloj_plijena_m": [70.4, 106.7], "dohvatljivost": 0.0, "objasnjenje": "Termoklina na 32 m. Sloj plijena lezi pretezno ispod 50 m, dakle izvan dohvata panule. Najveca gustina hlorofila je na 91 m (sloj debljine 38 m) - tu se skuplja sitna riba koja se hrani planktonom, pa je i najveca vjerovatnoca da su grabljivice tu negdje."}, "bezbjednost": {"nivo": "zuto", "razlog": "talasi do 1.1 m", "izlazak_preporucen": true}, "napomena": "", "razlog_praznog": null}, "features": [{"type": "Feature", "geometry": {"type": "Polygon", "coordinates": [[[18.86, 42.215], [18.835, 42.21], [18.84, 42.185], [18.865, 42.19], [18.86, 42.215]]]}, "properties": {"score_mean": 64.4, "score_max": 65.8, "area_km2": 8.3, "centroid": [18.85, 42.2], "razlog": "termalni front + povoljna dubina", "dubina_panule_m": 7.8, "sst_raspon_C": 0.6, "sst_promjena_3d_C": -1.3, "upwelling": 0.0, "hladnije_C": 0.2, "izgledi": "vrlo dobri"}}, {"type": "Feature", "geometry": {"type": "Polygon", "coordinates": [[[19.03, 42.045], [19.005, 42.04], [19.005, 41.98], [19.05, 41.955], [19.07, 41.955], [19.075, 41.98], [19.055, 42.01], [19.055, 42.02], [19.03, 42.045]]]}, "properties": {"score_mean": 63.3, "score_max": 67.3, "area_km2": 40.5, "centroid": [19.0361, 41.9982], "razlog": "termalni front + povoljna dubina", "dubina_panule_m": 7.6, "sst_raspon_C": 0.9, "sst_promjena_3d_C": -0.2, "upwelling": 0.0, "hladnije_C": 0.0, "izgledi": "vrlo dobri"}}, {"type": "Feature", "geometry": {"type": "Polygon", "coordinates": [[[18.9, 42.175], [18.875, 42.17], [18.88, 42.145], [18.905, 42.15], [18.9, 42.175]]]}, "properties": {"score_mean": 60.9, "score_max": 64.2, "area_km2": 8.3, "centroid": [18.89, 42.16], "razlog": "termalni front + povoljna dubina", "dubina_panule_m": 8.1, "sst_raspon_C": 0.9, "sst_promjena_3d_C": -1.0, "upwelling": 0.0, "hladnije_C": -0.2, "izgledi": "vrlo dobri"}}, {"type": "Feature", "geometry": {"type": "Polygon", "coordinates": [[[18.94, 42.025], [18.89, 42.025], [18.885, 42.02], [18.885, 41.98], [18.91, 41.955], [18.93, 41.955], [18.945, 41.97], [18.945, 42.02], [18.94, 42.025]]]}, "properties": {"score_mean": 60.0, "score_max": 69.1, "area_km2": 35.0, "centroid": [18.9161, 41.9929], "razlog": "povoljna dubina + termalni front", "dubina_panule_m": 10.8, "sst_raspon_C": 0.4, "sst_promjena_3d_C": -1.1, "upwelling": 0.1, "hladnije_C": 0.1, "izgledi": "vrlo dobri"}}, {"type": "Feature", "geometry": {"type": "Polygon", "coordinates": [[[18.69, 42.305], [18.665, 42.3], [18.67, 42.275], [18.695, 42.28], [18.69, 42.305]]]}, "properties": {"score_mean": 59.5, "score_max": 61.6, "area_km2": 8.3, "centroid": [18.68, 42.29], "razlog": "termalni front + povoljna dubina", "dubina_panule_m": 7.2, "sst_raspon_C": 1.0, "sst_promjena_3d_C": -0.5, "upwelling": 0.0, "hladnije_C": -0.3, "izgledi": "dobri"}}, {"type": "Feature", "geometry": {"type": "Polygon", "coordinates": [[[18.94, 42.135], [18.915, 42.13], [18.92, 42.105], [18.945, 42.11], [18.94, 42.135]]]}, "properties": {"score_mean": 51.8, "score_max": 60.2, "area_km2": 8.3, "centroid": [18.93, 42.12], "razlog": "povoljna dubina + termalni front", "dubina_panule_m": 7.7, "sst_raspon_C": 0.3, "sst_promjena_3d_C": -0.7, "upwelling": 0.0, "hladnije_C": -0.4, "izgledi": "dobri"}}]}