{"type": "FeatureCollection", "properties": {"vrsta": "trupac", "naziv": "Trupac", "latinski": "Auxis rochei", "datum": "2026-09-25", "profil": null, "panula": {"dubina_m": [0.0, 30.0], "brzina_kn": [4.0, 6.0], "sati": "zora i sumrak", "granica_dubine_m": 50.0}, "vertikala": {"termoklina_m": 31.8, "termoklina_C_po_m": 0.2, "dcm_m": 97.9, "dcm_odnos": 1.0, "dcm_debljina_m": 38.1, "mld_m": 20.7, "sloj_plijena_m": [67.5, 107.7], "dohvatljivost": 0.0, "objasnjenje": "Termoklina na 32 m. Sloj plijena lezi pretezno ispod 50 m, dakle izvan dohvata panule. Najveca gustina hlorofila je na 98 m (sloj debljine 38 m) - tu se skuplja sitna riba koja se hrani planktonom, pa je i najveca vjerovatnoca da su grabljivice tu negdje."}, "bezbjednost": {"nivo": "crveno", "razlog": "vjetar 16 cv, udari 26 cv", "izlazak_preporucen": false}, "napomena": "", "razlog_praznog": null}, "features": [{"type": "Feature", "geometry": {"type": "Polygon", "coordinates": [[[19.09, 41.995], [19.065, 41.99], [19.065, 41.93], [19.08, 41.915], [19.105, 41.92], [19.105, 41.95], [19.095, 41.96], [19.095, 41.99], [19.09, 41.995]]]}, "properties": {"score_mean": 65.3, "score_max": 76.0, "area_km2": 24.9, "centroid": [19.0833, 41.9533], "razlog": "mirno more + povoljna dubina", "dubina_panule_m": 7.5, "sst_raspon_C": 0.5, "sst_promjena_3d_C": 0.0, "upwelling": 0.0, "hladnije_C": -0.0, "izgledi": "vrlo dobri"}}, {"type": "Feature", "geometry": {"type": "Polygon", "coordinates": [[[18.78, 42.055], [18.755, 42.05], [18.755, 42.02], [18.76, 42.015], [18.79, 42.015], [18.795, 42.02], [18.795, 42.04], [18.78, 42.055]]]}, "properties": {"score_mean": 54.2, "score_max": 60.1, "area_km2": 13.8, "centroid": [18.774, 42.034], "razlog": "povoljna dubina + mirno more", "dubina_panule_m": 16.1, "sst_raspon_C": 0.4, "sst_promjena_3d_C": 0.0, "upwelling": 0.0, "hladnije_C": 0.1, "izgledi": "dobri"}}, {"type": "Feature", "geometry": {"type": "Polygon", "coordinates": [[[18.92, 42.105], [18.895, 42.1], [18.895, 42.07], [18.885, 42.06], [18.885, 41.99], [18.89, 41.985], [18.91, 41.985], [18.945, 42.01], [18.945, 42.08], [18.92, 42.105]]]}, "properties": {"score_mean": 50.7, "score_max": 57.0, "area_km2": 56.1, "centroid": [18.9144, 42.0433], "razlog": "povoljna dubina + mirno more", "dubina_panule_m": 11.0, "sst_raspon_C": 0.2, "sst_promjena_3d_C": 0.0, "upwelling": 0.0, "hladnije_C": -0.0, "izgledi": "dobri"}}, {"type": "Feature", "geometry": {"type": "Polygon", "coordinates": [[[18.69, 42.305], [18.66, 42.305], [18.655, 42.3], [18.655, 42.28], [18.67, 42.265], [18.695, 42.27], [18.695, 42.3], [18.69, 42.305]]]}, "properties": {"score_mean": 35.5, "score_max": 60.2, "area_km2": 13.8, "centroid": [18.676, 42.286], "razlog": "povoljna dubina + mirno more", "dubina_panule_m": 9.2, "sst_raspon_C": 0.2, "sst_promjena_3d_C": 0.0, "upwelling": 0.0, "hladnije_C": 0.0, "izgledi": "osrednji"}}, {"type": "Feature", "geometry": {"type": "Polygon", "coordinates": [[[18.73, 42.265], [18.7, 42.265], [18.695, 42.26], [18.695, 42.23], [18.71, 42.215], [18.735, 42.22], [18.735, 42.26], [18.73, 42.265]]]}, "properties": {"score_mean": 35.3, "score_max": 56.4, "area_km2": 17.4, "centroid": [18.7158, 42.2411], "razlog": "povoljna dubina + mirno more", "dubina_panule_m": 9.9, "sst_raspon_C": 0.2, "sst_promjena_3d_C": 0.0, "upwelling": 0.0, "hladnije_C": 0.1, "izgledi": "osrednji"}}]}