{"type": "FeatureCollection", "properties": {"vrsta": "trupac", "naziv": "Trupac", "latinski": "Auxis rochei", "datum": "2026-10-12", "profil": null, "panula": {"dubina_m": [0.0, 30.0], "brzina_kn": [4.0, 6.0], "sati": "zora i sumrak", "granica_dubine_m": 50.0}, "vertikala": {"termoklina_m": 40.0, "termoklina_C_po_m": 0.1, "dcm_m": 78.6, "dcm_odnos": 1.0, "dcm_debljina_m": 39.8, "mld_m": 23.9, "sloj_plijena_m": [45.6, 90.8], "dohvatljivost": 0.1, "objasnjenje": "Termoklina na 40 m. Sloj plijena lezi pretezno ispod 50 m, dakle izvan dohvata panule. Najveca gustina hlorofila je na 79 m (sloj debljine 40 m) - tu se skuplja sitna riba koja se hrani planktonom, pa je i najveca vjerovatnoca da su grabljivice tu negdje."}, "bezbjednost": {"nivo": "crveno", "razlog": "vjetar 18 cv, udari 24 cv", "izlazak_preporucen": false}, "napomena": "", "razlog_praznog": null}, "features": [{"type": "Feature", "geometry": {"type": "Polygon", "coordinates": [[[18.94, 42.075], [18.915, 42.07], [18.915, 42.04], [18.935, 42.03], [18.935, 42.01], [18.96, 41.985], [18.98, 41.985], [18.995, 41.97], [19.0, 41.955], [19.02, 41.955], [19.025, 41.96], [19.025, 42.03], [19.02, 42.035], [18.97, 42.035], [18.96, 42.045], [18.95, 42.045], [18.94, 42.075]]]}, "properties": {"score_mean": 43.9, "score_max": 50.1, "area_km2": 60.8, "centroid": [18.9761, 42.0139], "razlog": "povoljna dubina + termalni front", "dubina_panule_m": 18.6, "sst_raspon_C": 0.5, "sst_promjena_3d_C": 0.0, "upwelling": 0.0, "hladnije_C": 0.1, "izgledi": "dobri"}}, {"type": "Feature", "geometry": {"type": "Polygon", "coordinates": [[[18.63, 41.835], [18.605, 41.83], [18.605, 41.81], [18.64, 41.755], [18.65, 41.745], [18.67, 41.745], [18.675, 41.77], [18.665, 41.78], [18.665, 41.8], [18.63, 41.835]]]}, "properties": {"score_mean": 5.1, "score_max": 5.7, "area_km2": 34.2, "centroid": [18.6408, 41.7908], "razlog": "povoljna dubina + zora/sumrak", "dubina_panule_m": 30.0, "sst_raspon_C": 0.4, "sst_promjena_3d_C": 0.0, "upwelling": 0.0, "hladnije_C": -0.1, "izgledi": "vrlo slabi"}}]}