{"type": "FeatureCollection", "properties": {"vrsta": "trupac", "naziv": "Trupac", "latinski": "Auxis rochei", "datum": "2026-09-19", "profil": null, "panula": {"dubina_m": [0.0, 30.0], "brzina_kn": [4.0, 6.0], "sati": "zora i sumrak", "granica_dubine_m": 50.0}, "vertikala": {"termoklina_m": 24.5, "termoklina_C_po_m": 0.2, "dcm_m": 97.9, "dcm_odnos": 1.0, "dcm_debljina_m": 38.1, "mld_m": 13.1, "sloj_plijena_m": [59.4, 106.0], "dohvatljivost": 0.0, "objasnjenje": "Termoklina na 24 m. Sloj plijena lezi pretezno ispod 50 m, dakle izvan dohvata panule. Najveca gustina hlorofila je na 98 m (sloj debljine 38 m) - tu se skuplja sitna riba koja se hrani planktonom, pa je i najveca vjerovatnoca da su grabljivice tu negdje."}, "bezbjednost": {"nivo": "zuto", "razlog": "vjetar 11 cv", "izlazak_preporucen": true}, "napomena": "", "razlog_praznog": null}, "features": [{"type": "Feature", "geometry": {"type": "Polygon", "coordinates": [[[19.09, 41.995], [19.065, 41.99], [19.07, 41.965], [19.095, 41.97], [19.09, 41.995]]]}, "properties": {"score_mean": 72.4, "score_max": 76.3, "area_km2": 8.3, "centroid": [19.08, 41.98], "razlog": "termalni front + povoljna dubina", "dubina_panule_m": 7.1, "sst_raspon_C": 0.8, "sst_promjena_3d_C": 0.2, "upwelling": 0.0, "hladnije_C": 0.2, "izgledi": "vrlo dobri"}}, {"type": "Feature", "geometry": {"type": "Polygon", "coordinates": [[[18.89, 42.045], [18.84, 42.045], [18.825, 42.03], [18.825, 42.01], [18.85, 41.965], [18.88, 41.965], [18.905, 41.98], [18.905, 42.01], [18.895, 42.02], [18.89, 42.045]]]}, "properties": {"score_mean": 64.3, "score_max": 70.7, "area_km2": 47.9, "centroid": [18.8662, 42.0069], "razlog": "termalni front + povoljna dubina", "dubina_panule_m": 12.9, "sst_raspon_C": 0.8, "sst_promjena_3d_C": -0.8, "upwelling": 0.0, "hladnije_C": 0.4, "izgledi": "vrlo dobri"}}, {"type": "Feature", "geometry": {"type": "Polygon", "coordinates": [[[18.69, 42.305], [18.665, 42.3], [18.67, 42.275], [18.695, 42.28], [18.69, 42.305]]]}, "properties": {"score_mean": 60.7, "score_max": 62.1, "area_km2": 8.3, "centroid": [18.68, 42.29], "razlog": "termalni front + povoljna dubina", "dubina_panule_m": 7.7, "sst_raspon_C": 0.5, "sst_promjena_3d_C": -0.4, "upwelling": 0.0, "hladnije_C": -0.2, "izgledi": "vrlo dobri"}}, {"type": "Feature", "geometry": {"type": "Polygon", "coordinates": [[[18.73, 42.265], [18.705, 42.26], [18.705, 42.23], [18.71, 42.225], [18.735, 42.23], [18.735, 42.26], [18.73, 42.265]]]}, "properties": {"score_mean": 59.8, "score_max": 62.8, "area_km2": 11.0, "centroid": [18.72, 42.245], "razlog": "povoljna dubina + mirno more", "dubina_panule_m": 30.0, "sst_raspon_C": 0.4, "sst_promjena_3d_C": -0.2, "upwelling": 0.0, "hladnije_C": -0.1, "izgledi": "dobri"}}]}