{"type": "FeatureCollection", "properties": {"vrsta": "trupac", "naziv": "Trupac", "latinski": "Auxis rochei", "datum": "2026-09-07", "profil": null, "panula": {"dubina_m": [0.0, 30.0], "brzina_kn": [4.0, 6.0], "sati": "zora i sumrak", "granica_dubine_m": 50.0}, "vertikala": {"termoklina_m": 17.8, "termoklina_C_po_m": 0.3, "dcm_m": 91.2, "dcm_odnos": 1.0, "dcm_debljina_m": 41.6, "mld_m": 11.9, "sloj_plijena_m": [59.2, 102.9], "dohvatljivost": 0.0, "objasnjenje": "Termoklina na 18 m. Sloj plijena lezi pretezno ispod 50 m, dakle izvan dohvata panule. Najveca gustina hlorofila je na 91 m (sloj debljine 42 m) - tu se skuplja sitna riba koja se hrani planktonom, pa je i najveca vjerovatnoca da su grabljivice tu negdje."}, "bezbjednost": {"nivo": "zuto", "razlog": "vjetar 13 cv", "izlazak_preporucen": true}, "napomena": "", "razlog_praznog": null}, "features": [{"type": "Feature", "geometry": {"type": "Polygon", "coordinates": [[[19.105, 41.95], [19.08, 41.955], [19.065, 41.94], [19.065, 41.9], [19.09, 41.875], [19.115, 41.88], [19.115, 41.91], [19.105, 41.92], [19.105, 41.95]]]}, "properties": {"score_mean": 23.6, "score_max": 34.4, "area_km2": 29.5, "centroid": [19.0897, 41.9144], "razlog": "termalni front + prisustvo mamca", "dubina_panule_m": 7.1, "sst_raspon_C": 0.7, "sst_promjena_3d_C": -0.5, "upwelling": 0.4, "hladnije_C": 0.2, "izgledi": "slabi"}}, {"type": "Feature", "geometry": {"type": "Polygon", "coordinates": [[[18.86, 42.215], [18.82, 42.215], [18.815, 42.21], [18.815, 42.18], [18.83, 42.165], [18.84, 42.165], [18.88, 42.125], [18.9, 42.125], [18.91, 42.095], [18.94, 42.095], [18.945, 42.1], [18.945, 42.13], [18.94, 42.135], [18.91, 42.135], [18.905, 42.14], [18.905, 42.17], [18.88, 42.175], [18.865, 42.19], [18.86, 42.215]]]}, "properties": {"score_mean": 5.8, "score_max": 24.9, "area_km2": 57.9, "centroid": [18.877, 42.1578], "razlog": "termalni front + povoljna dubina", "dubina_panule_m": 30.0, "sst_raspon_C": 0.9, "sst_promjena_3d_C": -0.7, "upwelling": 0.0, "hladnije_C": -0.1, "izgledi": "vrlo slabi"}}, {"type": "Feature", "geometry": {"type": "Polygon", "coordinates": [[[18.73, 42.265], [18.7, 42.265], [18.695, 42.26], [18.695, 42.23], [18.71, 42.215], [18.735, 42.22], [18.735, 42.26], [18.73, 42.265]]]}, "properties": {"score_mean": 3.9, "score_max": 7.0, "area_km2": 17.4, "centroid": [18.7158, 42.2411], "razlog": "povoljna dubina + termalni front", "dubina_panule_m": 30.0, "sst_raspon_C": 0.5, "sst_promjena_3d_C": 0.2, "upwelling": 0.0, "hladnije_C": -0.2, "izgledi": "vrlo slabi"}}, {"type": "Feature", "geometry": {"type": "Polygon", "coordinates": [[[18.69, 42.305], [18.66, 42.305], [18.655, 42.3], [18.655, 42.28], [18.67, 42.265], [18.695, 42.27], [18.695, 42.3], [18.69, 42.305]]]}, "properties": {"score_mean": 3.2, "score_max": 6.2, "area_km2": 13.8, "centroid": [18.676, 42.286], "razlog": "termalni front + povoljna dubina", "dubina_panule_m": 7.1, "sst_raspon_C": 0.6, "sst_promjena_3d_C": 0.4, "upwelling": 0.0, "hladnije_C": -0.4, "izgledi": "vrlo slabi"}}, {"type": "Feature", "geometry": {"type": "Polygon", "coordinates": [[[18.65, 42.345], [18.62, 42.345], [18.615, 42.32], [18.62, 42.315], [18.65, 42.315], [18.655, 42.32], [18.65, 42.345]]]}, "properties": {"score_mean": 2.6, "score_max": 4.9, "area_km2": 11.0, "centroid": [18.635, 42.33], "razlog": "termalni front + povoljna dubina", "dubina_panule_m": 30.0, "sst_raspon_C": 1.2, "sst_promjena_3d_C": -0.5, "upwelling": 0.0, "hladnije_C": 0.3, "izgledi": "vrlo slabi"}}]}