{"type": "FeatureCollection", "properties": {"vrsta": "trupac", "naziv": "Trupac", "latinski": "Auxis rochei", "datum": "2026-09-13", "profil": null, "panula": {"dubina_m": [0.0, 30.0], "brzina_kn": [4.0, 6.0], "sati": "zora i sumrak", "granica_dubine_m": 50.0}, "vertikala": {"termoklina_m": 17.8, "termoklina_C_po_m": 0.3, "dcm_m": 97.9, "dcm_odnos": 1.0, "dcm_debljina_m": 44.8, "mld_m": 11.9, "sloj_plijena_m": [50.5, 99.4], "dohvatljivost": 0.0, "objasnjenje": "Termoklina na 18 m. Sloj plijena lezi pretezno ispod 50 m, dakle izvan dohvata panule. Najveca gustina hlorofila je na 98 m (sloj debljine 45 m) - tu se skuplja sitna riba koja se hrani planktonom, pa je i najveca vjerovatnoca da su grabljivice tu negdje."}, "bezbjednost": {"nivo": "zuto", "razlog": "vjetar 12 cv", "izlazak_preporucen": true}, "napomena": "", "razlog_praznog": null}, "features": [{"type": "Feature", "geometry": {"type": "Polygon", "coordinates": [[[18.94, 41.965], [18.91, 41.965], [18.895, 41.95], [18.895, 41.91], [18.92, 41.895], [19.0, 41.895], [19.005, 41.92], [18.995, 41.93], [18.995, 41.94], [18.98, 41.955], [18.95, 41.955], [18.94, 41.965]]]}, "properties": {"score_mean": 27.5, "score_max": 33.2, "area_km2": 59.0, "centroid": [18.9469, 41.9269], "razlog": "povoljna dubina + prisustvo mamca", "dubina_panule_m": 7.1, "sst_raspon_C": 0.5, "sst_promjena_3d_C": 0.0, "upwelling": 0.2, "hladnije_C": 0.3, "izgledi": "osrednji"}}, {"type": "Feature", "geometry": {"type": "Polygon", "coordinates": [[[18.69, 42.305], [18.66, 42.305], [18.655, 42.3], [18.655, 42.27], [18.68, 42.265], [18.685, 42.24], [18.71, 42.215], [18.73, 42.215], [18.735, 42.22], [18.735, 42.26], [18.695, 42.27], [18.695, 42.3], [18.69, 42.305]]]}, "properties": {"score_mean": 10.5, "score_max": 20.8, "area_km2": 34.9, "centroid": [18.6966, 42.2603], "razlog": "povoljna dubina + termalni front", "dubina_panule_m": 30.0, "sst_raspon_C": 0.5, "sst_promjena_3d_C": 0.0, "upwelling": 0.0, "hladnije_C": -0.2, "izgledi": "vrlo slabi"}}]}