{"type": "FeatureCollection", "properties": {"vrsta": "trupac", "naziv": "Trupac", "latinski": "Auxis rochei", "datum": "2026-09-03", "profil": null, "panula": {"dubina_m": [0.0, 30.0], "brzina_kn": [4.0, 6.0], "sati": "zora i sumrak", "granica_dubine_m": 50.0}, "vertikala": {"termoklina_m": 14.8, "termoklina_C_po_m": 0.3, "dcm_m": 91.2, "dcm_odnos": 1.0, "dcm_debljina_m": 46.5, "mld_m": 11.9, "sloj_plijena_m": [59.6, 108.0], "dohvatljivost": 0.0, "objasnjenje": "Termoklina na 15 m. Sloj plijena lezi pretezno ispod 50 m, dakle izvan dohvata panule. Najveca gustina hlorofila je na 91 m (sloj debljine 46 m) - tu se skuplja sitna riba koja se hrani planktonom, pa je i najveca vjerovatnoca da su grabljivice tu negdje."}, "bezbjednost": {"nivo": "crveno", "razlog": "vjetar 16 cv, udari 22 cv", "izlazak_preporucen": false}, "napomena": "", "razlog_praznog": null}, "features": [{"type": "Feature", "geometry": {"type": "Polygon", "coordinates": [[[19.02, 42.095], [18.995, 42.09], [19.0, 42.065], [19.025, 42.07], [19.02, 42.095]]]}, "properties": {"score_mean": 19.0, "score_max": 22.7, "area_km2": 8.3, "centroid": [19.01, 42.08], "razlog": "prisustvo mamca + termalni front", "dubina_panule_m": 7.1, "sst_raspon_C": 0.5, "sst_promjena_3d_C": -0.3, "upwelling": 0.3, "hladnije_C": 0.1, "izgledi": "slabi"}}, {"type": "Feature", "geometry": {"type": "Polygon", "coordinates": [[[19.09, 42.015], [19.06, 42.015], [19.055, 42.01], [19.055, 41.97], [19.07, 41.945], [19.1, 41.945], [19.105, 41.95], [19.105, 42.0], [19.09, 42.015]]]}, "properties": {"score_mean": 14.6, "score_max": 16.6, "area_km2": 29.5, "centroid": [19.0806, 41.9806], "razlog": "prisustvo mamca + povoljna dubina", "dubina_panule_m": 7.1, "sst_raspon_C": 0.3, "sst_promjena_3d_C": -0.1, "upwelling": 0.2, "hladnije_C": 0.0, "izgledi": "slabi"}}, {"type": "Feature", "geometry": {"type": "Polygon", "coordinates": [[[18.73, 42.265], [18.7, 42.265], [18.695, 42.26], [18.695, 42.24], [18.71, 42.225], [18.735, 42.23], [18.735, 42.26], [18.73, 42.265]]]}, "properties": {"score_mean": 8.6, "score_max": 11.7, "area_km2": 13.8, "centroid": [18.716, 42.246], "razlog": "povoljna dubina + prisustvo mamca", "dubina_panule_m": 30.0, "sst_raspon_C": 0.3, "sst_promjena_3d_C": -0.5, "upwelling": 0.0, "hladnije_C": -0.0, "izgledi": "vrlo slabi"}}, {"type": "Feature", "geometry": {"type": "Polygon", "coordinates": [[[18.69, 42.305], [18.66, 42.305], [18.655, 42.3], [18.655, 42.28], [18.67, 42.265], [18.695, 42.27], [18.695, 42.3], [18.69, 42.305]]]}, "properties": {"score_mean": 8.3, "score_max": 15.1, "area_km2": 13.8, "centroid": [18.676, 42.286], "razlog": "povoljna dubina + prisustvo mamca", "dubina_panule_m": 26.2, "sst_raspon_C": 0.3, "sst_promjena_3d_C": -0.6, "upwelling": 0.0, "hladnije_C": 0.1, "izgledi": "vrlo slabi"}}, {"type": "Feature", "geometry": {"type": "Polygon", "coordinates": [[[18.86, 42.215], [18.83, 42.215], [18.825, 42.21], [18.825, 42.18], [18.84, 42.165], [18.855, 42.16], [18.855, 42.15], [18.895, 42.11], [18.895, 42.1], [18.91, 42.085], [18.94, 42.085], [18.945, 42.09], [18.945, 42.13], [18.92, 42.135], [18.905, 42.15], [18.9, 42.175], [18.87, 42.175], [18.86, 42.215]]]}, "properties": {"score_mean": 4.2, "score_max": 12.2, "area_km2": 59.7, "centroid": [18.8865, 42.1477], "razlog": "povoljna dubina + termalni front", "dubina_panule_m": 30.0, "sst_raspon_C": 0.5, "sst_promjena_3d_C": -0.6, "upwelling": 0.0, "hladnije_C": -0.0, "izgledi": "vrlo slabi"}}]}