{"type": "FeatureCollection", "properties": {"vrsta": "trupac", "naziv": "Trupac", "latinski": "Auxis rochei", "datum": "2026-09-16", "profil": null, "panula": {"dubina_m": [0.0, 30.0], "brzina_kn": [4.0, 6.0], "sati": "zora i sumrak", "granica_dubine_m": 50.0}, "vertikala": {"termoklina_m": 24.5, "termoklina_C_po_m": 0.2, "dcm_m": 97.9, "dcm_odnos": 1.0, "dcm_debljina_m": 37.1, "mld_m": 17.2, "sloj_plijena_m": [56.8, 103.3], "dohvatljivost": 0.0, "objasnjenje": "Termoklina na 24 m. Sloj plijena lezi pretezno ispod 50 m, dakle izvan dohvata panule. Najveca gustina hlorofila je na 98 m (sloj debljine 37 m) - tu se skuplja sitna riba koja se hrani planktonom, pa je i najveca vjerovatnoca da su grabljivice tu negdje."}, "bezbjednost": {"nivo": "zuto", "razlog": "vjetar 12 cv", "izlazak_preporucen": true}, "napomena": "", "razlog_praznog": null}, "features": [{"type": "Feature", "geometry": {"type": "Polygon", "coordinates": [[[19.09, 41.875], [19.065, 41.87], [19.065, 41.84], [19.07, 41.835], [19.1, 41.835], [19.105, 41.84], [19.105, 41.86], [19.09, 41.875]]]}, "properties": {"score_mean": 62.9, "score_max": 65.2, "area_km2": 13.8, "centroid": [19.084, 41.854], "razlog": "termalni front + povoljna dubina", "dubina_panule_m": 9.3, "sst_raspon_C": 0.7, "sst_promjena_3d_C": -0.4, "upwelling": 0.2, "hladnije_C": 0.1, "izgledi": "vrlo dobri"}}, {"type": "Feature", "geometry": {"type": "Polygon", "coordinates": [[[18.73, 42.265], [18.705, 42.26], [18.705, 42.23], [18.71, 42.225], [18.735, 42.23], [18.735, 42.26], [18.73, 42.265]]]}, "properties": {"score_mean": 36.1, "score_max": 38.1, "area_km2": 11.0, "centroid": [18.72, 42.245], "razlog": "povoljna dubina + termalni front", "dubina_panule_m": 8.6, "sst_raspon_C": 0.5, "sst_promjena_3d_C": -0.4, "upwelling": 0.0, "hladnije_C": -0.1, "izgledi": "osrednji"}}, {"type": "Feature", "geometry": {"type": "Polygon", "coordinates": [[[18.94, 42.035], [18.91, 42.035], [18.885, 42.01], [18.885, 42.0], [18.875, 41.99], [18.875, 41.96], [18.88, 41.955], [18.89, 41.955], [18.9, 41.945], [18.94, 41.945], [18.945, 41.95], [18.945, 42.03], [18.94, 42.035]]]}, "properties": {"score_mean": 35.5, "score_max": 44.7, "area_km2": 49.7, "centroid": [18.9141, 41.9876], "razlog": "termalni front + povoljna dubina", "dubina_panule_m": 13.1, "sst_raspon_C": 0.8, "sst_promjena_3d_C": -0.7, "upwelling": 0.1, "hladnije_C": 0.0, "izgledi": "osrednji"}}, {"type": "Feature", "geometry": {"type": "Polygon", "coordinates": [[[18.64, 42.345], [18.615, 42.34], [18.62, 42.315], [18.645, 42.32], [18.64, 42.345]]]}, "properties": {"score_mean": 5.3, "score_max": 8.3, "area_km2": 8.2, "centroid": [18.63, 42.33], "razlog": "termalni front + povoljna dubina", "dubina_panule_m": 30.0, "sst_raspon_C": 0.8, "sst_promjena_3d_C": -0.7, "upwelling": 0.3, "hladnije_C": 0.2, "izgledi": "vrlo slabi"}}]}