{"type": "FeatureCollection", "properties": {"vrsta": "trupac", "naziv": "Trupac", "latinski": "Auxis rochei", "datum": "2026-09-22", "profil": null, "panula": {"dubina_m": [0.0, 30.0], "brzina_kn": [4.0, 6.0], "sati": "zora i sumrak", "granica_dubine_m": 50.0}, "vertikala": {"termoklina_m": 24.5, "termoklina_C_po_m": 0.2, "dcm_m": 97.9, "dcm_odnos": 1.0, "dcm_debljina_m": 39.8, "mld_m": 15.2, "sloj_plijena_m": [59.4, 108.5], "dohvatljivost": 0.0, "objasnjenje": "Termoklina na 24 m. Sloj plijena lezi pretezno ispod 50 m, dakle izvan dohvata panule. Najveca gustina hlorofila je na 98 m (sloj debljine 40 m) - tu se skuplja sitna riba koja se hrani planktonom, pa je i najveca vjerovatnoca da su grabljivice tu negdje."}, "bezbjednost": {"nivo": "crveno", "razlog": "talasi do 1.1 m, vjetar 21 cv, udari 30 cv", "izlazak_preporucen": false}, "napomena": "", "razlog_praznog": null}, "features": [{"type": "Feature", "geometry": {"type": "Polygon", "coordinates": [[[19.08, 42.005], [19.01, 42.005], [19.005, 42.0], [19.005, 41.97], [19.05, 41.925], [19.06, 41.925], [19.07, 41.915], [19.095, 41.92], [19.095, 41.99], [19.08, 42.005]]]}, "properties": {"score_mean": 58.3, "score_max": 68.4, "area_km2": 59.0, "centroid": [19.0555, 41.9662], "razlog": "povoljna dubina + termalni front", "dubina_panule_m": 7.6, "sst_raspon_C": 0.6, "sst_promjena_3d_C": 0.0, "upwelling": 0.2, "hladnije_C": 0.1, "izgledi": "dobri"}}, {"type": "Feature", "geometry": {"type": "Polygon", "coordinates": [[[18.94, 42.025], [18.87, 42.025], [18.855, 42.01], [18.855, 41.99], [18.88, 41.965], [18.91, 41.965], [18.92, 41.975], [18.95, 41.975], [18.955, 41.98], [18.955, 42.01], [18.94, 42.025]]]}, "properties": {"score_mean": 57.2, "score_max": 62.5, "area_km2": 47.0, "centroid": [18.9051, 41.9973], "razlog": "povoljna dubina + prisustvo mamca", "dubina_panule_m": 10.2, "sst_raspon_C": 0.4, "sst_promjena_3d_C": 0.0, "upwelling": 0.0, "hladnije_C": 0.1, "izgledi": "dobri"}}]}