{"type": "FeatureCollection", "properties": {"vrsta": "trupac", "naziv": "Trupac", "latinski": "Auxis rochei", "datum": "2026-08-24", "panula": {"dubina_m": [0.0, 30.0], "brzina_kn": [4.0, 6.0], "granica_dubine_m": 50.0}, "vertikala": {"termoklina_m": 6.7, "termoklina_C_po_m": 0.5, "dcm_m": 91.2, "dcm_odnos": 1.0, "mld_m": 11.9, "sloj_plijena_m": [54.7, 114.7], "dohvatljivost": 0.0, "objasnjenje": "Termoklina na 7 m, sloj plijena oko 91 m — ispod dohvata panule od 50 m."}, "bezbjednost": {"nivo": "zuto", "razlog": "vjetar 12 cv", "izlazak_preporucen": true}, "napomena": ""}, "features": [{"type": "Feature", "geometry": {"type": "Polygon", "coordinates": [[[19.22, 41.885], [19.18, 41.885], [19.175, 41.88], [19.175, 41.85], [19.23, 41.805], [19.25, 41.805], [19.255, 41.83], [19.235, 41.85], [19.235, 41.87], [19.22, 41.885]]]}, "properties": {"score_mean": 35.1, "score_max": 51.4, "area_km2": 38.8, "centroid": [19.214, 41.8479], "razlog": "povoljna dubina + prisustvo mamca", "dubina_panule_m": 7.1}}, {"type": "Feature", "geometry": {"type": "Polygon", "coordinates": [[[19.08, 41.995], [19.05, 41.995], [19.045, 41.97], [19.055, 41.96], [19.055, 41.95], [19.09, 41.915], [19.11, 41.915], [19.115, 41.92], [19.115, 41.95], [19.085, 41.98], [19.08, 41.995]]]}, "properties": {"score_mean": 33.9, "score_max": 49.8, "area_km2": 33.2, "centroid": [19.0808, 41.9558], "razlog": "povoljna dubina + prisustvo mamca", "dubina_panule_m": 7.1}}, {"type": "Feature", "geometry": {"type": "Polygon", "coordinates": [[[19.48, 41.765], [19.46, 41.765], [19.445, 41.75], [19.445, 41.71], [19.435, 41.7], [19.435, 41.67], [19.425, 41.66], [19.43, 41.635], [19.48, 41.635], [19.485, 41.64], [19.485, 41.71], [19.475, 41.72], [19.475, 41.73], [19.485, 41.74], [19.48, 41.765]]]}, "properties": {"score_mean": 25.1, "score_max": 29.0, "area_km2": 54.6, "centroid": [19.46, 41.692], "razlog": "prisustvo mamca + povoljna dubina", "dubina_panule_m": 7.1}}]}