{"type": "FeatureCollection", "properties": {"vrsta": "trupac", "naziv": "Trupac", "latinski": "Auxis rochei", "datum": "2026-09-20", "profil": null, "panula": {"dubina_m": [0.0, 30.0], "brzina_kn": [4.0, 6.0], "sati": "zora i sumrak", "granica_dubine_m": 50.0}, "vertikala": {"termoklina_m": 24.5, "termoklina_C_po_m": 0.2, "dcm_m": 97.9, "dcm_odnos": 1.0, "dcm_debljina_m": 38.1, "mld_m": 12.7, "sloj_plijena_m": [59.4, 107.4], "dohvatljivost": 0.0, "objasnjenje": "Termoklina na 24 m. Sloj plijena lezi pretezno ispod 50 m, dakle izvan dohvata panule. Najveca gustina hlorofila je na 98 m (sloj debljine 38 m) - tu se skuplja sitna riba koja se hrani planktonom, pa je i najveca vjerovatnoca da su grabljivice tu negdje."}, "bezbjednost": {"nivo": "zuto", "razlog": "vjetar 11 cv", "izlazak_preporucen": true}, "napomena": "", "razlog_praznog": null}, "features": [{"type": "Feature", "geometry": {"type": "Polygon", "coordinates": [[[19.14, 41.805], [19.115, 41.8], [19.115, 41.79], [19.105, 41.78], [19.11, 41.755], [19.14, 41.755], [19.145, 41.76], [19.145, 41.8], [19.14, 41.805]]]}, "properties": {"score_mean": 75.7, "score_max": 83.5, "area_km2": 16.6, "centroid": [19.1267, 41.7783], "razlog": "prisustvo mamca + termalni front", "dubina_panule_m": 7.1, "sst_raspon_C": 1.0, "sst_promjena_3d_C": 0.2, "upwelling": 0.4, "hladnije_C": 0.3, "izgledi": "vrlo dobri"}}, {"type": "Feature", "geometry": {"type": "Polygon", "coordinates": [[[19.07, 42.005], [19.045, 42.0], [19.045, 41.97], [19.05, 41.965], [19.08, 41.965], [19.085, 41.97], [19.085, 41.99], [19.07, 42.005]]]}, "properties": {"score_mean": 73.8, "score_max": 75.8, "area_km2": 13.8, "centroid": [19.064, 41.984], "razlog": "termalni front + povoljna dubina", "dubina_panule_m": 7.4, "sst_raspon_C": 0.8, "sst_promjena_3d_C": -0.2, "upwelling": 0.0, "hladnije_C": 0.2, "izgledi": "vrlo dobri"}}, {"type": "Feature", "geometry": {"type": "Polygon", "coordinates": [[[18.84, 42.055], [18.815, 42.05], [18.815, 42.03], [18.835, 42.02], [18.845, 41.99], [18.86, 41.975], [18.91, 41.975], [18.915, 42.0], [18.89, 42.005], [18.865, 42.03], [18.86, 42.045], [18.85, 42.045], [18.84, 42.055]]]}, "properties": {"score_mean": 65.8, "score_max": 72.5, "area_km2": 38.7, "centroid": [18.8629, 42.0105], "razlog": "termalni front + povoljna dubina", "dubina_panule_m": 12.4, "sst_raspon_C": 0.7, "sst_promjena_3d_C": -0.6, "upwelling": 0.0, "hladnije_C": 0.4, "izgledi": "vrlo dobri"}}]}