{"type": "FeatureCollection", "properties": {"vrsta": "trupac", "naziv": "Trupac", "latinski": "Auxis rochei", "datum": "2026-09-30", "profil": null, "panula": {"dubina_m": [0.0, 30.0], "brzina_kn": [4.0, 6.0], "sati": "zora i sumrak", "granica_dubine_m": 50.0}, "vertikala": {"termoklina_m": 35.8, "termoklina_C_po_m": 0.1, "dcm_m": 97.9, "dcm_odnos": 1.0, "dcm_debljina_m": 39.6, "mld_m": 18.6, "sloj_plijena_m": [71.6, 111.8], "dohvatljivost": 0.0, "objasnjenje": "Termoklina na 36 m. Sloj plijena lezi pretezno ispod 50 m, dakle izvan dohvata panule. Najveca gustina hlorofila je na 98 m (sloj debljine 40 m) - tu se skuplja sitna riba koja se hrani planktonom, pa je i najveca vjerovatnoca da su grabljivice tu negdje."}, "bezbjednost": {"nivo": "zuto", "razlog": "vjetar 14 cv", "izlazak_preporucen": true}, "napomena": "", "razlog_praznog": null}, "features": [{"type": "Feature", "geometry": {"type": "Polygon", "coordinates": [[[18.86, 42.215], [18.835, 42.21], [18.84, 42.185], [18.865, 42.19], [18.86, 42.215]]]}, "properties": {"score_mean": 66.8, "score_max": 68.6, "area_km2": 8.3, "centroid": [18.85, 42.2], "razlog": "termalni front + povoljna dubina", "dubina_panule_m": 9.4, "sst_raspon_C": 1.2, "sst_promjena_3d_C": -0.0, "upwelling": 0.1, "hladnije_C": 0.2, "izgledi": "vrlo dobri"}}, {"type": "Feature", "geometry": {"type": "Polygon", "coordinates": [[[19.01, 42.065], [18.98, 42.065], [18.97, 42.055], [18.94, 42.055], [18.935, 42.03], [18.94, 42.025], [18.98, 42.025], [19.01, 42.005], [19.04, 42.005], [19.045, 42.03], [19.03, 42.035], [19.025, 42.05], [19.01, 42.065]]]}, "properties": {"score_mean": 66.7, "score_max": 69.5, "area_km2": 39.6, "centroid": [18.993, 42.0358], "razlog": "termalni front + povoljna dubina", "dubina_panule_m": 8.8, "sst_raspon_C": 0.8, "sst_promjena_3d_C": -0.4, "upwelling": 0.3, "hladnije_C": 0.1, "izgledi": "vrlo dobri"}}, {"type": "Feature", "geometry": {"type": "Polygon", "coordinates": [[[18.69, 42.305], [18.665, 42.3], [18.67, 42.275], [18.695, 42.28], [18.69, 42.305]]]}, "properties": {"score_mean": 65.2, "score_max": 67.4, "area_km2": 8.3, "centroid": [18.68, 42.29], "razlog": "termalni front + povoljna dubina", "dubina_panule_m": 8.7, "sst_raspon_C": 0.9, "sst_promjena_3d_C": 0.1, "upwelling": 0.0, "hladnije_C": -0.4, "izgledi": "vrlo dobri"}}, {"type": "Feature", "geometry": {"type": "Polygon", "coordinates": [[[18.9, 42.175], [18.875, 42.17], [18.88, 42.145], [18.905, 42.15], [18.9, 42.175]]]}, "properties": {"score_mean": 64.4, "score_max": 67.2, "area_km2": 8.3, "centroid": [18.89, 42.16], "razlog": "termalni front + povoljna dubina", "dubina_panule_m": 9.3, "sst_raspon_C": 0.8, "sst_promjena_3d_C": -0.5, "upwelling": 0.0, "hladnije_C": 0.3, "izgledi": "vrlo dobri"}}, {"type": "Feature", "geometry": {"type": "Polygon", "coordinates": [[[18.73, 42.265], [18.7, 42.265], [18.695, 42.26], [18.695, 42.23], [18.7, 42.225], [18.73, 42.225], [18.735, 42.23], [18.735, 42.26], [18.73, 42.265]]]}, "properties": {"score_mean": 48.8, "score_max": 67.1, "area_km2": 14.7, "centroid": [18.715, 42.245], "razlog": "termalni front + povoljna dubina", "dubina_panule_m": 9.7, "sst_raspon_C": 0.9, "sst_promjena_3d_C": -0.0, "upwelling": 0.0, "hladnije_C": -0.3, "izgledi": "dobri"}}]}