{"type": "FeatureCollection", "properties": {"vrsta": "trupac", "naziv": "Trupac", "latinski": "Auxis rochei", "datum": "2026-09-08", "profil": null, "panula": {"dubina_m": [0.0, 30.0], "brzina_kn": [4.0, 6.0], "sati": "zora i sumrak", "granica_dubine_m": 50.0}, "vertikala": {"termoklina_m": 21.1, "termoklina_C_po_m": 0.3, "dcm_m": 91.2, "dcm_odnos": 1.0, "dcm_debljina_m": 36.6, "mld_m": 12.0, "sloj_plijena_m": [59.7, 106.5], "dohvatljivost": 0.0, "objasnjenje": "Termoklina na 21 m. Sloj plijena lezi pretezno ispod 50 m, dakle izvan dohvata panule. Najveca gustina hlorofila je na 91 m (sloj debljine 37 m) - tu se skuplja sitna riba koja se hrani planktonom, pa je i najveca vjerovatnoca da su grabljivice tu negdje."}, "bezbjednost": {"nivo": "zeleno", "razlog": "uslovi povoljni", "izlazak_preporucen": true}, "napomena": "", "razlog_praznog": null}, "features": [{"type": "Feature", "geometry": {"type": "Polygon", "coordinates": [[[19.14, 41.875], [19.11, 41.875], [19.105, 41.87], [19.105, 41.83], [19.12, 41.805], [19.145, 41.81], [19.145, 41.87], [19.14, 41.875]]]}, "properties": {"score_mean": 20.1, "score_max": 28.4, "area_km2": 24.0, "centroid": [19.1262, 41.8419], "razlog": "termalni front + povoljna dubina", "dubina_panule_m": 7.6, "sst_raspon_C": 1.1, "sst_promjena_3d_C": -0.2, "upwelling": 0.0, "hladnije_C": -0.1, "izgledi": "slabi"}}, {"type": "Feature", "geometry": {"type": "Polygon", "coordinates": [[[18.86, 42.215], [18.83, 42.215], [18.825, 42.21], [18.825, 42.19], [18.84, 42.175], [18.865, 42.18], [18.865, 42.21], [18.86, 42.215]]]}, "properties": {"score_mean": 12.8, "score_max": 30.4, "area_km2": 13.8, "centroid": [18.846, 42.196], "razlog": "termalni front + povoljna dubina", "dubina_panule_m": 30.0, "sst_raspon_C": 1.1, "sst_promjena_3d_C": 0.2, "upwelling": 0.2, "hladnije_C": 0.1, "izgledi": "slabi"}}, {"type": "Feature", "geometry": {"type": "Polygon", "coordinates": [[[18.69, 42.305], [18.65, 42.305], [18.645, 42.28], [18.67, 42.255], [18.685, 42.25], [18.685, 42.23], [18.71, 42.205], [18.73, 42.205], [18.735, 42.21], [18.735, 42.26], [18.695, 42.27], [18.695, 42.3], [18.69, 42.305]]]}, "properties": {"score_mean": 5.0, "score_max": 13.4, "area_km2": 44.0, "centroid": [18.6942, 42.2575], "razlog": "povoljna dubina + mirno more", "dubina_panule_m": 30.0, "sst_raspon_C": 0.5, "sst_promjena_3d_C": -0.2, "upwelling": 0.0, "hladnije_C": -0.2, "izgledi": "vrlo slabi"}}, {"type": "Feature", "geometry": {"type": "Polygon", "coordinates": [[[18.92, 41.995], [18.88, 41.995], [18.875, 41.99], [18.875, 41.95], [18.89, 41.935], [18.92, 41.935], [18.925, 41.94], [18.925, 41.99], [18.92, 41.995]]]}, "properties": {"score_mean": 4.2, "score_max": 6.8, "area_km2": 26.7, "centroid": [18.9007, 41.9659], "razlog": "povoljna dubina + mirno more", "dubina_panule_m": 30.0, "sst_raspon_C": 0.4, "sst_promjena_3d_C": -0.3, "upwelling": 0.2, "hladnije_C": 0.2, "izgledi": "vrlo slabi"}}]}