{"type": "FeatureCollection", "properties": {"vrsta": "trupac", "naziv": "Trupac", "latinski": "Auxis rochei", "datum": "2026-08-25", "profil": null, "panula": {"dubina_m": [0.0, 30.0], "brzina_kn": [4.0, 6.0], "sati": "zora i sumrak", "granica_dubine_m": 50.0}, "vertikala": {"termoklina_m": 11.9, "termoklina_C_po_m": 0.1, "dcm_m": 91.2, "dcm_odnos": 1.0, "dcm_debljina_m": 33.7, "mld_m": 11.9, "sloj_plijena_m": [64.4, 103.3], "dohvatljivost": 0.0, "objasnjenje": "Termoklina na 12 m. Sloj plijena lezi pretezno ispod 50 m, dakle izvan dohvata panule. Najveca gustina hlorofila je na 91 m (sloj debljine 34 m) - tu se skuplja sitna riba koja se hrani planktonom, pa je i najveca vjerovatnoca da su grabljivice tu negdje."}, "bezbjednost": {"nivo": "crveno", "razlog": "vjetar 17 cv, udari 23 cv", "izlazak_preporucen": false}, "napomena": "", "razlog_praznog": null}, "features": [{"type": "Feature", "geometry": {"type": "Polygon", "coordinates": [[[19.18, 41.885], [19.14, 41.885], [19.135, 41.86], [19.15, 41.855], [19.17, 41.835], [19.18, 41.835], [19.19, 41.815], [19.22, 41.815], [19.235, 41.84], [19.235, 41.86], [19.21, 41.865], [19.2, 41.845], [19.195, 41.87], [19.18, 41.885]]]}, "properties": {"score_mean": 18.8, "score_max": 31.6, "area_km2": 38.8, "centroid": [19.1867, 41.8521], "razlog": "termalni front + povoljna dubina", "dubina_panule_m": 7.1, "sst_raspon_C": 1.2, "sst_promjena_3d_C": 0.5, "upwelling": 0.0, "hladnije_C": -0.0, "izgledi": "slabi"}}, {"type": "Feature", "geometry": {"type": "Polygon", "coordinates": [[[18.72, 42.255], [18.7, 42.255], [18.675, 42.24], [18.675, 42.22], [18.71, 42.195], [18.735, 42.2], [18.735, 42.24], [18.72, 42.255]]]}, "properties": {"score_mean": 7.2, "score_max": 29.8, "area_km2": 26.6, "centroid": [18.7079, 42.2255], "razlog": "termalni front + povoljna dubina", "dubina_panule_m": 7.1, "sst_raspon_C": 0.9, "sst_promjena_3d_C": 0.7, "upwelling": 0.0, "hladnije_C": -0.2, "izgledi": "vrlo slabi"}}, {"type": "Feature", "geometry": {"type": "Polygon", "coordinates": [[[18.99, 42.075], [18.95, 42.075], [18.945, 42.05], [18.95, 42.045], [18.99, 42.045], [18.995, 42.05], [18.99, 42.075]]]}, "properties": {"score_mean": 6.1, "score_max": 21.8, "area_km2": 13.8, "centroid": [18.97, 42.06], "razlog": "termalni front + povoljna dubina", "dubina_panule_m": 30.0, "sst_raspon_C": 0.7, "sst_promjena_3d_C": 0.4, "upwelling": 0.0, "hladnije_C": -0.0, "izgledi": "vrlo slabi"}}, {"type": "Feature", "geometry": {"type": "Polygon", "coordinates": [[[18.82, 42.065], [18.795, 42.06], [18.795, 42.03], [18.81, 42.015], [18.84, 42.015], [18.845, 42.04], [18.82, 42.065]]]}, "properties": {"score_mean": 1.0, "score_max": 1.2, "area_km2": 19.3, "centroid": [18.8186, 42.0386], "razlog": "termalni front + povoljna dubina", "dubina_panule_m": 30.0, "sst_raspon_C": 0.8, "sst_promjena_3d_C": -0.0, "upwelling": 0.0, "hladnije_C": 0.4, "izgledi": "vrlo slabi"}}]}