{"type": "FeatureCollection", "properties": {"vrsta": "trupac", "naziv": "Trupac", "latinski": "Auxis rochei", "datum": "2026-08-23", "panula": {"dubina_m": [0.0, 30.0], "brzina_kn": [4.0, 6.0], "granica_dubine_m": 50.0}, "vertikala": {"termoklina_m": 6.7, "termoklina_C_po_m": 0.5, "dcm_m": 91.2, "dcm_odnos": 1.0, "dcm_debljina_m": 38.0, "mld_m": 11.9, "sloj_plijena_m": [64.7, 105.3], "dohvatljivost": 0.0, "objasnjenje": "Termoklina na 7 m. Sloj plijena leži pretežno ispod 50 m, dakle izvan dohvata panule. Najveća gustina hlorofila je na 91 m (sloj debljine 38 m) — tu se skuplja sitna riba koja se hrani planktonom, pa je i najveća vjerovatnoća da su grabljivice tu negdje."}, "bezbjednost": {"nivo": "zuto", "razlog": "vjetar 12 cv", "izlazak_preporucen": true}, "napomena": ""}, "features": [{"type": "Feature", "geometry": {"type": "Polygon", "coordinates": [[[19.22, 41.885], [19.19, 41.885], [19.175, 41.87], [19.175, 41.85], [19.2, 41.825], [19.21, 41.825], [19.22, 41.815], [19.24, 41.815], [19.245, 41.84], [19.235, 41.85], [19.235, 41.87], [19.22, 41.885]]]}, "properties": {"score_mean": 39.9, "score_max": 58.7, "area_km2": 33.2, "centroid": [19.2108, 41.8514], "razlog": "termalni front + povoljna dubina", "dubina_panule_m": 7.1, "sst_raspon_C": 1.2, "sst_promjena_3d_C": 0.4, "izgledi": "osrednji"}}, {"type": "Feature", "geometry": {"type": "Polygon", "coordinates": [[[19.0, 42.095], [18.975, 42.09], [18.975, 42.06], [19.0, 42.025], [19.03, 42.025], [19.035, 42.05], [19.015, 42.06], [19.0, 42.095]]]}, "properties": {"score_mean": 33.7, "score_max": 43.5, "area_km2": 25.8, "centroid": [19.0021, 42.0571], "razlog": "povoljna dubina + mirno more", "dubina_panule_m": 7.1, "sst_raspon_C": 0.4, "sst_promjena_3d_C": 0.7, "izgledi": "osrednji"}}, {"type": "Feature", "geometry": {"type": "Polygon", "coordinates": [[[19.06, 42.015], [19.035, 42.01], [19.035, 41.98], [19.045, 41.97], [19.045, 41.94], [19.06, 41.935], [19.085, 41.91], [19.09, 41.895], [19.11, 41.895], [19.115, 41.9], [19.115, 41.95], [19.085, 41.98], [19.085, 41.99], [19.065, 42.0], [19.06, 42.015]]]}, "properties": {"score_mean": 33.1, "score_max": 54.6, "area_km2": 51.6, "centroid": [19.0759, 41.955], "razlog": "termalni front + povoljna dubina", "dubina_panule_m": 7.1, "sst_raspon_C": 0.9, "sst_promjena_3d_C": 1.2, "izgledi": "osrednji"}}, {"type": "Feature", "geometry": {"type": "Polygon", "coordinates": [[[18.7, 42.275], [18.67, 42.275], [18.665, 42.27], [18.665, 42.24], [18.675, 42.23], [18.675, 42.22], [18.7, 42.195], [18.74, 42.195], [18.745, 42.22], [18.73, 42.235], [18.715, 42.24], [18.715, 42.26], [18.7, 42.275]]]}, "properties": {"score_mean": 6.6, "score_max": 45.4, "area_km2": 39.5, "centroid": [18.7019, 42.2328], "razlog": "termalni front + povoljna dubina", "dubina_panule_m": 30.0, "sst_raspon_C": 0.6, "sst_promjena_3d_C": -1.2, "izgledi": "vrlo slabi"}}]}