{"type": "FeatureCollection", "properties": {"vrsta": "trupac", "naziv": "Trupac", "latinski": "Auxis rochei", "datum": "2026-08-22", "panula": {"dubina_m": [0.0, 30.0], "brzina_kn": [4.0, 6.0], "granica_dubine_m": 50.0}, "vertikala": {"termoklina_m": 4.3, "termoklina_C_po_m": 0.5, "dcm_m": 91.2, "dcm_odnos": 1.0, "mld_m": 11.9, "sloj_plijena_m": [61.2, 121.2], "dohvatljivost": 0.0, "objasnjenje": "Termoklina na 4 m, sloj plijena oko 91 m — ispod dohvata panule od 50 m."}, "bezbjednost": {"nivo": "zuto", "razlog": "vjetar 12 cv", "izlazak_preporucen": true}, "napomena": ""}, "features": [{"type": "Feature", "geometry": {"type": "Polygon", "coordinates": [[[19.08, 41.995], [19.055, 41.99], [19.055, 41.95], [19.07, 41.935], [19.085, 41.93], [19.09, 41.915], [19.11, 41.915], [19.115, 41.92], [19.115, 41.95], [19.085, 41.98], [19.08, 41.995]]]}, "properties": {"score_mean": 37.6, "score_max": 52.9, "area_km2": 29.5, "centroid": [19.0838, 41.9544], "razlog": "povoljna dubina + mirno more", "dubina_panule_m": 7.1}}, {"type": "Feature", "geometry": {"type": "Polygon", "coordinates": [[[19.22, 41.885], [19.18, 41.885], [19.175, 41.88], [19.175, 41.84], [19.23, 41.805], [19.26, 41.805], [19.265, 41.83], [19.25, 41.835], [19.235, 41.85], [19.235, 41.87], [19.22, 41.885]]]}, "properties": {"score_mean": 36.2, "score_max": 53.9, "area_km2": 43.4, "centroid": [19.2162, 41.8453], "razlog": "povoljna dubina + mirno more", "dubina_panule_m": 7.1}}, {"type": "Feature", "geometry": {"type": "Polygon", "coordinates": [[[19.485, 41.69], [19.46, 41.695], [19.45, 41.685], [19.38, 41.685], [19.375, 41.68], [19.375, 41.64], [19.4, 41.625], [19.44, 41.625], [19.45, 41.635], [19.48, 41.635], [19.485, 41.64], [19.485, 41.69]]]}, "properties": {"score_mean": 28.9, "score_max": 32.1, "area_km2": 58.3, "centroid": [19.4311, 41.659], "razlog": "prisustvo mamca + povoljna dubina", "dubina_panule_m": 7.1}}, {"type": "Feature", "geometry": {"type": "Polygon", "coordinates": [[[19.47, 41.755], [19.445, 41.75], [19.45, 41.725], [19.475, 41.73], [19.47, 41.755]]]}, "properties": {"score_mean": 27.4, "score_max": 28.3, "area_km2": 8.3, "centroid": [19.46, 41.74], "razlog": "prisustvo mamca + povoljna dubina", "dubina_panule_m": 30.0}}]}