{"type": "FeatureCollection", "properties": {"vrsta": "trupac", "naziv": "Trupac", "latinski": "Auxis rochei", "datum": "2026-09-10", "profil": null, "panula": {"dubina_m": [0.0, 30.0], "brzina_kn": [4.0, 6.0], "sati": "zora i sumrak", "granica_dubine_m": 50.0}, "vertikala": {"termoklina_m": 17.8, "termoklina_C_po_m": 0.3, "dcm_m": 97.9, "dcm_odnos": 1.0, "dcm_debljina_m": 44.5, "mld_m": 11.9, "sloj_plijena_m": [55.6, 108.5], "dohvatljivost": 0.0, "objasnjenje": "Termoklina na 18 m. Sloj plijena lezi pretezno ispod 50 m, dakle izvan dohvata panule. Najveca gustina hlorofila je na 98 m (sloj debljine 44 m) - tu se skuplja sitna riba koja se hrani planktonom, pa je i najveca vjerovatnoca da su grabljivice tu negdje."}, "bezbjednost": {"nivo": "zuto", "razlog": "vjetar 12 cv", "izlazak_preporucen": true}, "napomena": "", "razlog_praznog": null}, "features": [{"type": "Feature", "geometry": {"type": "Polygon", "coordinates": [[[19.145, 41.8], [19.12, 41.805], [19.11, 41.795], [19.08, 41.795], [19.065, 41.78], [19.065, 41.75], [19.11, 41.705], [19.14, 41.705], [19.145, 41.71], [19.145, 41.8]]]}, "properties": {"score_mean": 33.5, "score_max": 43.4, "area_km2": 59.2, "centroid": [19.1106, 41.7564], "razlog": "termalni front + povoljna dubina", "dubina_panule_m": 7.2, "sst_raspon_C": 0.8, "sst_promjena_3d_C": -0.5, "upwelling": 0.0, "hladnije_C": 0.2, "izgledi": "osrednji"}}, {"type": "Feature", "geometry": {"type": "Polygon", "coordinates": [[[19.02, 41.935], [18.995, 41.93], [19.0, 41.905], [19.025, 41.91], [19.02, 41.935]]]}, "properties": {"score_mean": 28.4, "score_max": 29.4, "area_km2": 8.3, "centroid": [19.01, 41.92], "razlog": "termalni front + povoljna dubina", "dubina_panule_m": 7.3, "sst_raspon_C": 0.6, "sst_promjena_3d_C": -0.4, "upwelling": 0.2, "hladnije_C": 0.2, "izgledi": "osrednji"}}, {"type": "Feature", "geometry": {"type": "Polygon", "coordinates": [[[18.93, 42.135], [18.905, 42.13], [18.905, 42.11], [18.92, 42.095], [18.945, 42.1], [18.945, 42.12], [18.93, 42.135]]]}, "properties": {"score_mean": 14.5, "score_max": 20.0, "area_km2": 12.9, "centroid": [18.925, 42.115], "razlog": "termalni front + povoljna dubina", "dubina_panule_m": 30.0, "sst_raspon_C": 1.2, "sst_promjena_3d_C": -0.7, "upwelling": 0.4, "hladnije_C": 0.3, "izgledi": "slabi"}}, {"type": "Feature", "geometry": {"type": "Polygon", "coordinates": [[[18.69, 42.305], [18.66, 42.305], [18.655, 42.3], [18.655, 42.28], [18.67, 42.265], [18.695, 42.27], [18.695, 42.3], [18.69, 42.305]]]}, "properties": {"score_mean": 11.7, "score_max": 19.7, "area_km2": 13.8, "centroid": [18.676, 42.286], "razlog": "termalni front + povoljna dubina", "dubina_panule_m": 26.2, "sst_raspon_C": 0.7, "sst_promjena_3d_C": -0.3, "upwelling": 0.0, "hladnije_C": -0.1, "izgledi": "vrlo slabi"}}, {"type": "Feature", "geometry": {"type": "Polygon", "coordinates": [[[18.73, 42.265], [18.7, 42.265], [18.695, 42.26], [18.695, 42.24], [18.71, 42.225], [18.735, 42.23], [18.735, 42.26], [18.73, 42.265]]]}, "properties": {"score_mean": 10.7, "score_max": 15.1, "area_km2": 13.8, "centroid": [18.716, 42.246], "razlog": "termalni front + povoljna dubina", "dubina_panule_m": 30.0, "sst_raspon_C": 0.8, "sst_promjena_3d_C": -0.2, "upwelling": 0.0, "hladnije_C": -0.1, "izgledi": "vrlo slabi"}}, {"type": "Feature", "geometry": {"type": "Polygon", "coordinates": [[[18.94, 42.015], [18.9, 42.015], [18.875, 41.99], [18.875, 41.96], [18.91, 41.925], [18.94, 41.925], [18.945, 41.93], [18.945, 42.01], [18.94, 42.015]]]}, "properties": {"score_mean": 9.2, "score_max": 24.8, "area_km2": 49.8, "centroid": [18.9141, 41.9717], "razlog": "povoljna dubina + termalni front", "dubina_panule_m": 30.0, "sst_raspon_C": 0.5, "sst_promjena_3d_C": 0.1, "upwelling": 0.0, "hladnije_C": -0.0, "izgledi": "vrlo slabi"}}]}