{"type": "FeatureCollection", "properties": {"vrsta": "trupac", "naziv": "Trupac", "latinski": "Auxis rochei", "datum": "2026-09-14", "profil": null, "panula": {"dubina_m": [0.0, 30.0], "brzina_kn": [4.0, 6.0], "sati": "zora i sumrak", "granica_dubine_m": 50.0}, "vertikala": {"termoklina_m": 21.1, "termoklina_C_po_m": 0.3, "dcm_m": 97.9, "dcm_odnos": 1.0, "dcm_debljina_m": 40.7, "mld_m": 14.8, "sloj_plijena_m": [51.8, 102.9], "dohvatljivost": 0.0, "objasnjenje": "Termoklina na 21 m. Sloj plijena lezi pretezno ispod 50 m, dakle izvan dohvata panule. Najveca gustina hlorofila je na 98 m (sloj debljine 41 m) - tu se skuplja sitna riba koja se hrani planktonom, pa je i najveca vjerovatnoca da su grabljivice tu negdje."}, "bezbjednost": {"nivo": "crveno", "razlog": "talasi do 1.1 m, vjetar 15 cv, udari 20 cv", "izlazak_preporucen": false}, "napomena": "", "razlog_praznog": null}, "features": [{"type": "Feature", "geometry": {"type": "Polygon", "coordinates": [[[19.14, 41.865], [19.04, 41.865], [19.035, 41.84], [19.065, 41.81], [19.07, 41.795], [19.11, 41.795], [19.115, 41.81], [19.13, 41.825], [19.145, 41.83], [19.145, 41.86], [19.14, 41.865]]]}, "properties": {"score_mean": 44.5, "score_max": 51.7, "area_km2": 55.4, "centroid": [19.0908, 41.8357], "razlog": "povoljna dubina + prisustvo mamca", "dubina_panule_m": 9.8, "sst_raspon_C": 0.2, "sst_promjena_3d_C": -0.2, "upwelling": 0.4, "hladnije_C": 0.2, "izgledi": "dobri"}}, {"type": "Feature", "geometry": {"type": "Polygon", "coordinates": [[[18.945, 42.0], [18.92, 42.005], [18.9, 41.985], [18.885, 41.98], [18.885, 41.95], [18.92, 41.905], [18.945, 41.91], [18.945, 42.0]]]}, "properties": {"score_mean": 32.1, "score_max": 42.6, "area_km2": 43.3, "centroid": [18.92, 41.9564], "razlog": "termalni front + povoljna dubina", "dubina_panule_m": 10.1, "sst_raspon_C": 0.8, "sst_promjena_3d_C": -0.5, "upwelling": 0.2, "hladnije_C": 0.1, "izgledi": "osrednji"}}, {"type": "Feature", "geometry": {"type": "Polygon", "coordinates": [[[18.69, 42.305], [18.65, 42.305], [18.645, 42.28], [18.7, 42.215], [18.73, 42.215], [18.735, 42.22], [18.735, 42.26], [18.71, 42.265], [18.7, 42.275], [18.69, 42.305]]]}, "properties": {"score_mean": 13.0, "score_max": 28.5, "area_km2": 44.0, "centroid": [18.6921, 42.2602], "razlog": "povoljna dubina + termalni front", "dubina_panule_m": 30.0, "sst_raspon_C": 0.4, "sst_promjena_3d_C": -0.4, "upwelling": 0.0, "hladnije_C": -0.2, "izgledi": "slabi"}}]}