{"type": "FeatureCollection", "properties": {"vrsta": "trupac", "naziv": "Trupac", "latinski": "Auxis rochei", "datum": "2026-09-01", "profil": null, "panula": {"dubina_m": [0.0, 30.0], "brzina_kn": [4.0, 6.0], "sati": "zora i sumrak", "granica_dubine_m": 50.0}, "vertikala": {"termoklina_m": 14.8, "termoklina_C_po_m": 0.3, "dcm_m": 91.2, "dcm_odnos": 1.0, "dcm_debljina_m": 31.0, "mld_m": 11.9, "sloj_plijena_m": [67.1, 100.5], "dohvatljivost": 0.0, "objasnjenje": "Termoklina na 15 m. Sloj plijena lezi pretezno ispod 50 m, dakle izvan dohvata panule. Najveca gustina hlorofila je na 91 m (sloj debljine 31 m) - tu se skuplja sitna riba koja se hrani planktonom, pa je i najveca vjerovatnoca da su grabljivice tu negdje."}, "bezbjednost": {"nivo": "zuto", "razlog": "vjetar 14 cv", "izlazak_preporucen": true}, "napomena": "", "razlog_praznog": null}, "features": [{"type": "Feature", "geometry": {"type": "Polygon", "coordinates": [[[19.08, 42.015], [19.055, 42.01], [19.055, 42.0], [19.045, 41.99], [19.045, 41.97], [19.07, 41.935], [19.08, 41.935], [19.09, 41.925], [19.11, 41.925], [19.115, 41.95], [19.095, 41.96], [19.105, 41.97], [19.105, 41.99], [19.08, 42.015]]]}, "properties": {"score_mean": 14.8, "score_max": 25.7, "area_km2": 39.6, "centroid": [19.0795, 41.9698], "razlog": "prisustvo mamca + termalni front", "dubina_panule_m": 7.1, "sst_raspon_C": 1.2, "sst_promjena_3d_C": 0.6, "upwelling": 0.7, "hladnije_C": 0.5, "izgledi": "slabi"}}, {"type": "Feature", "geometry": {"type": "Polygon", "coordinates": [[[19.23, 41.885], [19.2, 41.885], [19.195, 41.88], [19.195, 41.85], [19.22, 41.825], [19.23, 41.825], [19.24, 41.815], [19.28, 41.815], [19.285, 41.84], [19.28, 41.845], [19.25, 41.845], [19.235, 41.86], [19.23, 41.885]]]}, "properties": {"score_mean": 13.5, "score_max": 28.3, "area_km2": 34.2, "centroid": [19.2349, 41.8465], "razlog": "termalni front + prisustvo mamca", "dubina_panule_m": 7.1, "sst_raspon_C": 1.5, "sst_promjena_3d_C": 0.5, "upwelling": 0.2, "hladnije_C": 0.8, "izgledi": "slabi"}}]}