{"type": "FeatureCollection", "properties": {"vrsta": "trupac", "naziv": "Trupac", "latinski": "Auxis rochei", "datum": "2026-09-23", "profil": null, "panula": {"dubina_m": [0.0, 30.0], "brzina_kn": [4.0, 6.0], "sati": "zora i sumrak", "granica_dubine_m": 50.0}, "vertikala": {"termoklina_m": 28.0, "termoklina_C_po_m": 0.2, "dcm_m": 97.9, "dcm_odnos": 1.0, "dcm_debljina_m": 39.8, "mld_m": 20.7, "sloj_plijena_m": [61.2, 109.0], "dohvatljivost": 0.0, "objasnjenje": "Termoklina na 28 m. Sloj plijena lezi pretezno ispod 50 m, dakle izvan dohvata panule. Najveca gustina hlorofila je na 98 m (sloj debljine 40 m) - tu se skuplja sitna riba koja se hrani planktonom, pa je i najveca vjerovatnoca da su grabljivice tu negdje."}, "bezbjednost": {"nivo": "crveno", "razlog": "talasi do 1.6 m, vjetar 16 cv, udari 26 cv", "izlazak_preporucen": false}, "napomena": "", "razlog_praznog": null}, "features": [{"type": "Feature", "geometry": {"type": "Polygon", "coordinates": [[[19.09, 41.955], [19.065, 41.95], [19.065, 41.89], [19.07, 41.885], [19.1, 41.885], [19.105, 41.89], [19.105, 41.94], [19.09, 41.955]]]}, "properties": {"score_mean": 57.5, "score_max": 66.7, "area_km2": 24.9, "centroid": [19.0844, 41.9189], "razlog": "povoljna dubina + prisustvo mamca", "dubina_panule_m": 9.3, "sst_raspon_C": 0.5, "sst_promjena_3d_C": 0.3, "upwelling": 0.1, "hladnije_C": 0.1, "izgledi": "dobri"}}, {"type": "Feature", "geometry": {"type": "Polygon", "coordinates": [[[18.92, 42.045], [18.9, 42.045], [18.875, 42.02], [18.875, 41.97], [18.89, 41.945], [18.94, 41.945], [18.945, 41.95], [18.945, 42.03], [18.92, 42.045]]]}, "properties": {"score_mean": 42.7, "score_max": 51.5, "area_km2": 58.0, "centroid": [18.9114, 41.9929], "razlog": "povoljna dubina + prisustvo mamca", "dubina_panule_m": 10.9, "sst_raspon_C": 0.1, "sst_promjena_3d_C": 0.5, "upwelling": 0.0, "hladnije_C": -0.0, "izgledi": "dobri"}}, {"type": "Feature", "geometry": {"type": "Polygon", "coordinates": [[[18.825, 42.08], [18.8, 42.085], [18.785, 42.07], [18.785, 42.05], [18.8, 42.035], [18.825, 42.04], [18.825, 42.08]]]}, "properties": {"score_mean": 39.1, "score_max": 48.2, "area_km2": 16.6, "centroid": [18.8067, 42.06], "razlog": "povoljna dubina + prisustvo mamca", "dubina_panule_m": 14.1, "sst_raspon_C": 0.2, "sst_promjena_3d_C": 0.3, "upwelling": 0.1, "hladnije_C": 0.0, "izgledi": "osrednji"}}]}