{"type": "FeatureCollection", "properties": {"vrsta": "trupac", "naziv": "Trupac", "latinski": "Auxis rochei", "datum": "2026-10-02", "profil": null, "panula": {"dubina_m": [0.0, 30.0], "brzina_kn": [4.0, 6.0], "sati": "zora i sumrak", "granica_dubine_m": 50.0}, "vertikala": {"termoklina_m": 35.8, "termoklina_C_po_m": 0.1, "dcm_m": 97.9, "dcm_odnos": 1.0, "dcm_debljina_m": 40.7, "mld_m": 19.4, "sloj_plijena_m": [67.5, 111.8], "dohvatljivost": 0.0, "objasnjenje": "Termoklina na 36 m. Sloj plijena lezi pretezno ispod 50 m, dakle izvan dohvata panule. Najveca gustina hlorofila je na 98 m (sloj debljine 41 m) - tu se skuplja sitna riba koja se hrani planktonom, pa je i najveca vjerovatnoca da su grabljivice tu negdje."}, "bezbjednost": {"nivo": "zuto", "razlog": "talasi do 1.1 m", "izlazak_preporucen": true}, "napomena": "", "razlog_praznog": null}, "features": [{"type": "Feature", "geometry": {"type": "Polygon", "coordinates": [[[18.73, 42.265], [18.7, 42.265], [18.695, 42.26], [18.695, 42.24], [18.71, 42.225], [18.735, 42.23], [18.735, 42.26], [18.73, 42.265]]]}, "properties": {"score_mean": 34.0, "score_max": 45.3, "area_km2": 13.8, "centroid": [18.716, 42.246], "razlog": "termalni front + povoljna dubina", "dubina_panule_m": 9.4, "sst_raspon_C": 0.8, "sst_promjena_3d_C": 0.0, "upwelling": 0.0, "hladnije_C": -0.2, "izgledi": "osrednji"}}, {"type": "Feature", "geometry": {"type": "Polygon", "coordinates": [[[18.69, 42.305], [18.66, 42.305], [18.655, 42.3], [18.655, 42.28], [18.67, 42.265], [18.695, 42.27], [18.695, 42.3], [18.69, 42.305]]]}, "properties": {"score_mean": 29.5, "score_max": 52.5, "area_km2": 13.8, "centroid": [18.676, 42.286], "razlog": "termalni front + povoljna dubina", "dubina_panule_m": 8.8, "sst_raspon_C": 0.8, "sst_promjena_3d_C": 0.0, "upwelling": 0.0, "hladnije_C": -0.2, "izgledi": "osrednji"}}, {"type": "Feature", "geometry": {"type": "Polygon", "coordinates": [[[18.9, 42.175], [18.87, 42.175], [18.865, 42.17], [18.865, 42.15], [18.88, 42.135], [18.905, 42.14], [18.905, 42.17], [18.9, 42.175]]]}, "properties": {"score_mean": 28.7, "score_max": 51.4, "area_km2": 13.8, "centroid": [18.886, 42.156], "razlog": "termalni front + povoljna dubina", "dubina_panule_m": 9.7, "sst_raspon_C": 0.9, "sst_promjena_3d_C": 0.0, "upwelling": 0.2, "hladnije_C": 0.3, "izgledi": "osrednji"}}, {"type": "Feature", "geometry": {"type": "Polygon", "coordinates": [[[18.86, 42.215], [18.83, 42.215], [18.825, 42.21], [18.825, 42.19], [18.84, 42.175], [18.865, 42.18], [18.865, 42.21], [18.86, 42.215]]]}, "properties": {"score_mean": 26.8, "score_max": 44.5, "area_km2": 13.8, "centroid": [18.846, 42.196], "razlog": "termalni front + povoljna dubina", "dubina_panule_m": 9.9, "sst_raspon_C": 1.2, "sst_promjena_3d_C": 0.0, "upwelling": 0.0, "hladnije_C": 0.5, "izgledi": "osrednji"}}, {"type": "Feature", "geometry": {"type": "Polygon", "coordinates": [[[18.94, 42.135], [18.91, 42.135], [18.905, 42.13], [18.905, 42.11], [18.92, 42.095], [18.945, 42.1], [18.945, 42.13], [18.94, 42.135]]]}, "properties": {"score_mean": 24.4, "score_max": 41.5, "area_km2": 13.8, "centroid": [18.926, 42.116], "razlog": "povoljna dubina + termalni front", "dubina_panule_m": 8.7, "sst_raspon_C": 0.4, "sst_promjena_3d_C": 0.0, "upwelling": 0.0, "hladnije_C": 0.1, "izgledi": "slabi"}}, {"type": "Feature", "geometry": {"type": "Polygon", "coordinates": [[[18.945, 41.98], [18.92, 41.985], [18.905, 41.97], [18.905, 41.94], [18.92, 41.925], [18.945, 41.93], [18.945, 41.98]]]}, "properties": {"score_mean": 2.6, "score_max": 5.1, "area_km2": 20.3, "centroid": [18.9264, 41.955], "razlog": "povoljna dubina + termalni front", "dubina_panule_m": 30.0, "sst_raspon_C": 0.3, "sst_promjena_3d_C": 0.0, "upwelling": 0.3, "hladnije_C": 0.3, "izgledi": "vrlo slabi"}}]}