{"type": "FeatureCollection", "properties": {"vrsta": "trupac", "naziv": "Trupac", "latinski": "Auxis rochei", "datum": "2026-08-26", "profil": null, "panula": {"dubina_m": [0.0, 30.0], "brzina_kn": [4.0, 6.0], "sati": "zora i sumrak", "granica_dubine_m": 50.0}, "vertikala": {"termoklina_m": 11.9, "termoklina_C_po_m": 0.1, "dcm_m": 91.2, "dcm_odnos": 1.0, "dcm_debljina_m": 33.4, "mld_m": 11.9, "sloj_plijena_m": [64.7, 100.5], "dohvatljivost": 0.0, "objasnjenje": "Termoklina na 12 m. Sloj plijena lezi pretezno ispod 50 m, dakle izvan dohvata panule. Najveca gustina hlorofila je na 91 m (sloj debljine 33 m) - tu se skuplja sitna riba koja se hrani planktonom, pa je i najveca vjerovatnoca da su grabljivice tu negdje."}, "bezbjednost": {"nivo": "zuto", "razlog": "talasi do 1.1 m", "izlazak_preporucen": true}, "napomena": "", "razlog_praznog": null}, "features": [{"type": "Feature", "geometry": {"type": "Polygon", "coordinates": [[[19.18, 41.885], [19.14, 41.885], [19.135, 41.86], [19.15, 41.855], [19.17, 41.835], [19.18, 41.835], [19.19, 41.815], [19.22, 41.815], [19.235, 41.84], [19.235, 41.86], [19.21, 41.865], [19.2, 41.845], [19.195, 41.87], [19.18, 41.885]]]}, "properties": {"score_mean": 14.1, "score_max": 23.1, "area_km2": 38.8, "centroid": [19.1867, 41.8521], "razlog": "termalni front + povoljna dubina", "dubina_panule_m": 7.1, "sst_raspon_C": 1.0, "sst_promjena_3d_C": 0.3, "upwelling": 0.0, "hladnije_C": -0.1, "izgledi": "slabi"}}, {"type": "Feature", "geometry": {"type": "Polygon", "coordinates": [[[18.72, 42.255], [18.7, 42.255], [18.675, 42.24], [18.675, 42.22], [18.7, 42.195], [18.73, 42.195], [18.735, 42.2], [18.735, 42.24], [18.72, 42.255]]]}, "properties": {"score_mean": 5.8, "score_max": 24.3, "area_km2": 27.5, "centroid": [18.7077, 42.2247], "razlog": "termalni front + povoljna dubina", "dubina_panule_m": 30.0, "sst_raspon_C": 0.6, "sst_promjena_3d_C": -0.2, "upwelling": 0.2, "hladnije_C": 0.1, "izgledi": "vrlo slabi"}}, {"type": "Feature", "geometry": {"type": "Polygon", "coordinates": [[[18.99, 42.075], [18.94, 42.075], [18.935, 42.05], [18.95, 42.035], [18.97, 42.035], [18.995, 42.05], [18.99, 42.075]]]}, "properties": {"score_mean": 1.5, "score_max": 5.8, "area_km2": 19.3, "centroid": [18.9643, 42.0571], "razlog": "termalni front + povoljna dubina", "dubina_panule_m": 30.0, "sst_raspon_C": 0.6, "sst_promjena_3d_C": 0.3, "upwelling": 0.0, "hladnije_C": -0.2, "izgledi": "vrlo slabi"}}, {"type": "Feature", "geometry": {"type": "Polygon", "coordinates": [[[18.9, 42.145], [18.88, 42.145], [18.865, 42.13], [18.87, 42.105], [18.89, 42.105], [18.905, 42.12], [18.9, 42.145]]]}, "properties": {"score_mean": 0.9, "score_max": 1.0, "area_km2": 12.9, "centroid": [18.885, 42.125], "razlog": "povoljna dubina + termalni front", "dubina_panule_m": 30.0, "sst_raspon_C": 0.3, "sst_promjena_3d_C": -0.1, "upwelling": 0.3, "hladnije_C": 0.1, "izgledi": "vrlo slabi"}}, {"type": "Feature", "geometry": {"type": "Polygon", "coordinates": [[[18.82, 42.055], [18.795, 42.05], [18.795, 42.03], [18.82, 41.995], [18.89, 41.995], [18.915, 42.02], [18.91, 42.045], [18.88, 42.045], [18.87, 42.035], [18.84, 42.035], [18.82, 42.055]]]}, "properties": {"score_mean": 0.8, "score_max": 1.1, "area_km2": 47.9, "centroid": [18.8535, 42.0221], "razlog": "povoljna dubina + termalni front", "dubina_panule_m": 30.0, "sst_raspon_C": 0.4, "sst_promjena_3d_C": -0.1, "upwelling": 0.4, "hladnije_C": 0.2, "izgledi": "vrlo slabi"}}]}