{"type": "FeatureCollection", "properties": {"vrsta": "trupac", "naziv": "Trupac", "latinski": "Auxis rochei", "datum": "2026-08-29", "profil": null, "panula": {"dubina_m": [0.0, 30.0], "brzina_kn": [4.0, 6.0], "sati": "zora i sumrak", "granica_dubine_m": 50.0}, "vertikala": {"termoklina_m": 11.9, "termoklina_C_po_m": 0.2, "dcm_m": 91.2, "dcm_odnos": 1.0, "dcm_debljina_m": 33.7, "mld_m": 11.9, "sloj_plijena_m": [67.1, 100.5], "dohvatljivost": 0.0, "objasnjenje": "Termoklina na 12 m. Sloj plijena lezi pretezno ispod 50 m, dakle izvan dohvata panule. Najveca gustina hlorofila je na 91 m (sloj debljine 34 m) - tu se skuplja sitna riba koja se hrani planktonom, pa je i najveca vjerovatnoca da su grabljivice tu negdje."}, "bezbjednost": {"nivo": "zeleno", "razlog": "uslovi povoljni", "izlazak_preporucen": true}, "napomena": "", "razlog_praznog": null}, "features": [{"type": "Feature", "geometry": {"type": "Polygon", "coordinates": [[[19.25, 41.845], [19.225, 41.84], [19.23, 41.815], [19.255, 41.82], [19.25, 41.845]]]}, "properties": {"score_mean": 39.1, "score_max": 43.8, "area_km2": 8.3, "centroid": [19.24, 41.83], "razlog": "prisustvo mamca + povoljna dubina", "dubina_panule_m": 7.1, "sst_raspon_C": 0.5, "sst_promjena_3d_C": -0.9, "upwelling": 0.3, "hladnije_C": 0.1, "izgledi": "osrednji"}}, {"type": "Feature", "geometry": {"type": "Polygon", "coordinates": [[[19.2, 41.855], [19.175, 41.85], [19.165, 41.8], [19.18, 41.795], [19.21, 41.765], [19.23, 41.765], [19.235, 41.77], [19.235, 41.8], [19.22, 41.815], [19.195, 41.82], [19.205, 41.83], [19.2, 41.855]]]}, "properties": {"score_mean": 14.7, "score_max": 31.5, "area_km2": 34.2, "centroid": [19.1997, 41.807], "razlog": "povoljna dubina + mirno more", "dubina_panule_m": 30.0, "sst_raspon_C": 0.3, "sst_promjena_3d_C": -0.7, "upwelling": 0.0, "hladnije_C": -0.1, "izgledi": "slabi"}}, {"type": "Feature", "geometry": {"type": "Polygon", "coordinates": [[[19.06, 41.955], [19.03, 41.955], [19.025, 41.93], [19.03, 41.925], [19.06, 41.925], [19.065, 41.93], [19.06, 41.955]]]}, "properties": {"score_mean": 11.0, "score_max": 36.6, "area_km2": 11.1, "centroid": [19.045, 41.94], "razlog": "povoljna dubina + mirno more", "dubina_panule_m": 30.0, "sst_raspon_C": 0.4, "sst_promjena_3d_C": -0.5, "upwelling": 0.0, "hladnije_C": -0.1, "izgledi": "vrlo slabi"}}, {"type": "Feature", "geometry": {"type": "Polygon", "coordinates": [[[19.1, 41.915], [19.075, 41.91], [19.075, 41.88], [19.1, 41.865], [19.11, 41.845], [19.13, 41.845], [19.135, 41.85], [19.135, 41.88], [19.12, 41.895], [19.11, 41.895], [19.1, 41.915]]]}, "properties": {"score_mean": 9.3, "score_max": 36.3, "area_km2": 24.9, "centroid": [19.1056, 41.8804], "razlog": "povoljna dubina + mirno more", "dubina_panule_m": 30.0, "sst_raspon_C": 0.3, "sst_promjena_3d_C": -0.6, "upwelling": 0.0, "hladnije_C": -0.0, "izgledi": "vrlo slabi"}}, {"type": "Feature", "geometry": {"type": "Polygon", "coordinates": [[[18.88, 42.005], [18.85, 42.005], [18.835, 41.99], [18.835, 41.95], [18.84, 41.945], [18.9, 41.945], [18.905, 41.95], [18.905, 41.98], [18.88, 42.005]]]}, "properties": {"score_mean": 1.5, "score_max": 1.6, "area_km2": 35.0, "centroid": [18.8687, 41.9726], "razlog": "povoljna dubina + mirno more", "dubina_panule_m": 30.0, "sst_raspon_C": 0.4, "sst_promjena_3d_C": -0.6, "upwelling": 0.4, "hladnije_C": 0.2, "izgledi": "vrlo slabi"}}]}