{"type": "FeatureCollection", "properties": {"vrsta": "trupac", "naziv": "Trupac", "latinski": "Auxis rochei", "datum": "2026-10-11", "profil": null, "panula": {"dubina_m": [0.0, 30.0], "brzina_kn": [4.0, 6.0], "sati": "zora i sumrak", "granica_dubine_m": 50.0}, "vertikala": {"termoklina_m": 35.8, "termoklina_C_po_m": 0.1, "dcm_m": 78.6, "dcm_odnos": 1.0, "dcm_debljina_m": 44.5, "mld_m": 23.0, "sloj_plijena_m": [45.6, 92.1], "dohvatljivost": 0.1, "objasnjenje": "Termoklina na 36 m. Sloj plijena lezi pretezno ispod 50 m, dakle izvan dohvata panule. Najveca gustina hlorofila je na 79 m (sloj debljine 44 m) - tu se skuplja sitna riba koja se hrani planktonom, pa je i najveca vjerovatnoca da su grabljivice tu negdje."}, "bezbjednost": {"nivo": "crveno", "razlog": "talasi do 1.8 m, vjetar 18 cv, udari 24 cv", "izlazak_preporucen": false}, "napomena": "", "razlog_praznog": null}, "features": [{"type": "Feature", "geometry": {"type": "Polygon", "coordinates": [[[19.06, 42.005], [19.035, 42.0], [19.035, 41.97], [19.04, 41.965], [19.065, 41.97], [19.065, 42.0], [19.06, 42.005]]]}, "properties": {"score_mean": 40.2, "score_max": 43.5, "area_km2": 11.1, "centroid": [19.05, 41.985], "razlog": "povoljna dubina + prisustvo mamca", "dubina_panule_m": 15.9, "sst_raspon_C": 0.4, "sst_promjena_3d_C": 0.0, "upwelling": 0.5, "hladnije_C": 0.4, "izgledi": "dobri"}}, {"type": "Feature", "geometry": {"type": "Polygon", "coordinates": [[[18.93, 42.105], [18.905, 42.1], [18.905, 42.08], [18.92, 42.065], [18.945, 42.07], [18.945, 42.09], [18.93, 42.105]]]}, "properties": {"score_mean": 33.5, "score_max": 37.4, "area_km2": 12.9, "centroid": [18.925, 42.085], "razlog": "povoljna dubina + prisustvo mamca", "dubina_panule_m": 15.0, "sst_raspon_C": 0.3, "sst_promjena_3d_C": 0.0, "upwelling": 0.0, "hladnije_C": -0.0, "izgledi": "osrednji"}}, {"type": "Feature", "geometry": {"type": "Polygon", "coordinates": [[[18.86, 42.175], [18.835, 42.17], [18.835, 42.15], [18.87, 42.115], [18.89, 42.115], [18.895, 42.14], [18.86, 42.175]]]}, "properties": {"score_mean": 31.1, "score_max": 36.8, "area_km2": 22.1, "centroid": [18.865, 42.145], "razlog": "povoljna dubina + termalni front", "dubina_panule_m": 13.7, "sst_raspon_C": 0.4, "sst_promjena_3d_C": 0.1, "upwelling": 0.0, "hladnije_C": -0.0, "izgledi": "osrednji"}}, {"type": "Feature", "geometry": {"type": "Polygon", "coordinates": [[[18.72, 42.265], [18.695, 42.26], [18.7, 42.235], [18.725, 42.24], [18.72, 42.265]]]}, "properties": {"score_mean": 30.7, "score_max": 38.2, "area_km2": 8.3, "centroid": [18.71, 42.25], "razlog": "termalni front + povoljna dubina", "dubina_panule_m": 9.1, "sst_raspon_C": 0.6, "sst_promjena_3d_C": -0.2, "upwelling": 0.0, "hladnije_C": -0.1, "izgledi": "osrednji"}}, {"type": "Feature", "geometry": {"type": "Polygon", "coordinates": [[[18.67, 41.785], [18.64, 41.785], [18.635, 41.76], [18.66, 41.725], [18.69, 41.725], [18.695, 41.73], [18.695, 41.76], [18.67, 41.785]]]}, "properties": {"score_mean": 3.2, "score_max": 4.8, "area_km2": 26.8, "centroid": [18.6659, 41.7552], "razlog": "povoljna dubina + zora/sumrak", "dubina_panule_m": 30.0, "sst_raspon_C": 0.3, "sst_promjena_3d_C": -0.0, "upwelling": 0.1, "hladnije_C": 0.1, "izgledi": "vrlo slabi"}}]}