{"type": "FeatureCollection", "properties": {"vrsta": "trupac", "naziv": "Trupac", "latinski": "Auxis rochei", "datum": "2026-10-01", "profil": null, "panula": {"dubina_m": [0.0, 30.0], "brzina_kn": [4.0, 6.0], "sati": "zora i sumrak", "granica_dubine_m": 50.0}, "vertikala": {"termoklina_m": 31.8, "termoklina_C_po_m": 0.1, "dcm_m": 91.2, "dcm_odnos": 1.0, "dcm_debljina_m": 39.8, "mld_m": 22.3, "sloj_plijena_m": [64.7, 111.8], "dohvatljivost": 0.0, "objasnjenje": "Termoklina na 32 m. Sloj plijena lezi pretezno ispod 50 m, dakle izvan dohvata panule. Najveca gustina hlorofila je na 91 m (sloj debljine 40 m) - tu se skuplja sitna riba koja se hrani planktonom, pa je i najveca vjerovatnoca da su grabljivice tu negdje."}, "bezbjednost": {"nivo": "zuto", "razlog": "vjetar 12 cv", "izlazak_preporucen": true}, "napomena": "", "razlog_praznog": null}, "features": [{"type": "Feature", "geometry": {"type": "Polygon", "coordinates": [[[18.69, 42.305], [18.665, 42.3], [18.67, 42.275], [18.695, 42.28], [18.69, 42.305]]]}, "properties": {"score_mean": 48.0, "score_max": 49.1, "area_km2": 8.3, "centroid": [18.68, 42.29], "razlog": "termalni front + povoljna dubina", "dubina_panule_m": 11.3, "sst_raspon_C": 0.6, "sst_promjena_3d_C": -1.0, "upwelling": 0.0, "hladnije_C": -0.1, "izgledi": "dobri"}}, {"type": "Feature", "geometry": {"type": "Polygon", "coordinates": [[[18.73, 42.265], [18.7, 42.265], [18.695, 42.26], [18.695, 42.24], [18.71, 42.225], [18.735, 42.23], [18.735, 42.26], [18.73, 42.265]]]}, "properties": {"score_mean": 38.5, "score_max": 50.9, "area_km2": 13.8, "centroid": [18.716, 42.246], "razlog": "termalni front + povoljna dubina", "dubina_panule_m": 10.9, "sst_raspon_C": 0.8, "sst_promjena_3d_C": -0.7, "upwelling": 0.0, "hladnije_C": -0.1, "izgledi": "osrednji"}}, {"type": "Feature", "geometry": {"type": "Polygon", "coordinates": [[[18.9, 42.175], [18.87, 42.175], [18.865, 42.17], [18.865, 42.14], [18.87, 42.135], [18.9, 42.135], [18.905, 42.14], [18.905, 42.17], [18.9, 42.175]]]}, "properties": {"score_mean": 30.8, "score_max": 54.8, "area_km2": 14.7, "centroid": [18.885, 42.155], "razlog": "termalni front + povoljna dubina", "dubina_panule_m": 12.2, "sst_raspon_C": 1.1, "sst_promjena_3d_C": -0.2, "upwelling": 0.0, "hladnije_C": -0.1, "izgledi": "osrednji"}}, {"type": "Feature", "geometry": {"type": "Polygon", "coordinates": [[[18.86, 42.215], [18.83, 42.215], [18.825, 42.21], [18.825, 42.18], [18.83, 42.175], [18.86, 42.175], [18.865, 42.18], [18.865, 42.21], [18.86, 42.215]]]}, "properties": {"score_mean": 28.8, "score_max": 50.2, "area_km2": 14.7, "centroid": [18.845, 42.195], "razlog": "termalni front + povoljna dubina", "dubina_panule_m": 11.5, "sst_raspon_C": 0.9, "sst_promjena_3d_C": -0.1, "upwelling": 0.0, "hladnije_C": -0.1, "izgledi": "osrednji"}}, {"type": "Feature", "geometry": {"type": "Polygon", "coordinates": [[[18.94, 42.135], [18.91, 42.135], [18.905, 42.13], [18.905, 42.1], [18.91, 42.095], [18.94, 42.095], [18.945, 42.1], [18.945, 42.13], [18.94, 42.135]]]}, "properties": {"score_mean": 25.6, "score_max": 45.9, "area_km2": 14.7, "centroid": [18.925, 42.115], "razlog": "termalni front + povoljna dubina", "dubina_panule_m": 12.1, "sst_raspon_C": 1.0, "sst_promjena_3d_C": -1.1, "upwelling": 0.7, "hladnije_C": 0.5, "izgledi": "osrednji"}}, {"type": "Feature", "geometry": {"type": "Polygon", "coordinates": [[[18.94, 42.015], [18.9, 42.015], [18.895, 42.01], [18.895, 41.99], [18.91, 41.965], [18.94, 41.965], [18.945, 41.97], [18.945, 42.01], [18.94, 42.015]]]}, "properties": {"score_mean": 15.1, "score_max": 17.7, "area_km2": 21.2, "centroid": [18.9217, 41.9913], "razlog": "termalni front + povoljna dubina", "dubina_panule_m": 30.0, "sst_raspon_C": 0.7, "sst_promjena_3d_C": 0.4, "upwelling": 0.0, "hladnije_C": -0.3, "izgledi": "slabi"}}]}