{"type": "FeatureCollection", "properties": {"vrsta": "trupac", "naziv": "Trupac", "latinski": "Auxis rochei", "datum": "2026-09-24", "profil": null, "panula": {"dubina_m": [0.0, 30.0], "brzina_kn": [4.0, 6.0], "sati": "zora i sumrak", "granica_dubine_m": 50.0}, "vertikala": {"termoklina_m": 28.0, "termoklina_C_po_m": 0.2, "dcm_m": 97.9, "dcm_odnos": 1.0, "dcm_debljina_m": 43.0, "mld_m": 19.2, "sloj_plijena_m": [61.2, 107.6], "dohvatljivost": 0.0, "objasnjenje": "Termoklina na 28 m. Sloj plijena lezi pretezno ispod 50 m, dakle izvan dohvata panule. Najveca gustina hlorofila je na 98 m (sloj debljine 43 m) - tu se skuplja sitna riba koja se hrani planktonom, pa je i najveca vjerovatnoca da su grabljivice tu negdje."}, "bezbjednost": {"nivo": "crveno", "razlog": "vjetar 23 cv, udari 31 cv", "izlazak_preporucen": false}, "napomena": "", "razlog_praznog": null}, "features": [{"type": "Feature", "geometry": {"type": "Polygon", "coordinates": [[[19.09, 41.975], [19.07, 41.975], [19.045, 41.95], [19.045, 41.93], [19.07, 41.905], [19.1, 41.905], [19.105, 41.91], [19.105, 41.95], [19.09, 41.975]]]}, "properties": {"score_mean": 68.6, "score_max": 75.7, "area_km2": 31.3, "centroid": [19.0774, 41.9385], "razlog": "termalni front + povoljna dubina", "dubina_panule_m": 8.4, "sst_raspon_C": 0.8, "sst_promjena_3d_C": 0.0, "upwelling": 0.2, "hladnije_C": 0.2, "izgledi": "vrlo dobri"}}, {"type": "Feature", "geometry": {"type": "Polygon", "coordinates": [[[18.94, 42.035], [18.9, 42.035], [18.885, 42.02], [18.885, 41.99], [18.89, 41.985], [18.94, 41.985], [18.945, 41.99], [18.945, 42.03], [18.94, 42.035]]]}, "properties": {"score_mean": 50.7, "score_max": 55.5, "area_km2": 26.7, "centroid": [18.9159, 42.0093], "razlog": "povoljna dubina + prisustvo mamca", "dubina_panule_m": 9.2, "sst_raspon_C": 0.2, "sst_promjena_3d_C": 0.0, "upwelling": 0.0, "hladnije_C": -0.0, "izgledi": "dobri"}}, {"type": "Feature", "geometry": {"type": "Polygon", "coordinates": [[[18.8, 42.055], [18.77, 42.055], [18.765, 42.05], [18.765, 42.03], [18.78, 42.015], [18.81, 42.015], [18.815, 42.02], [18.815, 42.04], [18.8, 42.055]]]}, "properties": {"score_mean": 47.5, "score_max": 63.5, "area_km2": 16.6, "centroid": [18.79, 42.035], "razlog": "povoljna dubina + termalni front", "dubina_panule_m": 14.0, "sst_raspon_C": 0.4, "sst_promjena_3d_C": 0.0, "upwelling": 0.3, "hladnije_C": 0.2, "izgledi": "dobri"}}]}