{"type": "FeatureCollection", "properties": {"vrsta": "trupac", "naziv": "Trupac", "latinski": "Auxis rochei", "datum": "2026-10-04", "profil": null, "panula": {"dubina_m": [0.0, 30.0], "brzina_kn": [4.0, 6.0], "sati": "zora i sumrak", "granica_dubine_m": 50.0}, "vertikala": {"termoklina_m": 44.4, "termoklina_C_po_m": 0.1, "dcm_m": 97.9, "dcm_odnos": 1.0, "dcm_debljina_m": 39.6, "mld_m": 19.7, "sloj_plijena_m": [70.0, 111.8], "dohvatljivost": 0.0, "objasnjenje": "Termoklina na 44 m. Sloj plijena lezi pretezno ispod 50 m, dakle izvan dohvata panule. Najveca gustina hlorofila je na 98 m (sloj debljine 40 m) - tu se skuplja sitna riba koja se hrani planktonom, pa je i najveca vjerovatnoca da su grabljivice tu negdje."}, "bezbjednost": {"nivo": "zuto", "razlog": "vjetar 12 cv", "izlazak_preporucen": true}, "napomena": "", "razlog_praznog": null}, "features": [{"type": "Feature", "geometry": {"type": "Polygon", "coordinates": [[[19.04, 42.045], [19.015, 42.04], [19.015, 42.01], [19.03, 41.995], [19.055, 42.0], [19.055, 42.03], [19.04, 42.045]]]}, "properties": {"score_mean": 45.7, "score_max": 50.8, "area_km2": 16.6, "centroid": [19.035, 42.02], "razlog": "termalni front + povoljna dubina", "dubina_panule_m": 10.1, "sst_raspon_C": 0.7, "sst_promjena_3d_C": 0.0, "upwelling": 0.0, "hladnije_C": -0.2, "izgledi": "dobri"}}, {"type": "Feature", "geometry": {"type": "Polygon", "coordinates": [[[18.73, 42.265], [18.7, 42.265], [18.695, 42.26], [18.695, 42.23], [18.7, 42.225], [18.73, 42.225], [18.735, 42.23], [18.735, 42.26], [18.73, 42.265]]]}, "properties": {"score_mean": 37.5, "score_max": 51.1, "area_km2": 14.7, "centroid": [18.715, 42.245], "razlog": "termalni front + povoljna dubina", "dubina_panule_m": 9.5, "sst_raspon_C": 0.6, "sst_promjena_3d_C": 0.0, "upwelling": 0.0, "hladnije_C": 0.1, "izgledi": "osrednji"}}, {"type": "Feature", "geometry": {"type": "Polygon", "coordinates": [[[18.69, 42.305], [18.66, 42.305], [18.655, 42.3], [18.655, 42.28], [18.67, 42.265], [18.695, 42.27], [18.695, 42.3], [18.69, 42.305]]]}, "properties": {"score_mean": 30.6, "score_max": 51.8, "area_km2": 13.8, "centroid": [18.676, 42.286], "razlog": "povoljna dubina + termalni front", "dubina_panule_m": 9.4, "sst_raspon_C": 0.4, "sst_promjena_3d_C": 0.0, "upwelling": 0.0, "hladnije_C": 0.0, "izgledi": "osrednji"}}, {"type": "Feature", "geometry": {"type": "Polygon", "coordinates": [[[18.86, 42.215], [18.82, 42.215], [18.815, 42.19], [18.84, 42.165], [18.85, 42.165], [18.855, 42.15], [18.88, 42.125], [18.89, 42.125], [18.895, 42.11], [18.92, 42.085], [18.94, 42.085], [18.945, 42.09], [18.945, 42.13], [18.94, 42.135], [18.91, 42.135], [18.905, 42.14], [18.905, 42.17], [18.9, 42.175], [18.87, 42.175], [18.86, 42.215]]]}, "properties": {"score_mean": 23.4, "score_max": 55.9, "area_km2": 58.8, "centroid": [18.8823, 42.1523], "razlog": "termalni front + povoljna dubina", "dubina_panule_m": 9.9, "sst_raspon_C": 1.4, "sst_promjena_3d_C": 0.0, "upwelling": 0.0, "hladnije_C": -0.3, "izgledi": "slabi"}}, {"type": "Feature", "geometry": {"type": "Polygon", "coordinates": [[[18.81, 41.895], [18.785, 41.89], [18.79, 41.865], [18.81, 41.865], [18.85, 41.835], [18.875, 41.84], [18.875, 41.87], [18.87, 41.875], [18.86, 41.875], [18.85, 41.885], [18.82, 41.885], [18.81, 41.895]]]}, "properties": {"score_mean": 2.2, "score_max": 2.5, "area_km2": 29.5, "centroid": [18.8338, 41.8669], "razlog": "termalni front + povoljna dubina", "dubina_panule_m": 30.0, "sst_raspon_C": 0.7, "sst_promjena_3d_C": 0.0, "upwelling": 0.0, "hladnije_C": -0.3, "izgledi": "vrlo slabi"}}]}