{"type": "FeatureCollection", "properties": {"vrsta": "trupac", "naziv": "Trupac", "latinski": "Auxis rochei", "datum": "2026-09-15", "profil": null, "panula": {"dubina_m": [0.0, 30.0], "brzina_kn": [4.0, 6.0], "sati": "zora i sumrak", "granica_dubine_m": 50.0}, "vertikala": {"termoklina_m": 24.5, "termoklina_C_po_m": 0.3, "dcm_m": 97.9, "dcm_odnos": 1.0, "dcm_debljina_m": 39.8, "mld_m": 15.8, "sloj_plijena_m": [54.2, 102.9], "dohvatljivost": 0.0, "objasnjenje": "Termoklina na 24 m. Sloj plijena lezi pretezno ispod 50 m, dakle izvan dohvata panule. Najveca gustina hlorofila je na 98 m (sloj debljine 40 m) - tu se skuplja sitna riba koja se hrani planktonom, pa je i najveca vjerovatnoca da su grabljivice tu negdje."}, "bezbjednost": {"nivo": "crveno", "razlog": "vjetar 15 cv, udari 20 cv", "izlazak_preporucen": false}, "napomena": "", "razlog_praznog": null}, "features": [{"type": "Feature", "geometry": {"type": "Polygon", "coordinates": [[[19.09, 41.895], [19.065, 41.89], [19.065, 41.87], [19.055, 41.86], [19.055, 41.83], [19.07, 41.805], [19.095, 41.81], [19.095, 41.84], [19.105, 41.85], [19.105, 41.88], [19.09, 41.895]]]}, "properties": {"score_mean": 49.3, "score_max": 53.2, "area_km2": 32.3, "centroid": [19.08, 41.8511], "razlog": "prisustvo mamca + povoljna dubina", "dubina_panule_m": 10.0, "sst_raspon_C": 0.2, "sst_promjena_3d_C": -1.0, "upwelling": 0.4, "hladnije_C": 0.2, "izgledi": "dobri"}}, {"type": "Feature", "geometry": {"type": "Polygon", "coordinates": [[[18.945, 42.0], [18.92, 42.005], [18.91, 41.985], [18.88, 41.985], [18.875, 41.98], [18.875, 41.96], [18.92, 41.925], [18.945, 41.93], [18.945, 42.0]]]}, "properties": {"score_mean": 30.2, "score_max": 47.5, "area_km2": 36.9, "centroid": [18.9168, 41.9647], "razlog": "termalni front + povoljna dubina", "dubina_panule_m": 10.8, "sst_raspon_C": 0.8, "sst_promjena_3d_C": -0.7, "upwelling": 0.2, "hladnije_C": 0.1, "izgledi": "osrednji"}}, {"type": "Feature", "geometry": {"type": "Polygon", "coordinates": [[[18.69, 42.305], [18.65, 42.305], [18.645, 42.28], [18.67, 42.255], [18.685, 42.25], [18.7, 42.215], [18.73, 42.215], [18.735, 42.22], [18.735, 42.26], [18.695, 42.27], [18.695, 42.3], [18.69, 42.305]]]}, "properties": {"score_mean": 14.1, "score_max": 30.5, "area_km2": 40.4, "centroid": [18.6925, 42.2614], "razlog": "povoljna dubina + termalni front", "dubina_panule_m": 30.0, "sst_raspon_C": 0.4, "sst_promjena_3d_C": -0.3, "upwelling": 0.0, "hladnije_C": -0.2, "izgledi": "slabi"}}]}