{"type": "FeatureCollection", "properties": {"vrsta": "trupac", "naziv": "Trupac", "latinski": "Auxis rochei", "datum": "2026-10-05", "profil": null, "panula": {"dubina_m": [0.0, 30.0], "brzina_kn": [4.0, 6.0], "sati": "zora i sumrak", "granica_dubine_m": 50.0}, "vertikala": {"termoklina_m": 35.8, "termoklina_C_po_m": 0.1, "dcm_m": 97.9, "dcm_odnos": 1.0, "dcm_debljina_m": 39.8, "mld_m": 18.0, "sloj_plijena_m": [69.2, 110.2], "dohvatljivost": 0.0, "objasnjenje": "Termoklina na 36 m. Sloj plijena lezi pretezno ispod 50 m, dakle izvan dohvata panule. Najveca gustina hlorofila je na 98 m (sloj debljine 40 m) - tu se skuplja sitna riba koja se hrani planktonom, pa je i najveca vjerovatnoca da su grabljivice tu negdje."}, "bezbjednost": {"nivo": "zeleno", "razlog": "uslovi povoljni", "izlazak_preporucen": true}, "napomena": "", "razlog_praznog": null}, "features": [{"type": "Feature", "geometry": {"type": "Polygon", "coordinates": [[[18.9, 42.175], [18.875, 42.17], [18.88, 42.145], [18.905, 42.15], [18.9, 42.175]]]}, "properties": {"score_mean": 54.0, "score_max": 54.5, "area_km2": 8.3, "centroid": [18.89, 42.16], "razlog": "termalni front + povoljna dubina", "dubina_panule_m": 10.9, "sst_raspon_C": 0.9, "sst_promjena_3d_C": -0.9, "upwelling": 0.0, "hladnije_C": 0.0, "izgledi": "dobri"}}, {"type": "Feature", "geometry": {"type": "Polygon", "coordinates": [[[18.86, 42.215], [18.835, 42.21], [18.84, 42.185], [18.865, 42.19], [18.86, 42.215]]]}, "properties": {"score_mean": 51.5, "score_max": 52.1, "area_km2": 8.3, "centroid": [18.85, 42.2], "razlog": "termalni front + povoljna dubina", "dubina_panule_m": 11.1, "sst_raspon_C": 0.9, "sst_promjena_3d_C": -0.8, "upwelling": 0.0, "hladnije_C": -0.0, "izgledi": "dobri"}}, {"type": "Feature", "geometry": {"type": "Polygon", "coordinates": [[[18.94, 42.135], [18.915, 42.13], [18.915, 42.1], [18.92, 42.095], [18.945, 42.1], [18.945, 42.13], [18.94, 42.135]]]}, "properties": {"score_mean": 42.0, "score_max": 56.9, "area_km2": 11.0, "centroid": [18.93, 42.115], "razlog": "termalni front + povoljna dubina", "dubina_panule_m": 10.1, "sst_raspon_C": 0.9, "sst_promjena_3d_C": -0.5, "upwelling": 0.0, "hladnije_C": -0.1, "izgledi": "dobri"}}, {"type": "Feature", "geometry": {"type": "Polygon", "coordinates": [[[18.73, 42.265], [18.7, 42.265], [18.695, 42.26], [18.695, 42.23], [18.7, 42.225], [18.73, 42.225], [18.735, 42.23], [18.735, 42.26], [18.73, 42.265]]]}, "properties": {"score_mean": 36.7, "score_max": 49.8, "area_km2": 14.7, "centroid": [18.715, 42.245], "razlog": "povoljna dubina + mirno more", "dubina_panule_m": 9.6, "sst_raspon_C": 0.4, "sst_promjena_3d_C": 0.1, "upwelling": 0.0, "hladnije_C": -0.0, "izgledi": "osrednji"}}, {"type": "Feature", "geometry": {"type": "Polygon", "coordinates": [[[18.69, 42.305], [18.66, 42.305], [18.655, 42.3], [18.655, 42.28], [18.67, 42.265], [18.695, 42.27], [18.695, 42.3], [18.69, 42.305]]]}, "properties": {"score_mean": 31.8, "score_max": 53.1, "area_km2": 13.8, "centroid": [18.676, 42.286], "razlog": "povoljna dubina + mirno more", "dubina_panule_m": 10.1, "sst_raspon_C": 0.4, "sst_promjena_3d_C": -0.0, "upwelling": 0.0, "hladnije_C": 0.0, "izgledi": "osrednji"}}, {"type": "Feature", "geometry": {"type": "Polygon", "coordinates": [[[18.94, 41.955], [18.915, 41.95], [18.915, 41.9], [18.92, 41.895], [18.945, 41.9], [18.945, 41.95], [18.94, 41.955]]]}, "properties": {"score_mean": 2.2, "score_max": 2.6, "area_km2": 16.6, "centroid": [18.93, 41.925], "razlog": "povoljna dubina + termalni front", "dubina_panule_m": 30.0, "sst_raspon_C": 0.4, "sst_promjena_3d_C": -0.1, "upwelling": 0.0, "hladnije_C": -0.3, "izgledi": "vrlo slabi"}}]}