{"type": "FeatureCollection", "properties": {"vrsta": "trupac", "naziv": "Trupac", "latinski": "Auxis rochei", "datum": "2026-08-27", "profil": null, "panula": {"dubina_m": [0.0, 30.0], "brzina_kn": [4.0, 6.0], "sati": "zora i sumrak", "granica_dubine_m": 50.0}, "vertikala": {"termoklina_m": 11.9, "termoklina_C_po_m": 0.1, "dcm_m": 91.2, "dcm_odnos": 1.0, "dcm_debljina_m": 32.3, "mld_m": 11.9, "sloj_plijena_m": [64.7, 100.5], "dohvatljivost": 0.0, "objasnjenje": "Termoklina na 12 m. Sloj plijena lezi pretezno ispod 50 m, dakle izvan dohvata panule. Najveca gustina hlorofila je na 91 m (sloj debljine 32 m) - tu se skuplja sitna riba koja se hrani planktonom, pa je i najveca vjerovatnoca da su grabljivice tu negdje."}, "bezbjednost": {"nivo": "crveno", "razlog": "vjetar 16 cv, udari 21 cv", "izlazak_preporucen": false}, "napomena": "", "razlog_praznog": null}, "features": [{"type": "Feature", "geometry": {"type": "Polygon", "coordinates": [[[18.86, 42.215], [18.835, 42.21], [18.84, 42.185], [18.865, 42.19], [18.86, 42.215]]]}, "properties": {"score_mean": 34.3, "score_max": 35.5, "area_km2": 8.3, "centroid": [18.85, 42.2], "razlog": "prisustvo mamca + termalni front", "dubina_panule_m": 7.1, "sst_raspon_C": 0.7, "sst_promjena_3d_C": -0.3, "upwelling": 0.5, "hladnije_C": 0.3, "izgledi": "osrednji"}}, {"type": "Feature", "geometry": {"type": "Polygon", "coordinates": [[[18.9, 42.175], [18.875, 42.17], [18.88, 42.145], [18.905, 42.15], [18.9, 42.175]]]}, "properties": {"score_mean": 31.5, "score_max": 36.9, "area_km2": 8.3, "centroid": [18.89, 42.16], "razlog": "prisustvo mamca + termalni front", "dubina_panule_m": 7.1, "sst_raspon_C": 0.8, "sst_promjena_3d_C": -0.1, "upwelling": 0.3, "hladnije_C": 0.3, "izgledi": "osrednji"}}, {"type": "Feature", "geometry": {"type": "Polygon", "coordinates": [[[19.22, 41.875], [19.19, 41.875], [19.185, 41.85], [19.21, 41.825], [19.22, 41.825], [19.23, 41.815], [19.26, 41.815], [19.265, 41.84], [19.25, 41.845], [19.22, 41.875]]]}, "properties": {"score_mean": 27.0, "score_max": 34.3, "area_km2": 29.5, "centroid": [19.2238, 41.8444], "razlog": "termalni front + povoljna dubina", "dubina_panule_m": 7.1, "sst_raspon_C": 0.7, "sst_promjena_3d_C": -0.5, "upwelling": 0.0, "hladnije_C": 0.2, "izgledi": "osrednji"}}, {"type": "Feature", "geometry": {"type": "Polygon", "coordinates": [[[19.09, 42.015], [19.06, 42.015], [19.055, 42.01], [19.055, 41.98], [19.08, 41.945], [19.105, 41.95], [19.105, 42.0], [19.09, 42.015]]]}, "properties": {"score_mean": 26.5, "score_max": 32.7, "area_km2": 27.6, "centroid": [19.0817, 41.982], "razlog": "prisustvo mamca + povoljna dubina", "dubina_panule_m": 7.1, "sst_raspon_C": 0.5, "sst_promjena_3d_C": -0.2, "upwelling": 0.3, "hladnije_C": 0.1, "izgledi": "osrednji"}}, {"type": "Feature", "geometry": {"type": "Polygon", "coordinates": [[[19.02, 42.095], [18.995, 42.09], [19.0, 42.065], [19.025, 42.07], [19.02, 42.095]]]}, "properties": {"score_mean": 22.5, "score_max": 29.4, "area_km2": 8.3, "centroid": [19.01, 42.08], "razlog": "termalni front + prisustvo mamca", "dubina_panule_m": 7.1, "sst_raspon_C": 1.0, "sst_promjena_3d_C": 0.3, "upwelling": 0.1, "hladnije_C": 0.0, "izgledi": "slabi"}}, {"type": "Feature", "geometry": {"type": "Polygon", "coordinates": [[[18.69, 42.305], [18.665, 42.3], [18.665, 42.27], [18.67, 42.265], [18.695, 42.27], [18.695, 42.3], [18.69, 42.305]]]}, "properties": {"score_mean": 21.1, "score_max": 29.5, "area_km2": 11.0, "centroid": [18.68, 42.285], "razlog": "termalni front + povoljna dubina", "dubina_panule_m": 7.1, "sst_raspon_C": 0.5, "sst_promjena_3d_C": -0.1, "upwelling": 0.0, "hladnije_C": 0.2, "izgledi": "slabi"}}]}