{"type": "FeatureCollection", "properties": {"vrsta": "trupac", "naziv": "Trupac", "latinski": "Auxis rochei", "datum": "2026-10-03", "profil": null, "panula": {"dubina_m": [0.0, 30.0], "brzina_kn": [4.0, 6.0], "sati": "zora i sumrak", "granica_dubine_m": 50.0}, "vertikala": {"termoklina_m": 35.8, "termoklina_C_po_m": 0.1, "dcm_m": 97.9, "dcm_odnos": 1.0, "dcm_debljina_m": 41.6, "mld_m": 26.6, "sloj_plijena_m": [67.4, 112.8], "dohvatljivost": 0.0, "objasnjenje": "Termoklina na 36 m. Sloj plijena lezi pretezno ispod 50 m, dakle izvan dohvata panule. Najveca gustina hlorofila je na 98 m (sloj debljine 42 m) - tu se skuplja sitna riba koja se hrani planktonom, pa je i najveca vjerovatnoca da su grabljivice tu negdje."}, "bezbjednost": {"nivo": "zuto", "razlog": "talasi do 1.3 m", "izlazak_preporucen": true}, "napomena": "", "razlog_praznog": null}, "features": [{"type": "Feature", "geometry": {"type": "Polygon", "coordinates": [[[19.07, 42.015], [19.045, 42.01], [19.045, 41.97], [19.05, 41.965], [19.075, 41.97], [19.075, 42.01], [19.07, 42.015]]]}, "properties": {"score_mean": 41.1, "score_max": 43.8, "area_km2": 13.8, "centroid": [19.06, 41.99], "razlog": "povoljna dubina + termalni front", "dubina_panule_m": 14.2, "sst_raspon_C": 0.4, "sst_promjena_3d_C": 0.0, "upwelling": 0.0, "hladnije_C": -0.1, "izgledi": "dobri"}}, {"type": "Feature", "geometry": {"type": "Polygon", "coordinates": [[[18.69, 42.305], [18.665, 42.3], [18.665, 42.27], [18.67, 42.265], [18.695, 42.27], [18.695, 42.3], [18.69, 42.305]]]}, "properties": {"score_mean": 34.7, "score_max": 47.4, "area_km2": 11.0, "centroid": [18.68, 42.285], "razlog": "termalni front + povoljna dubina", "dubina_panule_m": 12.5, "sst_raspon_C": 0.6, "sst_promjena_3d_C": 0.0, "upwelling": 0.0, "hladnije_C": -0.1, "izgledi": "osrednji"}}, {"type": "Feature", "geometry": {"type": "Polygon", "coordinates": [[[18.73, 42.265], [18.7, 42.265], [18.695, 42.26], [18.695, 42.23], [18.7, 42.225], [18.73, 42.225], [18.735, 42.23], [18.735, 42.26], [18.73, 42.265]]]}, "properties": {"score_mean": 34.2, "score_max": 49.2, "area_km2": 14.7, "centroid": [18.715, 42.245], "razlog": "termalni front + povoljna dubina", "dubina_panule_m": 12.4, "sst_raspon_C": 0.8, "sst_promjena_3d_C": 0.0, "upwelling": 0.0, "hladnije_C": -0.2, "izgledi": "osrednji"}}, {"type": "Feature", "geometry": {"type": "Polygon", "coordinates": [[[18.86, 42.215], [18.83, 42.215], [18.825, 42.21], [18.825, 42.18], [18.84, 42.165], [18.85, 42.165], [18.855, 42.15], [18.88, 42.125], [18.89, 42.125], [18.895, 42.11], [18.92, 42.085], [18.94, 42.085], [18.945, 42.09], [18.945, 42.13], [18.94, 42.135], [18.91, 42.135], [18.905, 42.14], [18.905, 42.17], [18.9, 42.175], [18.87, 42.175], [18.86, 42.215]]]}, "properties": {"score_mean": 20.5, "score_max": 49.1, "area_km2": 56.0, "centroid": [18.8854, 42.15], "razlog": "termalni front + povoljna dubina", "dubina_panule_m": 12.3, "sst_raspon_C": 1.2, "sst_promjena_3d_C": 0.0, "upwelling": 0.0, "hladnije_C": -0.1, "izgledi": "slabi"}}, {"type": "Feature", "geometry": {"type": "Polygon", "coordinates": [[[18.85, 41.865], [18.825, 41.86], [18.825, 41.84], [18.85, 41.815], [18.86, 41.815], [18.87, 41.805], [18.93, 41.805], [18.935, 41.81], [18.93, 41.835], [18.9, 41.835], [18.85, 41.865]]]}, "properties": {"score_mean": 2.1, "score_max": 2.2, "area_km2": 37.9, "centroid": [18.8768, 41.8307], "razlog": "termalni front + povoljna dubina", "dubina_panule_m": 30.0, "sst_raspon_C": 0.6, "sst_promjena_3d_C": 0.0, "upwelling": 0.3, "hladnije_C": 0.2, "izgledi": "vrlo slabi"}}]}