{"type": "FeatureCollection", "properties": {"vrsta": "trupac", "naziv": "Trupac", "latinski": "Auxis rochei", "datum": "2026-08-31", "profil": null, "panula": {"dubina_m": [0.0, 30.0], "brzina_kn": [4.0, 6.0], "sati": "zora i sumrak", "granica_dubine_m": 50.0}, "vertikala": {"termoklina_m": 11.9, "termoklina_C_po_m": 0.3, "dcm_m": 91.2, "dcm_odnos": 1.0, "dcm_debljina_m": 31.0, "mld_m": 11.9, "sloj_plijena_m": [67.5, 100.5], "dohvatljivost": 0.0, "objasnjenje": "Termoklina na 12 m. Sloj plijena lezi pretezno ispod 50 m, dakle izvan dohvata panule. Najveca gustina hlorofila je na 91 m (sloj debljine 31 m) - tu se skuplja sitna riba koja se hrani planktonom, pa je i najveca vjerovatnoca da su grabljivice tu negdje."}, "bezbjednost": {"nivo": "zeleno", "razlog": "uslovi povoljni", "izlazak_preporucen": true}, "napomena": "", "razlog_praznog": null}, "features": [{"type": "Feature", "geometry": {"type": "Polygon", "coordinates": [[[19.25, 41.845], [19.225, 41.84], [19.23, 41.815], [19.255, 41.82], [19.25, 41.845]]]}, "properties": {"score_mean": 40.1, "score_max": 45.7, "area_km2": 8.3, "centroid": [19.24, 41.83], "razlog": "prisustvo mamca + povoljna dubina", "dubina_panule_m": 7.1, "sst_raspon_C": 0.5, "sst_promjena_3d_C": 0.0, "upwelling": 0.3, "hladnije_C": 0.1, "izgledi": "dobri"}}, {"type": "Feature", "geometry": {"type": "Polygon", "coordinates": [[[19.2, 41.855], [19.175, 41.85], [19.18, 41.825], [19.205, 41.83], [19.2, 41.855]]]}, "properties": {"score_mean": 23.7, "score_max": 27.4, "area_km2": 8.3, "centroid": [19.19, 41.84], "razlog": "povoljna dubina + mirno more", "dubina_panule_m": 7.1, "sst_raspon_C": 0.5, "sst_promjena_3d_C": 0.0, "upwelling": 0.0, "hladnije_C": -0.1, "izgledi": "slabi"}}, {"type": "Feature", "geometry": {"type": "Polygon", "coordinates": [[[19.1, 41.915], [19.08, 41.915], [19.07, 41.905], [19.065, 41.88], [19.095, 41.87], [19.11, 41.835], [19.13, 41.835], [19.135, 41.84], [19.135, 41.88], [19.12, 41.895], [19.11, 41.895], [19.1, 41.915]]]}, "properties": {"score_mean": 7.0, "score_max": 34.9, "area_km2": 31.4, "centroid": [19.1035, 41.8771], "razlog": "povoljna dubina + mirno more", "dubina_panule_m": 30.0, "sst_raspon_C": 0.3, "sst_promjena_3d_C": 0.0, "upwelling": 0.0, "hladnije_C": -0.0, "izgledi": "vrlo slabi"}}, {"type": "Feature", "geometry": {"type": "Polygon", "coordinates": [[[19.06, 41.955], [19.01, 41.955], [18.995, 41.94], [18.995, 41.88], [19.0, 41.875], [19.02, 41.875], [19.025, 41.88], [19.025, 41.91], [19.065, 41.93], [19.06, 41.955]]]}, "properties": {"score_mean": 5.4, "score_max": 38.2, "area_km2": 34.1, "centroid": [19.023, 41.9224], "razlog": "povoljna dubina + mirno more", "dubina_panule_m": 30.0, "sst_raspon_C": 0.4, "sst_promjena_3d_C": 0.0, "upwelling": 0.4, "hladnije_C": 0.1, "izgledi": "vrlo slabi"}}, {"type": "Feature", "geometry": {"type": "Polygon", "coordinates": [[[18.89, 41.995], [18.85, 41.995], [18.825, 41.97], [18.825, 41.95], [18.83, 41.945], [18.86, 41.945], [18.87, 41.935], [18.9, 41.935], [18.915, 41.95], [18.915, 41.97], [18.89, 41.995]]]}, "properties": {"score_mean": 1.5, "score_max": 1.6, "area_km2": 39.6, "centroid": [18.8714, 41.9649], "razlog": "povoljna dubina + mirno more", "dubina_panule_m": 30.0, "sst_raspon_C": 0.5, "sst_promjena_3d_C": 0.0, "upwelling": 0.3, "hladnije_C": 0.2, "izgledi": "vrlo slabi"}}]}