{"type": "FeatureCollection", "properties": {"vrsta": "trupac", "naziv": "Trupac", "latinski": "Auxis rochei", "datum": "2026-10-10", "profil": null, "panula": {"dubina_m": [0.0, 30.0], "brzina_kn": [4.0, 6.0], "sati": "zora i sumrak", "granica_dubine_m": 50.0}, "vertikala": {"termoklina_m": 31.8, "termoklina_C_po_m": 0.1, "dcm_m": 84.7, "dcm_odnos": 1.0, "dcm_debljina_m": 45.3, "mld_m": 20.9, "sloj_plijena_m": [47.0, 98.3], "dohvatljivost": 0.1, "objasnjenje": "Termoklina na 32 m. Sloj plijena lezi pretezno ispod 50 m, dakle izvan dohvata panule. Najveca gustina hlorofila je na 85 m (sloj debljine 45 m) - tu se skuplja sitna riba koja se hrani planktonom, pa je i najveca vjerovatnoca da su grabljivice tu negdje."}, "bezbjednost": {"nivo": "crveno", "razlog": "talasi do 1.1 m, vjetar 18 cv, udari 24 cv", "izlazak_preporucen": false}, "napomena": "", "razlog_praznog": null}, "features": [{"type": "Feature", "geometry": {"type": "Polygon", "coordinates": [[[19.06, 42.005], [19.02, 42.005], [19.015, 41.98], [19.04, 41.965], [19.06, 41.965], [19.065, 41.97], [19.065, 42.0], [19.06, 42.005]]]}, "properties": {"score_mean": 40.1, "score_max": 52.1, "area_km2": 16.6, "centroid": [19.0417, 41.9867], "razlog": "povoljna dubina + prisustvo mamca", "dubina_panule_m": 7.8, "sst_raspon_C": 0.4, "sst_promjena_3d_C": -0.7, "upwelling": 0.4, "hladnije_C": 0.4, "izgledi": "dobri"}}, {"type": "Feature", "geometry": {"type": "Polygon", "coordinates": [[[18.63, 42.345], [18.55, 42.345], [18.535, 42.33], [18.535, 42.31], [18.54, 42.305], [18.57, 42.305], [18.58, 42.295], [18.63, 42.295], [18.64, 42.285], [18.66, 42.285], [18.665, 42.31], [18.63, 42.345]]]}, "properties": {"score_mean": 37.8, "score_max": 47.3, "area_km2": 52.2, "centroid": [18.6012, 42.3181], "razlog": "povoljna dubina + termalni front", "dubina_panule_m": 11.9, "sst_raspon_C": 0.5, "sst_promjena_3d_C": -0.1, "upwelling": 0.0, "hladnije_C": -0.1, "izgledi": "osrednji"}}, {"type": "Feature", "geometry": {"type": "Polygon", "coordinates": [[[18.92, 42.115], [18.89, 42.115], [18.885, 42.11], [18.885, 42.07], [18.905, 42.05], [18.91, 42.035], [18.94, 42.035], [18.945, 42.04], [18.945, 42.09], [18.92, 42.115]]]}, "properties": {"score_mean": 34.3, "score_max": 39.4, "area_km2": 36.8, "centroid": [18.916, 42.076], "razlog": "povoljna dubina + termalni front", "dubina_panule_m": 9.1, "sst_raspon_C": 0.4, "sst_promjena_3d_C": 0.3, "upwelling": 0.0, "hladnije_C": -0.0, "izgledi": "osrednji"}}]}