{"type": "FeatureCollection", "properties": {"vrsta": "trupac", "naziv": "Trupac", "latinski": "Auxis rochei", "datum": "2026-09-05", "profil": null, "panula": {"dubina_m": [0.0, 30.0], "brzina_kn": [4.0, 6.0], "sati": "zora i sumrak", "granica_dubine_m": 50.0}, "vertikala": {"termoklina_m": 14.8, "termoklina_C_po_m": 0.4, "dcm_m": 91.2, "dcm_odnos": 1.0, "dcm_debljina_m": 43.0, "mld_m": 11.9, "sloj_plijena_m": [57.9, 102.9], "dohvatljivost": 0.0, "objasnjenje": "Termoklina na 15 m. Sloj plijena lezi pretezno ispod 50 m, dakle izvan dohvata panule. Najveca gustina hlorofila je na 91 m (sloj debljine 43 m) - tu se skuplja sitna riba koja se hrani planktonom, pa je i najveca vjerovatnoca da su grabljivice tu negdje."}, "bezbjednost": {"nivo": "zuto", "razlog": "vjetar 14 cv", "izlazak_preporucen": true}, "napomena": "", "razlog_praznog": null}, "features": [{"type": "Feature", "geometry": {"type": "Polygon", "coordinates": [[[19.09, 41.975], [19.065, 41.97], [19.065, 41.94], [19.08, 41.915], [19.105, 41.92], [19.105, 41.95], [19.09, 41.975]]]}, "properties": {"score_mean": 17.3, "score_max": 20.8, "area_km2": 18.4, "centroid": [19.085, 41.945], "razlog": "prisustvo mamca + povoljna dubina", "dubina_panule_m": 7.1, "sst_raspon_C": 0.3, "sst_promjena_3d_C": -0.1, "upwelling": 0.3, "hladnije_C": 0.2, "izgledi": "slabi"}}, {"type": "Feature", "geometry": {"type": "Polygon", "coordinates": [[[18.86, 42.215], [18.82, 42.215], [18.815, 42.21], [18.815, 42.18], [18.83, 42.165], [18.84, 42.165], [18.88, 42.125], [18.9, 42.125], [18.905, 42.11], [18.92, 42.095], [18.94, 42.095], [18.945, 42.1], [18.945, 42.13], [18.94, 42.135], [18.91, 42.135], [18.905, 42.14], [18.905, 42.17], [18.88, 42.175], [18.865, 42.19], [18.86, 42.215]]]}, "properties": {"score_mean": 5.7, "score_max": 23.1, "area_km2": 57.0, "centroid": [18.8765, 42.1587], "razlog": "povoljna dubina + termalni front", "dubina_panule_m": 30.0, "sst_raspon_C": 0.7, "sst_promjena_3d_C": -0.1, "upwelling": 0.2, "hladnije_C": 0.1, "izgledi": "vrlo slabi"}}, {"type": "Feature", "geometry": {"type": "Polygon", "coordinates": [[[18.69, 42.305], [18.66, 42.305], [18.655, 42.28], [18.67, 42.265], [18.685, 42.26], [18.685, 42.24], [18.7, 42.215], [18.73, 42.215], [18.735, 42.22], [18.735, 42.26], [18.695, 42.27], [18.695, 42.3], [18.69, 42.305]]]}, "properties": {"score_mean": 4.2, "score_max": 9.4, "area_km2": 34.9, "centroid": [18.6976, 42.2589], "razlog": "povoljna dubina + mirno more", "dubina_panule_m": 30.0, "sst_raspon_C": 0.2, "sst_promjena_3d_C": 0.2, "upwelling": 0.0, "hladnije_C": -0.0, "izgledi": "vrlo slabi"}}]}