{"type": "FeatureCollection", "properties": {"vrsta": "trupac", "naziv": "Trupac", "latinski": "Auxis rochei", "datum": "2026-09-18", "profil": null, "panula": {"dubina_m": [0.0, 30.0], "brzina_kn": [4.0, 6.0], "sati": "zora i sumrak", "granica_dubine_m": 50.0}, "vertikala": {"termoklina_m": 24.5, "termoklina_C_po_m": 0.2, "dcm_m": 97.9, "dcm_odnos": 1.0, "dcm_debljina_m": 36.4, "mld_m": 14.3, "sloj_plijena_m": [59.4, 106.0], "dohvatljivost": 0.0, "objasnjenje": "Termoklina na 24 m. Sloj plijena lezi pretezno ispod 50 m, dakle izvan dohvata panule. Najveca gustina hlorofila je na 98 m (sloj debljine 36 m) - tu se skuplja sitna riba koja se hrani planktonom, pa je i najveca vjerovatnoca da su grabljivice tu negdje."}, "bezbjednost": {"nivo": "zuto", "razlog": "vjetar 12 cv", "izlazak_preporucen": true}, "napomena": "", "razlog_praznog": null}, "features": [{"type": "Feature", "geometry": {"type": "Polygon", "coordinates": [[[18.9, 42.025], [18.88, 42.025], [18.855, 42.01], [18.855, 41.96], [18.86, 41.955], [18.94, 41.955], [18.945, 41.96], [18.945, 41.98], [18.915, 41.99], [18.9, 42.025]]]}, "properties": {"score_mean": 54.0, "score_max": 61.7, "area_km2": 43.3, "centroid": [18.8934, 41.9838], "razlog": "povoljna dubina + mirno more", "dubina_panule_m": 12.4, "sst_raspon_C": 0.3, "sst_promjena_3d_C": -0.6, "upwelling": 0.0, "hladnije_C": -0.1, "izgledi": "dobri"}}, {"type": "Feature", "geometry": {"type": "Polygon", "coordinates": [[[18.73, 42.265], [18.7, 42.265], [18.695, 42.26], [18.695, 42.23], [18.71, 42.215], [18.735, 42.22], [18.735, 42.26], [18.73, 42.265]]]}, "properties": {"score_mean": 38.9, "score_max": 63.1, "area_km2": 17.4, "centroid": [18.7158, 42.2411], "razlog": "povoljna dubina + mirno more", "dubina_panule_m": 30.0, "sst_raspon_C": 0.4, "sst_promjena_3d_C": -1.1, "upwelling": 0.0, "hladnije_C": -0.1, "izgledi": "osrednji"}}, {"type": "Feature", "geometry": {"type": "Polygon", "coordinates": [[[18.69, 42.305], [18.66, 42.305], [18.655, 42.3], [18.655, 42.28], [18.67, 42.265], [18.695, 42.27], [18.695, 42.3], [18.69, 42.305]]]}, "properties": {"score_mean": 38.4, "score_max": 64.7, "area_km2": 13.8, "centroid": [18.676, 42.286], "razlog": "povoljna dubina + mirno more", "dubina_panule_m": 7.4, "sst_raspon_C": 0.5, "sst_promjena_3d_C": -1.2, "upwelling": 0.0, "hladnije_C": -0.2, "izgledi": "osrednji"}}]}