{"type": "FeatureCollection", "properties": {"vrsta": "trupac", "naziv": "Trupac", "latinski": "Auxis rochei", "datum": "2026-10-06", "profil": null, "panula": {"dubina_m": [0.0, 30.0], "brzina_kn": [4.0, 6.0], "sati": "zora i sumrak", "granica_dubine_m": 50.0}, "vertikala": {"termoklina_m": 35.8, "termoklina_C_po_m": 0.1, "dcm_m": 97.9, "dcm_odnos": 1.0, "dcm_debljina_m": 39.8, "mld_m": 16.2, "sloj_plijena_m": [67.1, 107.4], "dohvatljivost": 0.0, "objasnjenje": "Termoklina na 36 m. Sloj plijena lezi pretezno ispod 50 m, dakle izvan dohvata panule. Najveca gustina hlorofila je na 98 m (sloj debljine 40 m) - tu se skuplja sitna riba koja se hrani planktonom, pa je i najveca vjerovatnoca da su grabljivice tu negdje."}, "bezbjednost": {"nivo": "zuto", "razlog": "vjetar 12 cv", "izlazak_preporucen": true}, "napomena": "", "razlog_praznog": null}, "features": [{"type": "Feature", "geometry": {"type": "Polygon", "coordinates": [[[18.9, 42.175], [18.875, 42.17], [18.88, 42.145], [18.905, 42.15], [18.9, 42.175]]]}, "properties": {"score_mean": 56.8, "score_max": 58.2, "area_km2": 8.3, "centroid": [18.89, 42.16], "razlog": "termalni front + povoljna dubina", "dubina_panule_m": 11.1, "sst_raspon_C": 1.3, "sst_promjena_3d_C": 0.0, "upwelling": 0.1, "hladnije_C": 0.0, "izgledi": "dobri"}}, {"type": "Feature", "geometry": {"type": "Polygon", "coordinates": [[[18.94, 42.135], [18.915, 42.13], [18.92, 42.105], [18.945, 42.11], [18.94, 42.135]]]}, "properties": {"score_mean": 56.5, "score_max": 58.4, "area_km2": 8.3, "centroid": [18.93, 42.12], "razlog": "termalni front + povoljna dubina", "dubina_panule_m": 10.6, "sst_raspon_C": 1.2, "sst_promjena_3d_C": 0.0, "upwelling": 0.0, "hladnije_C": -0.1, "izgledi": "dobri"}}, {"type": "Feature", "geometry": {"type": "Polygon", "coordinates": [[[18.86, 42.215], [18.835, 42.21], [18.84, 42.185], [18.865, 42.19], [18.86, 42.215]]]}, "properties": {"score_mean": 55.1, "score_max": 56.6, "area_km2": 8.3, "centroid": [18.85, 42.2], "razlog": "termalni front + povoljna dubina", "dubina_panule_m": 11.8, "sst_raspon_C": 1.1, "sst_promjena_3d_C": 0.0, "upwelling": 0.2, "hladnije_C": 0.1, "izgledi": "dobri"}}, {"type": "Feature", "geometry": {"type": "Polygon", "coordinates": [[[19.01, 42.075], [18.985, 42.07], [18.985, 42.02], [18.99, 42.015], [19.01, 42.015], [19.025, 42.04], [19.025, 42.06], [19.01, 42.075]]]}, "properties": {"score_mean": 47.5, "score_max": 53.0, "area_km2": 19.3, "centroid": [19.0029, 42.0457], "razlog": "termalni front + povoljna dubina", "dubina_panule_m": 10.5, "sst_raspon_C": 0.6, "sst_promjena_3d_C": 0.0, "upwelling": 0.1, "hladnije_C": 0.0, "izgledi": "dobri"}}, {"type": "Feature", "geometry": {"type": "Polygon", "coordinates": [[[18.73, 42.265], [18.7, 42.265], [18.695, 42.26], [18.695, 42.23], [18.71, 42.215], [18.735, 42.22], [18.735, 42.26], [18.73, 42.265]]]}, "properties": {"score_mean": 27.4, "score_max": 49.3, "area_km2": 17.4, "centroid": [18.7158, 42.2411], "razlog": "povoljna dubina + mirno more", "dubina_panule_m": 7.8, "sst_raspon_C": 0.4, "sst_promjena_3d_C": 0.0, "upwelling": 0.0, "hladnije_C": -0.1, "izgledi": "osrednji"}}, {"type": "Feature", "geometry": {"type": "Polygon", "coordinates": [[[18.65, 42.345], [18.62, 42.345], [18.615, 42.34], [18.615, 42.31], [18.62, 42.305], [18.65, 42.305], [18.655, 42.31], [18.655, 42.34], [18.65, 42.345]]]}, "properties": {"score_mean": 26.4, "score_max": 48.4, "area_km2": 14.7, "centroid": [18.635, 42.325], "razlog": "povoljna dubina + mirno more", "dubina_panule_m": 10.0, "sst_raspon_C": 0.3, "sst_promjena_3d_C": 0.0, "upwelling": 0.0, "hladnije_C": -0.1, "izgledi": "osrednji"}}]}