{"type": "FeatureCollection", "properties": {"vrsta": "trupac", "naziv": "Trupac", "latinski": "Auxis rochei", "datum": "2026-10-09", "profil": null, "panula": {"dubina_m": [0.0, 30.0], "brzina_kn": [4.0, 6.0], "sati": "zora i sumrak", "granica_dubine_m": 50.0}, "vertikala": {"termoklina_m": 31.8, "termoklina_C_po_m": 0.1, "dcm_m": 91.2, "dcm_odnos": 1.0, "dcm_debljina_m": 42.6, "mld_m": 20.4, "sloj_plijena_m": [59.4, 104.0], "dohvatljivost": 0.0, "objasnjenje": "Termoklina na 32 m. Sloj plijena lezi pretezno ispod 50 m, dakle izvan dohvata panule. Najveca gustina hlorofila je na 91 m (sloj debljine 43 m) - tu se skuplja sitna riba koja se hrani planktonom, pa je i najveca vjerovatnoca da su grabljivice tu negdje."}, "bezbjednost": {"nivo": "crveno", "razlog": "talasi do 2.1 m, vjetar 15 cv, udari 22 cv", "izlazak_preporucen": false}, "napomena": "", "razlog_praznog": null}, "features": [{"type": "Feature", "geometry": {"type": "Polygon", "coordinates": [[[18.85, 42.215], [18.81, 42.215], [18.805, 42.19], [18.81, 42.185], [18.85, 42.185], [18.855, 42.19], [18.85, 42.215]]]}, "properties": {"score_mean": 47.1, "score_max": 49.4, "area_km2": 13.8, "centroid": [18.83, 42.2], "razlog": "termalni front + povoljna dubina", "dubina_panule_m": 12.4, "sst_raspon_C": 0.8, "sst_promjena_3d_C": -0.1, "upwelling": 0.0, "hladnije_C": -0.0, "izgledi": "dobri"}}, {"type": "Feature", "geometry": {"type": "Polygon", "coordinates": [[[18.7, 42.275], [18.675, 42.27], [18.675, 42.25], [18.7, 42.235], [18.72, 42.235], [18.725, 42.26], [18.7, 42.275]]]}, "properties": {"score_mean": 41.6, "score_max": 47.0, "area_km2": 14.7, "centroid": [18.7, 42.255], "razlog": "termalni front + povoljna dubina", "dubina_panule_m": 12.5, "sst_raspon_C": 0.6, "sst_promjena_3d_C": -0.1, "upwelling": 0.0, "hladnije_C": -0.2, "izgledi": "dobri"}}, {"type": "Feature", "geometry": {"type": "Polygon", "coordinates": [[[19.05, 41.985], [19.02, 41.985], [19.015, 41.96], [19.02, 41.955], [19.05, 41.955], [19.055, 41.96], [19.05, 41.985]]]}, "properties": {"score_mean": 37.4, "score_max": 44.7, "area_km2": 11.1, "centroid": [19.035, 41.97], "razlog": "termalni front + prisustvo mamca", "dubina_panule_m": 7.3, "sst_raspon_C": 0.6, "sst_promjena_3d_C": -1.0, "upwelling": 0.3, "hladnije_C": 0.2, "izgledi": "osrednji"}}, {"type": "Feature", "geometry": {"type": "Polygon", "coordinates": [[[18.91, 42.125], [18.89, 42.125], [18.885, 42.1], [18.91, 42.055], [18.94, 42.055], [18.945, 42.08], [18.935, 42.09], [18.935, 42.1], [18.91, 42.125]]]}, "properties": {"score_mean": 36.7, "score_max": 43.7, "area_km2": 26.7, "centroid": [18.9148, 42.089], "razlog": "povoljna dubina + prisustvo mamca", "dubina_panule_m": 10.1, "sst_raspon_C": 0.3, "sst_promjena_3d_C": -0.4, "upwelling": 0.1, "hladnije_C": 0.0, "izgledi": "osrednji"}}, {"type": "Feature", "geometry": {"type": "Polygon", "coordinates": [[[18.93, 42.045], [18.905, 42.04], [18.905, 42.01], [18.91, 42.005], [18.935, 42.01], [18.935, 42.04], [18.93, 42.045]]]}, "properties": {"score_mean": 34.6, "score_max": 37.3, "area_km2": 11.0, "centroid": [18.92, 42.025], "razlog": "povoljna dubina + termalni front", "dubina_panule_m": 8.7, "sst_raspon_C": 0.5, "sst_promjena_3d_C": -0.3, "upwelling": 0.0, "hladnije_C": -0.1, "izgledi": "osrednji"}}, {"type": "Feature", "geometry": {"type": "Polygon", "coordinates": [[[18.63, 42.345], [18.58, 42.345], [18.575, 42.32], [18.62, 42.275], [18.63, 42.275], [18.64, 42.265], [18.66, 42.265], [18.665, 42.27], [18.665, 42.3], [18.655, 42.31], [18.655, 42.32], [18.63, 42.345]]]}, "properties": {"score_mean": 31.9, "score_max": 42.6, "area_km2": 44.9, "centroid": [18.6231, 42.3088], "razlog": "povoljna dubina + termalni front", "dubina_panule_m": 30.0, "sst_raspon_C": 0.5, "sst_promjena_3d_C": -0.4, "upwelling": 0.0, "hladnije_C": -0.1, "izgledi": "osrednji"}}]}