{"type": "FeatureCollection", "properties": {"vrsta": "trupac", "naziv": "Trupac", "latinski": "Auxis rochei", "datum": "2026-10-08", "profil": null, "panula": {"dubina_m": [0.0, 30.0], "brzina_kn": [4.0, 6.0], "sati": "zora i sumrak", "granica_dubine_m": 50.0}, "vertikala": {"termoklina_m": 28.0, "termoklina_C_po_m": 0.1, "dcm_m": 91.2, "dcm_odnos": 1.0, "dcm_debljina_m": 41.3, "mld_m": 20.0, "sloj_plijena_m": [62.0, 103.3], "dohvatljivost": 0.0, "objasnjenje": "Termoklina na 28 m. Sloj plijena lezi pretezno ispod 50 m, dakle izvan dohvata panule. Najveca gustina hlorofila je na 91 m (sloj debljine 41 m) - tu se skuplja sitna riba koja se hrani planktonom, pa je i najveca vjerovatnoca da su grabljivice tu negdje."}, "bezbjednost": {"nivo": "crveno", "razlog": "talasi do 1.5 m, vjetar 18 cv, udari 24 cv", "izlazak_preporucen": false}, "napomena": "", "razlog_praznog": null}, "features": [{"type": "Feature", "geometry": {"type": "Polygon", "coordinates": [[[18.9, 42.175], [18.875, 42.17], [18.88, 42.145], [18.905, 42.15], [18.9, 42.175]]]}, "properties": {"score_mean": 48.3, "score_max": 49.5, "area_km2": 8.3, "centroid": [18.89, 42.16], "razlog": "termalni front + povoljna dubina", "dubina_panule_m": 11.2, "sst_raspon_C": 1.2, "sst_promjena_3d_C": 0.0, "upwelling": 0.2, "hladnije_C": 0.2, "izgledi": "dobri"}}, {"type": "Feature", "geometry": {"type": "Polygon", "coordinates": [[[18.73, 42.265], [18.705, 42.26], [18.71, 42.235], [18.735, 42.24], [18.73, 42.265]]]}, "properties": {"score_mean": 40.7, "score_max": 44.9, "area_km2": 8.3, "centroid": [18.72, 42.25], "razlog": "termalni front + povoljna dubina", "dubina_panule_m": 11.7, "sst_raspon_C": 0.9, "sst_promjena_3d_C": 0.0, "upwelling": 0.0, "hladnije_C": -0.0, "izgledi": "dobri"}}, {"type": "Feature", "geometry": {"type": "Polygon", "coordinates": [[[18.86, 42.215], [18.8, 42.215], [18.795, 42.19], [18.82, 42.175], [18.85, 42.175], [18.865, 42.19], [18.86, 42.215]]]}, "properties": {"score_mean": 38.4, "score_max": 51.1, "area_km2": 23.0, "centroid": [18.8308, 42.1968], "razlog": "termalni front + povoljna dubina", "dubina_panule_m": 12.5, "sst_raspon_C": 1.3, "sst_promjena_3d_C": 0.0, "upwelling": 0.0, "hladnije_C": -0.1, "izgledi": "osrednji"}}, {"type": "Feature", "geometry": {"type": "Polygon", "coordinates": [[[18.95, 42.095], [18.925, 42.09], [18.925, 42.06], [18.905, 42.03], [18.905, 42.0], [18.91, 41.995], [18.93, 41.995], [18.965, 42.03], [18.965, 42.05], [18.985, 42.06], [18.98, 42.085], [18.96, 42.085], [18.95, 42.095]]]}, "properties": {"score_mean": 38.0, "score_max": 45.7, "area_km2": 45.1, "centroid": [18.9414, 42.0469], "razlog": "termalni front + povoljna dubina", "dubina_panule_m": 11.4, "sst_raspon_C": 0.8, "sst_promjena_3d_C": 0.0, "upwelling": 0.1, "hladnije_C": 0.0, "izgledi": "osrednji"}}]}