{"type": "FeatureCollection", "properties": {"vrsta": "trupac", "naziv": "Trupac", "latinski": "Auxis rochei", "datum": "2026-09-21", "profil": null, "panula": {"dubina_m": [0.0, 30.0], "brzina_kn": [4.0, 6.0], "sati": "zora i sumrak", "granica_dubine_m": 50.0}, "vertikala": {"termoklina_m": 24.5, "termoklina_C_po_m": 0.2, "dcm_m": 97.9, "dcm_odnos": 1.0, "dcm_debljina_m": 39.6, "mld_m": 12.1, "sloj_plijena_m": [59.4, 108.5], "dohvatljivost": 0.0, "objasnjenje": "Termoklina na 24 m. Sloj plijena lezi pretezno ispod 50 m, dakle izvan dohvata panule. Najveca gustina hlorofila je na 98 m (sloj debljine 40 m) - tu se skuplja sitna riba koja se hrani planktonom, pa je i najveca vjerovatnoca da su grabljivice tu negdje."}, "bezbjednost": {"nivo": "crveno", "razlog": "vjetar 21 cv, udari 30 cv", "izlazak_preporucen": false}, "napomena": "", "razlog_praznog": null}, "features": [{"type": "Feature", "geometry": {"type": "Polygon", "coordinates": [[[19.145, 41.82], [19.12, 41.825], [19.105, 41.81], [19.105, 41.79], [19.12, 41.775], [19.145, 41.78], [19.145, 41.82]]]}, "properties": {"score_mean": 63.7, "score_max": 71.9, "area_km2": 16.6, "centroid": [19.1267, 41.8], "razlog": "termalni front + povoljna dubina", "dubina_panule_m": 7.1, "sst_raspon_C": 0.7, "sst_promjena_3d_C": 0.2, "upwelling": 0.0, "hladnije_C": -0.1, "izgledi": "vrlo dobri"}}, {"type": "Feature", "geometry": {"type": "Polygon", "coordinates": [[[19.08, 42.005], [19.03, 41.995], [19.015, 41.98], [19.015, 41.95], [19.025, 41.94], [19.025, 41.93], [19.05, 41.915], [19.08, 41.915], [19.095, 41.94], [19.095, 41.99], [19.08, 42.005]]]}, "properties": {"score_mean": 62.7, "score_max": 71.4, "area_km2": 54.4, "centroid": [19.0576, 41.9602], "razlog": "povoljna dubina + termalni front", "dubina_panule_m": 7.1, "sst_raspon_C": 0.6, "sst_promjena_3d_C": 0.0, "upwelling": 0.2, "hladnije_C": 0.1, "izgledi": "vrlo dobri"}}, {"type": "Feature", "geometry": {"type": "Polygon", "coordinates": [[[18.94, 42.025], [18.88, 42.025], [18.875, 42.02], [18.875, 41.98], [18.9, 41.965], [18.94, 41.965], [18.945, 41.97], [18.945, 42.02], [18.94, 42.025]]]}, "properties": {"score_mean": 58.2, "score_max": 64.4, "area_km2": 36.8, "centroid": [18.9113, 41.9962], "razlog": "povoljna dubina + prisustvo mamca", "dubina_panule_m": 8.8, "sst_raspon_C": 0.4, "sst_promjena_3d_C": 0.1, "upwelling": 0.0, "hladnije_C": 0.1, "izgledi": "dobri"}}, {"type": "Feature", "geometry": {"type": "Polygon", "coordinates": [[[18.83, 42.095], [18.805, 42.09], [18.81, 42.065], [18.835, 42.07], [18.83, 42.095]]]}, "properties": {"score_mean": 46.0, "score_max": 50.2, "area_km2": 8.3, "centroid": [18.82, 42.08], "razlog": "povoljna dubina + mirno more", "dubina_panule_m": 11.9, "sst_raspon_C": 0.2, "sst_promjena_3d_C": 0.1, "upwelling": 0.0, "hladnije_C": -0.0, "izgledi": "dobri"}}]}