{"type": "FeatureCollection", "properties": {"vrsta": "tuna", "naziv": "Tuna", "latinski": "Thunnus thynnus", "datum": "2026-09-22", "profil": null, "panula": {"dubina_m": [0.0, 50.0], "brzina_kn": [6.0, 8.0], "sati": "zora, sumrak i mijene struje", "granica_dubine_m": 50.0}, "vertikala": {"termoklina_m": 24.5, "termoklina_C_po_m": 0.2, "dcm_m": 97.9, "dcm_odnos": 1.0, "dcm_debljina_m": 39.8, "mld_m": 14.8, "sloj_plijena_m": [58.4, 108.5], "dohvatljivost": 0.0, "objasnjenje": "Termoklina na 24 m. Sloj plijena lezi pretezno ispod 50 m, dakle izvan dohvata panule. Najveca gustina hlorofila je na 98 m (sloj debljine 40 m) - tu se skuplja sitna riba koja se hrani planktonom, pa je i najveca vjerovatnoca da su grabljivice tu negdje."}, "bezbjednost": {"nivo": "crveno", "razlog": "talasi do 1.4 m, vjetar 23 cv, udari 31 cv", "izlazak_preporucen": false}, "napomena": "", "razlog_praznog": null}, "features": [{"type": "Feature", "geometry": {"type": "Polygon", "coordinates": [[[18.69, 42.305], [18.665, 42.3], [18.67, 42.275], [18.695, 42.28], [18.69, 42.305]]]}, "properties": {"score_mean": 32.3, "score_max": 41.4, "area_km2": 8.3, "centroid": [18.68, 42.29], "razlog": "termalni front + povoljna dubina", "dubina_panule_m": 7.5, "sst_raspon_C": 0.4, "sst_promjena_3d_C": -0.3, "upwelling": 0.0, "hladnije_C": -0.1, "izgledi": "osrednji"}}, {"type": "Feature", "geometry": {"type": "Polygon", "coordinates": [[[19.1, 41.995], [19.075, 41.99], [19.075, 41.97], [19.065, 41.96], [19.065, 41.95], [19.045, 41.93], [19.045, 41.9], [19.06, 41.875], [19.085, 41.88], [19.085, 41.92], [19.095, 41.93], [19.095, 41.95], [19.105, 41.96], [19.105, 41.99], [19.1, 41.995]]]}, "properties": {"score_mean": 31.6, "score_max": 39.9, "area_km2": 39.6, "centroid": [19.0753, 41.9337], "razlog": "termalni front + gradijent hlorofila", "dubina_panule_m": 7.7, "sst_raspon_C": 0.8, "sst_promjena_3d_C": -0.3, "upwelling": 0.4, "hladnije_C": 0.2, "izgledi": "osrednji"}}, {"type": "Feature", "geometry": {"type": "Polygon", "coordinates": [[[18.73, 42.275], [18.7, 42.275], [18.695, 42.27], [18.695, 42.25], [18.71, 42.225], [18.74, 42.225], [18.745, 42.23], [18.745, 42.26], [18.73, 42.275]]]}, "properties": {"score_mean": 28.0, "score_max": 38.9, "area_km2": 20.2, "centroid": [18.7209, 42.2505], "razlog": "povoljna dubina + termalni front", "dubina_panule_m": 8.2, "sst_raspon_C": 0.4, "sst_promjena_3d_C": -0.2, "upwelling": 0.0, "hladnije_C": -0.1, "izgledi": "osrednji"}}, {"type": "Feature", "geometry": {"type": "Polygon", "coordinates": [[[18.82, 42.125], [18.8, 42.125], [18.78, 42.105], [18.765, 42.1], [18.765, 42.07], [18.8, 42.045], [18.84, 42.045], [18.845, 42.05], [18.845, 42.07], [18.835, 42.08], [18.835, 42.11], [18.82, 42.125]]]}, "properties": {"score_mean": 24.1, "score_max": 36.8, "area_km2": 45.1, "centroid": [18.8059, 42.0822], "razlog": "termalni front + prisustvo mamca", "dubina_panule_m": 12.8, "sst_raspon_C": 0.6, "sst_promjena_3d_C": -0.1, "upwelling": 0.0, "hladnije_C": -0.0, "izgledi": "slabi"}}, {"type": "Feature", "geometry": {"type": "Polygon", "coordinates": [[[18.9, 41.985], [18.87, 41.985], [18.865, 41.98], [18.865, 41.95], [18.89, 41.945], [18.9, 41.935], [18.94, 41.935], [18.945, 41.94], [18.945, 41.97], [18.94, 41.975], [18.91, 41.975], [18.9, 41.985]]]}, "properties": {"score_mean": 23.8, "score_max": 33.0, "area_km2": 30.4, "centroid": [18.9048, 41.9594], "razlog": "termalni front + prisustvo mamca", "dubina_panule_m": 8.1, "sst_raspon_C": 0.4, "sst_promjena_3d_C": 0.0, "upwelling": 0.0, "hladnije_C": -0.1, "izgledi": "slabi"}}, {"type": "Feature", "geometry": {"type": "Polygon", "coordinates": [[[18.9, 42.135], [18.875, 42.13], [18.875, 42.11], [18.885, 42.1], [18.885, 42.06], [18.91, 42.055], [18.92, 42.045], [18.94, 42.045], [18.945, 42.05], [18.945, 42.09], [18.9, 42.135]]]}, "properties": {"score_mean": 20.2, "score_max": 26.5, "area_km2": 40.5, "centroid": [18.9102, 42.088], "razlog": "termalni front + prisustvo mamca", "dubina_panule_m": 10.4, "sst_raspon_C": 0.3, "sst_promjena_3d_C": -0.4, "upwelling": 0.0, "hladnije_C": 0.2, "izgledi": "slabi"}}]}