{"type": "FeatureCollection", "properties": {"vrsta": "tuna", "naziv": "Tuna", "latinski": "Thunnus thynnus", "datum": "2026-09-23", "profil": null, "panula": {"dubina_m": [0.0, 50.0], "brzina_kn": [6.0, 8.0], "sati": "zora, sumrak i mijene struje", "granica_dubine_m": 50.0}, "vertikala": {"termoklina_m": 28.0, "termoklina_C_po_m": 0.2, "dcm_m": 97.9, "dcm_odnos": 1.0, "dcm_debljina_m": 39.8, "mld_m": 20.7, "sloj_plijena_m": [61.2, 109.0], "dohvatljivost": 0.0, "objasnjenje": "Termoklina na 28 m. Sloj plijena lezi pretezno ispod 50 m, dakle izvan dohvata panule. Najveca gustina hlorofila je na 98 m (sloj debljine 40 m) - tu se skuplja sitna riba koja se hrani planktonom, pa je i najveca vjerovatnoca da su grabljivice tu negdje."}, "bezbjednost": {"nivo": "crveno", "razlog": "talasi do 1.6 m, vjetar 16 cv, udari 26 cv", "izlazak_preporucen": false}, "napomena": "", "razlog_praznog": null}, "features": [{"type": "Feature", "geometry": {"type": "Polygon", "coordinates": [[[19.11, 41.945], [19.085, 41.94], [19.085, 41.91], [19.09, 41.905], [19.115, 41.91], [19.115, 41.94], [19.11, 41.945]]]}, "properties": {"score_mean": 32.7, "score_max": 39.7, "area_km2": 11.1, "centroid": [19.1, 41.925], "razlog": "termalni front + gradijent hlorofila", "dubina_panule_m": 9.4, "sst_raspon_C": 0.7, "sst_promjena_3d_C": 0.3, "upwelling": 0.2, "hladnije_C": 0.0, "izgledi": "osrednji"}}, {"type": "Feature", "geometry": {"type": "Polygon", "coordinates": [[[18.81, 42.085], [18.785, 42.08], [18.785, 42.05], [18.79, 42.045], [18.815, 42.05], [18.815, 42.08], [18.81, 42.085]]]}, "properties": {"score_mean": 21.6, "score_max": 29.2, "area_km2": 11.0, "centroid": [18.8, 42.065], "razlog": "prisustvo mamca + termalni front", "dubina_panule_m": 14.1, "sst_raspon_C": 0.2, "sst_promjena_3d_C": 0.2, "upwelling": 0.0, "hladnije_C": 0.1, "izgledi": "slabi"}}, {"type": "Feature", "geometry": {"type": "Polygon", "coordinates": [[[18.7, 42.315], [18.66, 42.315], [18.655, 42.31], [18.655, 42.28], [18.67, 42.265], [18.695, 42.26], [18.695, 42.23], [18.71, 42.215], [18.74, 42.215], [18.745, 42.22], [18.745, 42.27], [18.74, 42.275], [18.71, 42.275], [18.7, 42.315]]]}, "properties": {"score_mean": 19.6, "score_max": 35.3, "area_km2": 47.7, "centroid": [18.7027, 42.2662], "razlog": "povoljna dubina + termalni front", "dubina_panule_m": 50.0, "sst_raspon_C": 0.3, "sst_promjena_3d_C": 0.1, "upwelling": 0.0, "hladnije_C": -0.0, "izgledi": "slabi"}}, {"type": "Feature", "geometry": {"type": "Polygon", "coordinates": [[[18.93, 42.015], [18.9, 42.015], [18.865, 41.98], [18.865, 41.96], [18.89, 41.935], [18.94, 41.935], [18.945, 41.94], [18.945, 42.0], [18.93, 42.015]]]}, "properties": {"score_mean": 18.5, "score_max": 29.2, "area_km2": 49.8, "centroid": [18.9093, 41.973], "razlog": "termalni front + prisustvo mamca", "dubina_panule_m": 11.0, "sst_raspon_C": 0.1, "sst_promjena_3d_C": 0.6, "upwelling": 0.0, "hladnije_C": -0.0, "izgledi": "slabi"}}, {"type": "Feature", "geometry": {"type": "Polygon", "coordinates": [[[18.87, 42.175], [18.85, 42.175], [18.84, 42.165], [18.83, 42.165], [18.825, 42.14], [18.83, 42.135], [18.86, 42.135], [18.875, 42.15], [18.87, 42.175]]]}, "properties": {"score_mean": 17.0, "score_max": 23.7, "area_km2": 15.6, "centroid": [18.8506, 42.1541], "razlog": "termalni front + prisustvo mamca", "dubina_panule_m": 11.1, "sst_raspon_C": 0.3, "sst_promjena_3d_C": 0.3, "upwelling": 0.0, "hladnije_C": -0.1, "izgledi": "slabi"}}]}