{"type": "FeatureCollection", "properties": {"vrsta": "tuna", "naziv": "Tuna", "latinski": "Thunnus thynnus", "datum": "2026-09-07", "profil": null, "panula": {"dubina_m": [0.0, 50.0], "brzina_kn": [6.0, 8.0], "sati": "zora, sumrak i mijene struje", "granica_dubine_m": 50.0}, "vertikala": {"termoklina_m": 17.8, "termoklina_C_po_m": 0.3, "dcm_m": 91.2, "dcm_odnos": 1.0, "dcm_debljina_m": 41.6, "mld_m": 11.9, "sloj_plijena_m": [59.2, 102.9], "dohvatljivost": 0.0, "objasnjenje": "Termoklina na 18 m. Sloj plijena lezi pretezno ispod 50 m, dakle izvan dohvata panule. Najveca gustina hlorofila je na 91 m (sloj debljine 42 m) - tu se skuplja sitna riba koja se hrani planktonom, pa je i najveca vjerovatnoca da su grabljivice tu negdje."}, "bezbjednost": {"nivo": "zuto", "razlog": "vjetar 13 cv", "izlazak_preporucen": true}, "napomena": "", "razlog_praznog": null}, "features": [{"type": "Feature", "geometry": {"type": "Polygon", "coordinates": [[[19.1, 42.005], [19.075, 42.0], [19.075, 41.96], [19.085, 41.95], [19.085, 41.91], [19.09, 41.905], [19.115, 41.91], [19.115, 41.99], [19.1, 42.005]]]}, "properties": {"score_mean": 16.3, "score_max": 23.1, "area_km2": 31.3, "centroid": [19.0968, 41.9574], "razlog": "termalni front + prisustvo mamca", "dubina_panule_m": 7.1, "sst_raspon_C": 1.0, "sst_promjena_3d_C": -0.0, "upwelling": 0.2, "hladnije_C": 0.1, "izgledi": "slabi"}}, {"type": "Feature", "geometry": {"type": "Polygon", "coordinates": [[[18.87, 42.225], [18.84, 42.225], [18.835, 42.22], [18.835, 42.19], [18.85, 42.175], [18.87, 42.175], [18.88, 42.155], [18.9, 42.155], [18.905, 42.18], [18.875, 42.19], [18.875, 42.22], [18.87, 42.225]]]}, "properties": {"score_mean": 13.4, "score_max": 22.1, "area_km2": 25.7, "centroid": [18.8668, 42.1911], "razlog": "termalni front + gradijent hlorofila", "dubina_panule_m": 42.1, "sst_raspon_C": 0.9, "sst_promjena_3d_C": -0.9, "upwelling": 0.4, "hladnije_C": 0.2, "izgledi": "slabi"}}, {"type": "Feature", "geometry": {"type": "Polygon", "coordinates": [[[18.7, 42.315], [18.67, 42.315], [18.665, 42.31], [18.665, 42.28], [18.67, 42.275], [18.7, 42.275], [18.705, 42.28], [18.705, 42.31], [18.7, 42.315]]]}, "properties": {"score_mean": 12.9, "score_max": 15.7, "area_km2": 14.7, "centroid": [18.685, 42.295], "razlog": "termalni front + gradijent hlorofila", "dubina_panule_m": 7.1, "sst_raspon_C": 0.8, "sst_promjena_3d_C": 0.4, "upwelling": 0.0, "hladnije_C": -0.4, "izgledi": "slabi"}}, {"type": "Feature", "geometry": {"type": "Polygon", "coordinates": [[[18.74, 42.275], [18.71, 42.275], [18.705, 42.27], [18.705, 42.23], [18.71, 42.225], [18.73, 42.225], [18.745, 42.24], [18.745, 42.27], [18.74, 42.275]]]}, "properties": {"score_mean": 12.1, "score_max": 16.2, "area_km2": 17.4, "centroid": [18.7242, 42.2511], "razlog": "termalni front + povoljna dubina", "dubina_panule_m": 33.8, "sst_raspon_C": 0.5, "sst_promjena_3d_C": 0.3, "upwelling": 0.0, "hladnije_C": -0.3, "izgledi": "slabi"}}, {"type": "Feature", "geometry": {"type": "Polygon", "coordinates": [[[18.69, 41.825], [18.65, 41.825], [18.645, 41.82], [18.645, 41.78], [18.67, 41.755], [18.71, 41.755], [18.725, 41.77], [18.725, 41.79], [18.69, 41.825]]]}, "properties": {"score_mean": 1.3, "score_max": 1.6, "area_km2": 42.5, "centroid": [18.6826, 41.7893], "razlog": "ivica selfa + povoljna dubina", "dubina_panule_m": 50.0, "sst_raspon_C": 0.1, "sst_promjena_3d_C": -0.4, "upwelling": 0.0, "hladnije_C": -0.0, "izgledi": "vrlo slabi"}}]}