{"type": "FeatureCollection", "properties": {"vrsta": "tuna", "naziv": "Tuna", "latinski": "Thunnus thynnus", "datum": "2026-09-29", "profil": null, "panula": {"dubina_m": [0.0, 50.0], "brzina_kn": [6.0, 8.0], "sati": "zora, sumrak i mijene struje", "granica_dubine_m": 50.0}, "vertikala": {"termoklina_m": 31.8, "termoklina_C_po_m": 0.2, "dcm_m": 97.9, "dcm_odnos": 1.0, "dcm_debljina_m": 38.0, "mld_m": 18.6, "sloj_plijena_m": [71.4, 108.6], "dohvatljivost": 0.0, "objasnjenje": "Termoklina na 32 m. Sloj plijena lezi pretezno ispod 50 m, dakle izvan dohvata panule. Najveca gustina hlorofila je na 98 m (sloj debljine 38 m) - tu se skuplja sitna riba koja se hrani planktonom, pa je i najveca vjerovatnoca da su grabljivice tu negdje."}, "bezbjednost": {"nivo": "zuto", "razlog": "vjetar 14 cv", "izlazak_preporucen": true}, "napomena": "", "razlog_praznog": null}, "features": [{"type": "Feature", "geometry": {"type": "Polygon", "coordinates": [[[18.7, 42.305], [18.67, 42.305], [18.665, 42.28], [18.695, 42.27], [18.695, 42.25], [18.71, 42.225], [18.74, 42.225], [18.745, 42.23], [18.745, 42.27], [18.74, 42.275], [18.71, 42.275], [18.7, 42.305]]]}, "properties": {"score_mean": 33.6, "score_max": 42.2, "area_km2": 32.1, "centroid": [18.7091, 42.2646], "razlog": "termalni front + povoljna dubina", "dubina_panule_m": 8.1, "sst_raspon_C": 1.0, "sst_promjena_3d_C": 0.1, "upwelling": 0.0, "hladnije_C": -0.3, "izgledi": "osrednji"}}, {"type": "Feature", "geometry": {"type": "Polygon", "coordinates": [[[18.9, 42.185], [18.875, 42.18], [18.875, 42.16], [18.89, 42.145], [18.915, 42.15], [18.915, 42.17], [18.9, 42.185]]]}, "properties": {"score_mean": 27.5, "score_max": 31.1, "area_km2": 12.9, "centroid": [18.895, 42.165], "razlog": "termalni front + prisustvo mamca", "dubina_panule_m": 8.8, "sst_raspon_C": 0.9, "sst_promjena_3d_C": -0.2, "upwelling": 0.0, "hladnije_C": 0.1, "izgledi": "osrednji"}}, {"type": "Feature", "geometry": {"type": "Polygon", "coordinates": [[[19.02, 42.085], [18.99, 42.085], [18.985, 42.08], [18.985, 42.04], [19.005, 42.01], [19.005, 42.0], [19.03, 41.975], [19.06, 41.975], [19.065, 41.98], [19.065, 42.04], [19.02, 42.085]]]}, "properties": {"score_mean": 26.3, "score_max": 34.1, "area_km2": 59.8, "centroid": [19.0265, 42.0305], "razlog": "termalni front + prisustvo mamca", "dubina_panule_m": 8.6, "sst_raspon_C": 0.8, "sst_promjena_3d_C": -0.5, "upwelling": 0.1, "hladnije_C": 0.2, "izgledi": "osrednji"}}, {"type": "Feature", "geometry": {"type": "Polygon", "coordinates": [[[18.87, 42.215], [18.845, 42.21], [18.85, 42.185], [18.875, 42.19], [18.87, 42.215]]]}, "properties": {"score_mean": 26.2, "score_max": 28.9, "area_km2": 8.3, "centroid": [18.86, 42.2], "razlog": "termalni front + prisustvo mamca", "dubina_panule_m": 8.7, "sst_raspon_C": 0.7, "sst_promjena_3d_C": -0.3, "upwelling": 0.0, "hladnije_C": 0.2, "izgledi": "osrednji"}}, {"type": "Feature", "geometry": {"type": "Polygon", "coordinates": [[[18.945, 42.06], [18.92, 42.065], [18.875, 42.03], [18.875, 42.01], [18.9, 41.975], [18.94, 41.975], [18.945, 41.98], [18.945, 42.06]]]}, "properties": {"score_mean": 18.3, "score_max": 28.4, "area_km2": 47.0, "centroid": [18.9151, 42.0173], "razlog": "termalni front + prisustvo mamca", "dubina_panule_m": 11.6, "sst_raspon_C": 0.4, "sst_promjena_3d_C": -0.4, "upwelling": 0.0, "hladnije_C": -0.0, "izgledi": "slabi"}}, {"type": "Feature", "geometry": {"type": "Polygon", "coordinates": [[[18.7, 41.765], [18.675, 41.76], [18.68, 41.735], [18.69, 41.735], [18.7, 41.725], [18.72, 41.725], [18.725, 41.71], [18.74, 41.695], [18.77, 41.695], [18.775, 41.7], [18.77, 41.725], [18.76, 41.725], [18.75, 41.735], [18.73, 41.735], [18.725, 41.75], [18.7, 41.765]]]}, "properties": {"score_mean": 2.1, "score_max": 2.5, "area_km2": 30.5, "centroid": [18.7255, 41.7291], "razlog": "ivica selfa + povoljna dubina", "dubina_panule_m": 50.0, "sst_raspon_C": 1.3, "sst_promjena_3d_C": -0.6, "upwelling": 0.1, "hladnije_C": 0.0, "izgledi": "vrlo slabi"}}]}