{"type": "FeatureCollection", "properties": {"vrsta": "tuna", "naziv": "Tuna", "latinski": "Thunnus thynnus", "datum": "2026-08-27", "profil": null, "panula": {"dubina_m": [0.0, 50.0], "brzina_kn": [6.0, 8.0], "sati": "zora, sumrak i mijene struje", "granica_dubine_m": 50.0}, "vertikala": {"termoklina_m": 11.9, "termoklina_C_po_m": 0.1, "dcm_m": 91.2, "dcm_odnos": 1.4, "dcm_debljina_m": 32.3, "mld_m": 11.9, "sloj_plijena_m": [64.7, 100.5], "dohvatljivost": 0.0, "objasnjenje": "Termoklina na 12 m. Sloj plijena lezi pretezno ispod 50 m, dakle izvan dohvata panule. Najveca gustina hlorofila je na 91 m (sloj debljine 32 m) - tu se skuplja sitna riba koja se hrani planktonom, pa je i najveca vjerovatnoca da su grabljivice tu negdje."}, "bezbjednost": {"nivo": "zuto", "razlog": "vjetar 12 cv", "izlazak_preporucen": true}, "napomena": "", "razlog_praznog": null}, "features": [{"type": "Feature", "geometry": {"type": "Polygon", "coordinates": [[[19.17, 41.895], [19.14, 41.895], [19.135, 41.87], [19.17, 41.845], [19.19, 41.845], [19.195, 41.87], [19.17, 41.895]]]}, "properties": {"score_mean": 12.6, "score_max": 18.7, "area_km2": 21.2, "centroid": [19.1652, 41.8709], "razlog": "termalni front + povoljna dubina", "dubina_panule_m": 29.9, "sst_raspon_C": 0.9, "sst_promjena_3d_C": 0.0, "upwelling": 0.0, "hladnije_C": -0.1, "izgledi": "slabi"}}, {"type": "Feature", "geometry": {"type": "Polygon", "coordinates": [[[19.23, 41.865], [19.205, 41.86], [19.205, 41.85], [19.195, 41.84], [19.2, 41.815], [19.225, 41.82], [19.225, 41.83], [19.235, 41.84], [19.23, 41.865]]]}, "properties": {"score_mean": 12.1, "score_max": 18.9, "area_km2": 14.8, "centroid": [19.215, 41.84], "razlog": "termalni front + povoljna dubina", "dubina_panule_m": 33.8, "sst_raspon_C": 1.0, "sst_promjena_3d_C": 0.0, "upwelling": 0.0, "hladnije_C": -0.1, "izgledi": "slabi"}}, {"type": "Feature", "geometry": {"type": "Polygon", "coordinates": [[[19.05, 41.975], [19.025, 41.97], [19.025, 41.94], [19.04, 41.925], [19.065, 41.93], [19.065, 41.95], [19.05, 41.975]]]}, "properties": {"score_mean": 4.4, "score_max": 14.1, "area_km2": 15.7, "centroid": [19.0441, 41.9494], "razlog": "povoljna dubina + termalni front", "dubina_panule_m": 50.0, "sst_raspon_C": 0.3, "sst_promjena_3d_C": 0.0, "upwelling": 0.0, "hladnije_C": 0.0, "izgledi": "vrlo slabi"}}, {"type": "Feature", "geometry": {"type": "Polygon", "coordinates": [[[18.72, 42.255], [18.7, 42.255], [18.675, 42.24], [18.675, 42.22], [18.7, 42.195], [18.74, 42.195], [18.745, 42.2], [18.745, 42.22], [18.72, 42.255]]]}, "properties": {"score_mean": 3.6, "score_max": 16.5, "area_km2": 30.3, "centroid": [18.7106, 42.2233], "razlog": "termalni front + povoljna dubina", "dubina_panule_m": 50.0, "sst_raspon_C": 0.6, "sst_promjena_3d_C": 0.0, "upwelling": 0.2, "hladnije_C": 0.1, "izgledi": "vrlo slabi"}}, {"type": "Feature", "geometry": {"type": "Polygon", "coordinates": [[[18.99, 42.075], [18.94, 42.075], [18.935, 42.05], [18.94, 42.045], [18.99, 42.045], [18.995, 42.05], [18.99, 42.075]]]}, "properties": {"score_mean": 1.6, "score_max": 6.7, "area_km2": 16.6, "centroid": [18.965, 42.06], "razlog": "termalni front + povoljna dubina", "dubina_panule_m": 50.0, "sst_raspon_C": 0.6, "sst_promjena_3d_C": 0.0, "upwelling": 0.0, "hladnije_C": -0.2, "izgledi": "vrlo slabi"}}, {"type": "Feature", "geometry": {"type": "Polygon", "coordinates": [[[18.5, 41.815], [18.475, 41.81], [18.48, 41.785], [18.505, 41.79], [18.5, 41.815]]]}, "properties": {"score_mean": 0.7, "score_max": 0.7, "area_km2": 8.3, "centroid": [18.49, 41.8], "razlog": "ivica selfa + povoljna dubina", "dubina_panule_m": 50.0, "sst_raspon_C": 0.5, "sst_promjena_3d_C": 0.0, "upwelling": 0.0, "hladnije_C": -0.1, "izgledi": "vrlo slabi"}}]}