{"type": "FeatureCollection", "properties": {"vrsta": "tuna", "naziv": "Tuna", "latinski": "Thunnus thynnus", "datum": "2026-08-31", "profil": null, "panula": {"dubina_m": [0.0, 50.0], "brzina_kn": [6.0, 8.0], "sati": "zora, sumrak i mijene struje", "granica_dubine_m": 50.0}, "vertikala": {"termoklina_m": 11.9, "termoklina_C_po_m": 0.3, "dcm_m": 91.2, "dcm_odnos": 1.0, "dcm_debljina_m": 33.7, "mld_m": 11.9, "sloj_plijena_m": [67.4, 100.5], "dohvatljivost": 0.0, "objasnjenje": "Termoklina na 12 m. Sloj plijena lezi pretezno ispod 50 m, dakle izvan dohvata panule. Najveca gustina hlorofila je na 91 m (sloj debljine 34 m) - tu se skuplja sitna riba koja se hrani planktonom, pa je i najveca vjerovatnoca da su grabljivice tu negdje."}, "bezbjednost": {"nivo": "zuto", "razlog": "vjetar 12 cv", "izlazak_preporucen": true}, "napomena": "", "razlog_praznog": null}, "features": [{"type": "Feature", "geometry": {"type": "Polygon", "coordinates": [[[19.22, 41.875], [19.195, 41.87], [19.195, 41.85], [19.21, 41.835], [19.22, 41.835], [19.23, 41.825], [19.25, 41.825], [19.26, 41.815], [19.29, 41.815], [19.295, 41.82], [19.29, 41.845], [19.26, 41.845], [19.24, 41.865], [19.23, 41.865], [19.22, 41.875]]]}, "properties": {"score_mean": 14.8, "score_max": 20.1, "area_km2": 31.4, "centroid": [19.2426, 41.8429], "razlog": "termalni front + gradijent hlorofila", "dubina_panule_m": 7.1, "sst_raspon_C": 0.7, "sst_promjena_3d_C": 0.4, "upwelling": 0.2, "hladnije_C": 0.1, "izgledi": "slabi"}}, {"type": "Feature", "geometry": {"type": "Polygon", "coordinates": [[[19.09, 42.015], [19.06, 42.015], [19.055, 42.01], [19.055, 41.96], [19.085, 41.93], [19.09, 41.915], [19.11, 41.915], [19.115, 41.94], [19.105, 41.95], [19.105, 41.97], [19.095, 41.98], [19.095, 42.01], [19.09, 42.015]]]}, "properties": {"score_mean": 11.2, "score_max": 17.2, "area_km2": 36.9, "centroid": [19.083, 41.967], "razlog": "termalni front + gradijent hlorofila", "dubina_panule_m": 7.1, "sst_raspon_C": 0.4, "sst_promjena_3d_C": 0.5, "upwelling": 0.0, "hladnije_C": 0.0, "izgledi": "vrlo slabi"}}, {"type": "Feature", "geometry": {"type": "Polygon", "coordinates": [[[18.66, 42.305], [18.63, 42.305], [18.625, 42.28], [18.675, 42.23], [18.675, 42.22], [18.69, 42.205], [18.7, 42.205], [18.71, 42.195], [18.73, 42.195], [18.735, 42.2], [18.735, 42.24], [18.71, 42.245], [18.705, 42.27], [18.67, 42.285], [18.66, 42.305]]]}, "properties": {"score_mean": 2.4, "score_max": 15.8, "area_km2": 54.1, "centroid": [18.6831, 42.2503], "razlog": "povoljna dubina + termalni front", "dubina_panule_m": 50.0, "sst_raspon_C": 0.5, "sst_promjena_3d_C": 0.5, "upwelling": 0.0, "hladnije_C": -0.0, "izgledi": "vrlo slabi"}}]}