{"type": "FeatureCollection", "properties": {"vrsta": "tuna", "naziv": "Tuna", "latinski": "Thunnus thynnus", "datum": "2026-08-26", "profil": null, "panula": {"dubina_m": [0.0, 50.0], "brzina_kn": [6.0, 8.0], "sati": "zora, sumrak i mijene struje", "granica_dubine_m": 50.0}, "vertikala": {"termoklina_m": 11.9, "termoklina_C_po_m": 0.1, "dcm_m": 91.2, "dcm_odnos": 1.0, "dcm_debljina_m": 33.4, "mld_m": 11.9, "sloj_plijena_m": [64.7, 100.5], "dohvatljivost": 0.0, "objasnjenje": "Termoklina na 12 m. Sloj plijena lezi pretezno ispod 50 m, dakle izvan dohvata panule. Najveca gustina hlorofila je na 91 m (sloj debljine 33 m) - tu se skuplja sitna riba koja se hrani planktonom, pa je i najveca vjerovatnoca da su grabljivice tu negdje."}, "bezbjednost": {"nivo": "zuto", "razlog": "talasi do 1.1 m", "izlazak_preporucen": true}, "napomena": "", "razlog_praznog": null}, "features": [{"type": "Feature", "geometry": {"type": "Polygon", "coordinates": [[[19.17, 41.895], [19.13, 41.895], [19.125, 41.87], [19.17, 41.835], [19.18, 41.835], [19.19, 41.815], [19.22, 41.815], [19.235, 41.84], [19.235, 41.86], [19.21, 41.865], [19.2, 41.845], [19.195, 41.87], [19.17, 41.895]]]}, "properties": {"score_mean": 11.8, "score_max": 18.9, "area_km2": 45.2, "centroid": [19.1806, 41.8569], "razlog": "termalni front + povoljna dubina", "dubina_panule_m": 7.1, "sst_raspon_C": 1.1, "sst_promjena_3d_C": 0.3, "upwelling": 0.0, "hladnije_C": -0.1, "izgledi": "vrlo slabi"}}, {"type": "Feature", "geometry": {"type": "Polygon", "coordinates": [[[18.72, 42.255], [18.7, 42.255], [18.675, 42.24], [18.675, 42.22], [18.7, 42.195], [18.74, 42.195], [18.745, 42.2], [18.745, 42.22], [18.72, 42.255]]]}, "properties": {"score_mean": 3.8, "score_max": 17.9, "area_km2": 30.3, "centroid": [18.7106, 42.2233], "razlog": "termalni front + povoljna dubina", "dubina_panule_m": 50.0, "sst_raspon_C": 0.6, "sst_promjena_3d_C": -0.2, "upwelling": 0.2, "hladnije_C": 0.1, "izgledi": "vrlo slabi"}}, {"type": "Feature", "geometry": {"type": "Polygon", "coordinates": [[[18.99, 42.075], [18.95, 42.075], [18.945, 42.05], [18.95, 42.045], [18.99, 42.045], [18.995, 42.05], [18.99, 42.075]]]}, "properties": {"score_mean": 1.3, "score_max": 4.1, "area_km2": 13.8, "centroid": [18.97, 42.06], "razlog": "termalni front + povoljna dubina", "dubina_panule_m": 50.0, "sst_raspon_C": 0.7, "sst_promjena_3d_C": 0.3, "upwelling": 0.0, "hladnije_C": -0.2, "izgledi": "vrlo slabi"}}, {"type": "Feature", "geometry": {"type": "Polygon", "coordinates": [[[18.49, 41.835], [18.465, 41.83], [18.465, 41.8], [18.49, 41.775], [18.52, 41.775], [18.53, 41.755], [18.55, 41.755], [18.555, 41.78], [18.55, 41.785], [18.52, 41.785], [18.505, 41.82], [18.49, 41.835]]]}, "properties": {"score_mean": 0.6, "score_max": 0.7, "area_km2": 30.5, "centroid": [18.5039, 41.7945], "razlog": "ivica selfa + povoljna dubina", "dubina_panule_m": 50.0, "sst_raspon_C": 0.2, "sst_promjena_3d_C": 0.1, "upwelling": 0.0, "hladnije_C": -0.1, "izgledi": "vrlo slabi"}}, {"type": "Feature", "geometry": {"type": "Polygon", "coordinates": [[[18.78, 42.115], [18.755, 42.11], [18.755, 42.07], [18.765, 42.06], [18.765, 42.05], [18.795, 42.02], [18.795, 41.99], [18.81, 41.975], [18.83, 41.975], [18.835, 41.98], [18.835, 42.03], [18.785, 42.09], [18.78, 42.115]]]}, "properties": {"score_mean": 0.6, "score_max": 0.7, "area_km2": 51.5, "centroid": [18.7959, 42.0434], "razlog": "termalni front + povoljna dubina", "dubina_panule_m": 50.0, "sst_raspon_C": 0.8, "sst_promjena_3d_C": 0.1, "upwelling": 0.4, "hladnije_C": 0.3, "izgledi": "vrlo slabi"}}, {"type": "Feature", "geometry": {"type": "Polygon", "coordinates": [[[18.91, 42.035], [18.88, 42.035], [18.875, 42.03], [18.875, 42.0], [18.88, 41.995], [18.91, 41.995], [18.915, 42.0], [18.915, 42.03], [18.91, 42.035]]]}, "properties": {"score_mean": 0.6, "score_max": 0.8, "area_km2": 14.7, "centroid": [18.895, 42.015], "razlog": "termalni front + povoljna dubina", "dubina_panule_m": 50.0, "sst_raspon_C": 0.5, "sst_promjena_3d_C": 0.1, "upwelling": 0.3, "hladnije_C": 0.1, "izgledi": "vrlo slabi"}}]}