{"type": "FeatureCollection", "properties": {"vrsta": "tuna", "naziv": "Tuna", "latinski": "Thunnus thynnus", "datum": "2026-08-25", "profil": null, "panula": {"dubina_m": [0.0, 50.0], "brzina_kn": [6.0, 8.0], "sati": "zora, sumrak i mijene struje", "granica_dubine_m": 50.0}, "vertikala": {"termoklina_m": 11.9, "termoklina_C_po_m": 0.1, "dcm_m": 91.2, "dcm_odnos": 1.0, "dcm_debljina_m": 36.4, "mld_m": 11.9, "sloj_plijena_m": [64.7, 103.3], "dohvatljivost": 0.0, "objasnjenje": "Termoklina na 12 m. Sloj plijena lezi pretezno ispod 50 m, dakle izvan dohvata panule. Najveca gustina hlorofila je na 91 m (sloj debljine 36 m) - tu se skuplja sitna riba koja se hrani planktonom, pa je i najveca vjerovatnoca da su grabljivice tu negdje."}, "bezbjednost": {"nivo": "zuto", "razlog": "vjetar 12 cv", "izlazak_preporucen": true}, "napomena": "", "razlog_praznog": null}, "features": [{"type": "Feature", "geometry": {"type": "Polygon", "coordinates": [[[19.17, 41.895], [19.13, 41.895], [19.125, 41.87], [19.17, 41.835], [19.19, 41.835], [19.2, 41.815], [19.22, 41.815], [19.235, 41.84], [19.235, 41.86], [19.21, 41.865], [19.2, 41.845], [19.195, 41.87], [19.17, 41.895]]]}, "properties": {"score_mean": 11.6, "score_max": 18.9, "area_km2": 43.4, "centroid": [19.1802, 41.8583], "razlog": "termalni front + povoljna dubina", "dubina_panule_m": 7.1, "sst_raspon_C": 1.1, "sst_promjena_3d_C": 0.9, "upwelling": 0.0, "hladnije_C": -0.1, "izgledi": "vrlo slabi"}}, {"type": "Feature", "geometry": {"type": "Polygon", "coordinates": [[[18.72, 42.255], [18.7, 42.255], [18.675, 42.24], [18.675, 42.22], [18.7, 42.195], [18.74, 42.195], [18.745, 42.2], [18.745, 42.22], [18.72, 42.255]]]}, "properties": {"score_mean": 3.9, "score_max": 17.9, "area_km2": 30.3, "centroid": [18.7106, 42.2233], "razlog": "termalni front + povoljna dubina", "dubina_panule_m": 50.0, "sst_raspon_C": 0.6, "sst_promjena_3d_C": 0.6, "upwelling": 0.2, "hladnije_C": 0.1, "izgledi": "vrlo slabi"}}, {"type": "Feature", "geometry": {"type": "Polygon", "coordinates": [[[18.99, 42.075], [18.94, 42.075], [18.935, 42.05], [18.94, 42.045], [18.99, 42.045], [18.995, 42.05], [18.99, 42.075]]]}, "properties": {"score_mean": 2.5, "score_max": 11.1, "area_km2": 16.6, "centroid": [18.965, 42.06], "razlog": "termalni front + povoljna dubina", "dubina_panule_m": 50.0, "sst_raspon_C": 0.6, "sst_promjena_3d_C": 0.7, "upwelling": 0.0, "hladnije_C": -0.2, "izgledi": "vrlo slabi"}}, {"type": "Feature", "geometry": {"type": "Polygon", "coordinates": [[[18.5, 41.815], [18.47, 41.815], [18.465, 41.79], [18.48, 41.775], [18.5, 41.775], [18.57, 41.705], [18.6, 41.705], [18.605, 41.73], [18.595, 41.74], [18.595, 41.75], [18.56, 41.785], [18.55, 41.785], [18.54, 41.795], [18.52, 41.795], [18.5, 41.815]]]}, "properties": {"score_mean": 0.6, "score_max": 1.1, "area_km2": 62.9, "centroid": [18.5403, 41.7618], "razlog": "ivica selfa + povoljna dubina", "dubina_panule_m": 50.0, "sst_raspon_C": 0.3, "sst_promjena_3d_C": 0.2, "upwelling": 0.0, "hladnije_C": -0.1, "izgledi": "vrlo slabi"}}, {"type": "Feature", "geometry": {"type": "Polygon", "coordinates": [[[18.82, 42.055], [18.795, 42.05], [18.795, 42.01], [18.805, 42.0], [18.81, 41.975], [18.83, 41.975], [18.835, 42.0], [18.845, 42.01], [18.845, 42.03], [18.82, 42.055]]]}, "properties": {"score_mean": 0.6, "score_max": 0.7, "area_km2": 28.5, "centroid": [18.8184, 42.0168], "razlog": "termalni front + povoljna dubina", "dubina_panule_m": 50.0, "sst_raspon_C": 0.8, "sst_promjena_3d_C": -0.2, "upwelling": 0.3, "hladnije_C": 0.2, "izgledi": "vrlo slabi"}}, {"type": "Feature", "geometry": {"type": "Polygon", "coordinates": [[[18.78, 42.105], [18.755, 42.1], [18.755, 42.08], [18.77, 42.055], [18.795, 42.06], [18.795, 42.08], [18.78, 42.105]]]}, "properties": {"score_mean": 0.6, "score_max": 0.7, "area_km2": 14.7, "centroid": [18.775, 42.08], "razlog": "termalni front + povoljna dubina", "dubina_panule_m": 50.0, "sst_raspon_C": 0.8, "sst_promjena_3d_C": -0.6, "upwelling": 0.3, "hladnije_C": 0.3, "izgledi": "vrlo slabi"}}]}