{"type": "FeatureCollection", "properties": {"vrsta": "tuna", "naziv": "Tuna", "latinski": "Thunnus thynnus", "datum": "2026-09-04", "profil": null, "panula": {"dubina_m": [0.0, 50.0], "brzina_kn": [6.0, 8.0], "sati": "zora, sumrak i mijene struje", "granica_dubine_m": 50.0}, "vertikala": {"termoklina_m": 14.8, "termoklina_C_po_m": 0.3, "dcm_m": 91.2, "dcm_odnos": 1.0, "dcm_debljina_m": 46.5, "mld_m": 11.9, "sloj_plijena_m": [58.0, 105.8], "dohvatljivost": 0.0, "objasnjenje": "Termoklina na 15 m. Sloj plijena lezi pretezno ispod 50 m, dakle izvan dohvata panule. Najveca gustina hlorofila je na 91 m (sloj debljine 46 m) - tu se skuplja sitna riba koja se hrani planktonom, pa je i najveca vjerovatnoca da su grabljivice tu negdje."}, "bezbjednost": {"nivo": "zuto", "razlog": "vjetar 14 cv", "izlazak_preporucen": true}, "napomena": "", "razlog_praznog": null}, "features": [{"type": "Feature", "geometry": {"type": "Polygon", "coordinates": [[[19.08, 42.025], [19.055, 42.02], [19.055, 42.0], [19.065, 41.99], [19.065, 41.96], [19.07, 41.955], [19.1, 41.955], [19.105, 41.96], [19.105, 42.01], [19.08, 42.025]]]}, "properties": {"score_mean": 22.1, "score_max": 26.8, "area_km2": 26.7, "centroid": [19.0817, 41.99], "razlog": "termalni front + gradijent hlorofila", "dubina_panule_m": 7.1, "sst_raspon_C": 0.4, "sst_promjena_3d_C": 0.0, "upwelling": 0.7, "hladnije_C": 0.4, "izgledi": "slabi"}}, {"type": "Feature", "geometry": {"type": "Polygon", "coordinates": [[[18.69, 42.315], [18.665, 42.31], [18.665, 42.28], [18.68, 42.265], [18.695, 42.26], [18.695, 42.24], [18.71, 42.225], [18.74, 42.225], [18.745, 42.23], [18.745, 42.26], [18.73, 42.275], [18.71, 42.275], [18.705, 42.3], [18.69, 42.315]]]}, "properties": {"score_mean": 9.5, "score_max": 15.8, "area_km2": 36.7, "centroid": [18.7048, 42.2675], "razlog": "povoljna dubina + termalni front", "dubina_panule_m": 50.0, "sst_raspon_C": 0.2, "sst_promjena_3d_C": 0.0, "upwelling": 0.0, "hladnije_C": 0.1, "izgledi": "vrlo slabi"}}, {"type": "Feature", "geometry": {"type": "Polygon", "coordinates": [[[18.94, 42.145], [18.915, 42.14], [18.915, 42.11], [18.92, 42.105], [18.945, 42.11], [18.945, 42.14], [18.94, 42.145]]]}, "properties": {"score_mean": 8.8, "score_max": 12.9, "area_km2": 11.0, "centroid": [18.93, 42.125], "razlog": "termalni front + prisustvo mamca", "dubina_panule_m": 46.7, "sst_raspon_C": 0.4, "sst_promjena_3d_C": 0.0, "upwelling": 0.0, "hladnije_C": 0.1, "izgledi": "vrlo slabi"}}, {"type": "Feature", "geometry": {"type": "Polygon", "coordinates": [[[18.87, 42.215], [18.845, 42.21], [18.85, 42.185], [18.875, 42.19], [18.87, 42.215]]]}, "properties": {"score_mean": 7.4, "score_max": 8.4, "area_km2": 8.3, "centroid": [18.86, 42.2], "razlog": "termalni front + prisustvo mamca", "dubina_panule_m": 42.1, "sst_raspon_C": 0.4, "sst_promjena_3d_C": 0.0, "upwelling": 0.0, "hladnije_C": -0.2, "izgledi": "vrlo slabi"}}, {"type": "Feature", "geometry": {"type": "Polygon", "coordinates": [[[18.75, 41.755], [18.725, 41.75], [18.725, 41.72], [18.75, 41.695], [18.79, 41.695], [18.795, 41.72], [18.77, 41.745], [18.76, 41.745], [18.75, 41.755]]]}, "properties": {"score_mean": 2.1, "score_max": 2.6, "area_km2": 29.6, "centroid": [18.7581, 41.7228], "razlog": "ivica selfa + povoljna dubina", "dubina_panule_m": 50.0, "sst_raspon_C": 0.2, "sst_promjena_3d_C": 0.0, "upwelling": 0.0, "hladnije_C": -0.0, "izgledi": "vrlo slabi"}}]}