{"type": "FeatureCollection", "properties": {"vrsta": "tuna", "naziv": "Tuna", "latinski": "Thunnus thynnus", "datum": "2026-09-01", "profil": null, "panula": {"dubina_m": [0.0, 50.0], "brzina_kn": [6.0, 8.0], "sati": "zora, sumrak i mijene struje", "granica_dubine_m": 50.0}, "vertikala": {"termoklina_m": 11.9, "termoklina_C_po_m": 0.3, "dcm_m": 91.2, "dcm_odnos": 1.0, "dcm_debljina_m": 31.0, "mld_m": 11.9, "sloj_plijena_m": [67.1, 100.5], "dohvatljivost": 0.0, "objasnjenje": "Termoklina na 12 m. Sloj plijena lezi pretezno ispod 50 m, dakle izvan dohvata panule. Najveca gustina hlorofila je na 91 m (sloj debljine 31 m) - tu se skuplja sitna riba koja se hrani planktonom, pa je i najveca vjerovatnoca da su grabljivice tu negdje."}, "bezbjednost": {"nivo": "zuto", "razlog": "vjetar 14 cv", "izlazak_preporucen": true}, "napomena": "", "razlog_praznog": null}, "features": [{"type": "Feature", "geometry": {"type": "Polygon", "coordinates": [[[19.08, 42.005], [19.04, 42.005], [19.035, 42.0], [19.035, 41.97], [19.06, 41.935], [19.08, 41.935], [19.085, 41.96], [19.095, 41.97], [19.095, 41.99], [19.08, 42.005]]]}, "properties": {"score_mean": 13.9, "score_max": 26.8, "area_km2": 31.3, "centroid": [19.0647, 41.9735], "razlog": "termalni front + prisustvo mamca", "dubina_panule_m": 7.1, "sst_raspon_C": 0.8, "sst_promjena_3d_C": -0.1, "upwelling": 0.5, "hladnije_C": 0.3, "izgledi": "slabi"}}, {"type": "Feature", "geometry": {"type": "Polygon", "coordinates": [[[19.19, 41.875], [19.165, 41.87], [19.165, 41.85], [19.18, 41.845], [19.185, 41.83], [19.22, 41.795], [19.28, 41.795], [19.285, 41.8], [19.285, 41.82], [19.275, 41.83], [19.27, 41.855], [19.2, 41.855], [19.19, 41.875]]]}, "properties": {"score_mean": 9.3, "score_max": 15.9, "area_km2": 54.5, "centroid": [19.229, 41.831], "razlog": "termalni front + prisustvo mamca", "dubina_panule_m": 7.1, "sst_raspon_C": 0.6, "sst_promjena_3d_C": 0.5, "upwelling": 0.3, "hladnije_C": 0.1, "izgledi": "vrlo slabi"}}]}