{"type": "FeatureCollection", "properties": {"vrsta": "tuna", "naziv": "Tuna", "latinski": "Thunnus thynnus", "datum": "2026-09-26", "profil": null, "panula": {"dubina_m": [0.0, 50.0], "brzina_kn": [6.0, 8.0], "sati": "zora, sumrak i mijene struje", "granica_dubine_m": 50.0}, "vertikala": {"termoklina_m": 31.8, "termoklina_C_po_m": 0.2, "dcm_m": 91.2, "dcm_odnos": 1.0, "dcm_debljina_m": 38.0, "mld_m": 21.2, "sloj_plijena_m": [67.6, 104.5], "dohvatljivost": 0.0, "objasnjenje": "Termoklina na 32 m. Sloj plijena lezi pretezno ispod 50 m, dakle izvan dohvata panule. Najveca gustina hlorofila je na 91 m (sloj debljine 38 m) - tu se skuplja sitna riba koja se hrani planktonom, pa je i najveca vjerovatnoca da su grabljivice tu negdje."}, "bezbjednost": {"nivo": "crveno", "razlog": "talasi do 1.0 m, vjetar 18 cv, udari 33 cv", "izlazak_preporucen": false}, "napomena": "", "razlog_praznog": null}, "features": [{"type": "Feature", "geometry": {"type": "Polygon", "coordinates": [[[19.06, 41.995], [19.035, 41.99], [19.035, 41.96], [19.045, 41.95], [19.045, 41.94], [19.07, 41.915], [19.1, 41.915], [19.105, 41.92], [19.105, 41.95], [19.07, 41.975], [19.06, 41.995]]]}, "properties": {"score_mean": 36.4, "score_max": 43.4, "area_km2": 34.1, "centroid": [19.0689, 41.9519], "razlog": "termalni front + gradijent hlorofila", "dubina_panule_m": 8.0, "sst_raspon_C": 0.9, "sst_promjena_3d_C": -1.2, "upwelling": 0.5, "hladnije_C": 0.3, "izgledi": "osrednji"}}, {"type": "Feature", "geometry": {"type": "Polygon", "coordinates": [[[18.7, 42.315], [18.67, 42.315], [18.665, 42.31], [18.665, 42.27], [18.69, 42.265], [18.695, 42.24], [18.71, 42.225], [18.74, 42.225], [18.745, 42.23], [18.745, 42.27], [18.74, 42.275], [18.71, 42.275], [18.7, 42.315]]]}, "properties": {"score_mean": 34.2, "score_max": 54.8, "area_km2": 39.4, "centroid": [18.7047, 42.2686], "razlog": "termalni front + povoljna dubina", "dubina_panule_m": 50.0, "sst_raspon_C": 0.6, "sst_promjena_3d_C": -0.9, "upwelling": 0.4, "hladnije_C": 0.3, "izgledi": "osrednji"}}, {"type": "Feature", "geometry": {"type": "Polygon", "coordinates": [[[18.945, 42.06], [18.92, 42.065], [18.895, 42.03], [18.895, 42.0], [18.92, 41.985], [18.945, 41.99], [18.945, 42.06]]]}, "properties": {"score_mean": 23.7, "score_max": 26.4, "area_km2": 31.3, "centroid": [18.9229, 42.0238], "razlog": "termalni front + prisustvo mamca", "dubina_panule_m": 11.7, "sst_raspon_C": 0.7, "sst_promjena_3d_C": -0.9, "upwelling": 0.0, "hladnije_C": -0.1, "izgledi": "slabi"}}, {"type": "Feature", "geometry": {"type": "Polygon", "coordinates": [[[18.69, 42.095], [18.67, 42.095], [18.655, 42.07], [18.665, 42.02], [18.67, 42.015], [18.7, 42.015], [18.71, 42.005], [18.74, 42.005], [18.745, 42.01], [18.745, 42.04], [18.725, 42.06], [18.725, 42.07], [18.71, 42.075], [18.69, 42.095]]]}, "properties": {"score_mean": 2.0, "score_max": 2.5, "area_km2": 52.5, "centroid": [18.6986, 42.0467], "razlog": "povoljna dubina + termalni front", "dubina_panule_m": 50.0, "sst_raspon_C": 0.5, "sst_promjena_3d_C": -0.2, "upwelling": 0.0, "hladnije_C": -0.2, "izgledi": "vrlo slabi"}}]}