{"type": "FeatureCollection", "properties": {"vrsta": "tuna", "naziv": "Tuna", "latinski": "Thunnus thynnus", "datum": "2026-09-03", "profil": null, "panula": {"dubina_m": [0.0, 50.0], "brzina_kn": [6.0, 8.0], "sati": "zora, sumrak i mijene struje", "granica_dubine_m": 50.0}, "vertikala": {"termoklina_m": 14.8, "termoklina_C_po_m": 0.3, "dcm_m": 91.2, "dcm_odnos": 1.0, "dcm_debljina_m": 46.5, "mld_m": 11.9, "sloj_plijena_m": [59.6, 108.0], "dohvatljivost": 0.0, "objasnjenje": "Termoklina na 15 m. Sloj plijena lezi pretezno ispod 50 m, dakle izvan dohvata panule. Najveca gustina hlorofila je na 91 m (sloj debljine 46 m) - tu se skuplja sitna riba koja se hrani planktonom, pa je i najveca vjerovatnoca da su grabljivice tu negdje."}, "bezbjednost": {"nivo": "crveno", "razlog": "vjetar 16 cv, udari 22 cv", "izlazak_preporucen": false}, "napomena": "", "razlog_praznog": null}, "features": [{"type": "Feature", "geometry": {"type": "Polygon", "coordinates": [[[19.03, 42.105], [19.005, 42.1], [19.005, 42.07], [19.01, 42.065], [19.04, 42.065], [19.045, 42.07], [19.045, 42.09], [19.03, 42.105]]]}, "properties": {"score_mean": 14.9, "score_max": 18.4, "area_km2": 13.8, "centroid": [19.024, 42.084], "razlog": "termalni front + prisustvo mamca", "dubina_panule_m": 7.1, "sst_raspon_C": 0.6, "sst_promjena_3d_C": -0.4, "upwelling": 0.0, "hladnije_C": 0.0, "izgledi": "slabi"}}, {"type": "Feature", "geometry": {"type": "Polygon", "coordinates": [[[19.08, 42.035], [19.055, 42.03], [19.055, 41.97], [19.09, 41.935], [19.11, 41.935], [19.125, 41.96], [19.125, 42.0], [19.11, 42.025], [19.09, 42.025], [19.08, 42.035]]]}, "properties": {"score_mean": 11.1, "score_max": 17.2, "area_km2": 51.6, "centroid": [19.0893, 41.9862], "razlog": "termalni front + prisustvo mamca", "dubina_panule_m": 7.1, "sst_raspon_C": 0.4, "sst_promjena_3d_C": -0.3, "upwelling": 0.3, "hladnije_C": 0.1, "izgledi": "vrlo slabi"}}, {"type": "Feature", "geometry": {"type": "Polygon", "coordinates": [[[18.7, 42.315], [18.66, 42.315], [18.655, 42.29], [18.67, 42.265], [18.695, 42.26], [18.695, 42.24], [18.71, 42.225], [18.74, 42.225], [18.745, 42.23], [18.745, 42.27], [18.74, 42.275], [18.71, 42.275], [18.7, 42.315]]]}, "properties": {"score_mean": 10.5, "score_max": 17.6, "area_km2": 42.2, "centroid": [18.7017, 42.2707], "razlog": "povoljna dubina + termalni front", "dubina_panule_m": 50.0, "sst_raspon_C": 0.3, "sst_promjena_3d_C": -0.5, "upwelling": 0.1, "hladnije_C": 0.0, "izgledi": "vrlo slabi"}}, {"type": "Feature", "geometry": {"type": "Polygon", "coordinates": [[[19.14, 41.865], [19.115, 41.86], [19.12, 41.835], [19.145, 41.84], [19.14, 41.865]]]}, "properties": {"score_mean": 9.5, "score_max": 14.7, "area_km2": 8.3, "centroid": [19.13, 41.85], "razlog": "gradijent hlorofila + termalni front", "dubina_panule_m": 7.1, "sst_raspon_C": 0.3, "sst_promjena_3d_C": -0.9, "upwelling": 0.0, "hladnije_C": 0.1, "izgledi": "vrlo slabi"}}, {"type": "Feature", "geometry": {"type": "Polygon", "coordinates": [[[18.87, 42.215], [18.845, 42.21], [18.85, 42.185], [18.875, 42.19], [18.87, 42.215]]]}, "properties": {"score_mean": 8.9, "score_max": 11.9, "area_km2": 8.3, "centroid": [18.86, 42.2], "razlog": "termalni front + prisustvo mamca", "dubina_panule_m": 42.1, "sst_raspon_C": 0.3, "sst_promjena_3d_C": -0.5, "upwelling": 0.0, "hladnije_C": -0.1, "izgledi": "vrlo slabi"}}, {"type": "Feature", "geometry": {"type": "Polygon", "coordinates": [[[18.94, 42.145], [18.915, 42.14], [18.92, 42.115], [18.945, 42.12], [18.94, 42.145]]]}, "properties": {"score_mean": 8.4, "score_max": 9.4, "area_km2": 8.3, "centroid": [18.93, 42.13], "razlog": "termalni front + prisustvo mamca", "dubina_panule_m": 46.7, "sst_raspon_C": 0.5, "sst_promjena_3d_C": -0.8, "upwelling": 0.2, "hladnije_C": 0.1, "izgledi": "vrlo slabi"}}]}