{"type": "FeatureCollection", "properties": {"vrsta": "tuna", "naziv": "Tuna", "latinski": "Thunnus thynnus", "datum": "2026-09-20", "profil": null, "panula": {"dubina_m": [0.0, 50.0], "brzina_kn": [6.0, 8.0], "sati": "zora, sumrak i mijene struje", "granica_dubine_m": 50.0}, "vertikala": {"termoklina_m": 24.5, "termoklina_C_po_m": 0.2, "dcm_m": 97.9, "dcm_odnos": 1.0, "dcm_debljina_m": 36.6, "mld_m": 12.7, "sloj_plijena_m": [58.4, 106.5], "dohvatljivost": 0.0, "objasnjenje": "Termoklina na 24 m. Sloj plijena lezi pretezno ispod 50 m, dakle izvan dohvata panule. Najveca gustina hlorofila je na 98 m (sloj debljine 37 m) - tu se skuplja sitna riba koja se hrani planktonom, pa je i najveca vjerovatnoca da su grabljivice tu negdje."}, "bezbjednost": {"nivo": "zuto", "razlog": "vjetar 12 cv", "izlazak_preporucen": true}, "napomena": "", "razlog_praznog": null}, "features": [{"type": "Feature", "geometry": {"type": "Polygon", "coordinates": [[[19.12, 41.835], [19.095, 41.83], [19.095, 41.79], [19.12, 41.765], [19.14, 41.765], [19.145, 41.77], [19.145, 41.82], [19.12, 41.835]]]}, "properties": {"score_mean": 38.5, "score_max": 48.4, "area_km2": 27.7, "centroid": [19.1207, 41.8007], "razlog": "termalni front + gradijent hlorofila", "dubina_panule_m": 7.1, "sst_raspon_C": 1.1, "sst_promjena_3d_C": 0.0, "upwelling": 0.0, "hladnije_C": -0.1, "izgledi": "osrednji"}}, {"type": "Feature", "geometry": {"type": "Polygon", "coordinates": [[[18.7, 42.315], [18.67, 42.315], [18.665, 42.31], [18.665, 42.28], [18.68, 42.265], [18.695, 42.26], [18.695, 42.24], [18.71, 42.225], [18.74, 42.225], [18.745, 42.23], [18.745, 42.27], [18.74, 42.275], [18.71, 42.275], [18.7, 42.315]]]}, "properties": {"score_mean": 28.6, "score_max": 44.4, "area_km2": 38.5, "centroid": [18.7055, 42.2686], "razlog": "termalni front + povoljna dubina", "dubina_panule_m": 33.8, "sst_raspon_C": 0.4, "sst_promjena_3d_C": 0.0, "upwelling": 0.0, "hladnije_C": -0.0, "izgledi": "osrednji"}}, {"type": "Feature", "geometry": {"type": "Polygon", "coordinates": [[[18.94, 41.995], [18.87, 41.995], [18.865, 41.97], [18.88, 41.955], [18.91, 41.945], [18.92, 41.935], [18.94, 41.935], [18.945, 41.94], [18.945, 41.99], [18.94, 41.995]]]}, "properties": {"score_mean": 22.5, "score_max": 26.7, "area_km2": 35.9, "centroid": [18.9097, 41.9695], "razlog": "termalni front + prisustvo mamca", "dubina_panule_m": 11.2, "sst_raspon_C": 0.4, "sst_promjena_3d_C": 0.0, "upwelling": 0.0, "hladnije_C": -0.1, "izgledi": "slabi"}}, {"type": "Feature", "geometry": {"type": "Polygon", "coordinates": [[[18.8, 42.065], [18.775, 42.06], [18.78, 42.035], [18.805, 42.04], [18.8, 42.065]]]}, "properties": {"score_mean": 21.0, "score_max": 24.0, "area_km2": 8.3, "centroid": [18.79, 42.05], "razlog": "termalni front + prisustvo mamca", "dubina_panule_m": 12.7, "sst_raspon_C": 0.4, "sst_promjena_3d_C": 0.0, "upwelling": 0.0, "hladnije_C": -0.0, "izgledi": "slabi"}}]}