{"type": "FeatureCollection", "properties": {"vrsta": "tuna", "naziv": "Tuna", "latinski": "Thunnus thynnus", "datum": "2026-09-05", "profil": null, "panula": {"dubina_m": [0.0, 50.0], "brzina_kn": [6.0, 8.0], "sati": "zora, sumrak i mijene struje", "granica_dubine_m": 50.0}, "vertikala": {"termoklina_m": 17.8, "termoklina_C_po_m": 0.4, "dcm_m": 91.2, "dcm_odnos": 1.0, "dcm_debljina_m": 42.6, "mld_m": 11.9, "sloj_plijena_m": [58.3, 102.9], "dohvatljivost": 0.0, "objasnjenje": "Termoklina na 18 m. Sloj plijena lezi pretezno ispod 50 m, dakle izvan dohvata panule. Najveca gustina hlorofila je na 91 m (sloj debljine 43 m) - tu se skuplja sitna riba koja se hrani planktonom, pa je i najveca vjerovatnoca da su grabljivice tu negdje."}, "bezbjednost": {"nivo": "zuto", "razlog": "vjetar 12 cv", "izlazak_preporucen": true}, "napomena": "", "razlog_praznog": null}, "features": [{"type": "Feature", "geometry": {"type": "Polygon", "coordinates": [[[19.08, 42.005], [19.055, 42.0], [19.055, 41.97], [19.075, 41.95], [19.09, 41.915], [19.11, 41.915], [19.115, 41.92], [19.115, 41.97], [19.08, 42.005]]]}, "properties": {"score_mean": 14.9, "score_max": 20.5, "area_km2": 34.1, "centroid": [19.0873, 41.9619], "razlog": "termalni front + gradijent hlorofila", "dubina_panule_m": 7.1, "sst_raspon_C": 0.8, "sst_promjena_3d_C": -0.3, "upwelling": 0.5, "hladnije_C": 0.4, "izgledi": "slabi"}}, {"type": "Feature", "geometry": {"type": "Polygon", "coordinates": [[[18.7, 42.315], [18.67, 42.315], [18.665, 42.31], [18.665, 42.28], [18.68, 42.265], [18.695, 42.26], [18.695, 42.23], [18.71, 42.215], [18.73, 42.215], [18.745, 42.23], [18.745, 42.27], [18.74, 42.275], [18.71, 42.275], [18.7, 42.315]]]}, "properties": {"score_mean": 13.5, "score_max": 23.0, "area_km2": 42.2, "centroid": [18.7063, 42.2646], "razlog": "termalni front + povoljna dubina", "dubina_panule_m": 33.8, "sst_raspon_C": 0.6, "sst_promjena_3d_C": -0.1, "upwelling": 0.0, "hladnije_C": 0.2, "izgledi": "slabi"}}, {"type": "Feature", "geometry": {"type": "Polygon", "coordinates": [[[18.87, 42.225], [18.84, 42.225], [18.835, 42.22], [18.835, 42.19], [18.85, 42.175], [18.875, 42.18], [18.875, 42.22], [18.87, 42.225]]]}, "properties": {"score_mean": 8.6, "score_max": 12.3, "area_km2": 17.4, "centroid": [18.8558, 42.2011], "razlog": "termalni front + gradijent hlorofila", "dubina_panule_m": 42.1, "sst_raspon_C": 1.2, "sst_promjena_3d_C": 0.3, "upwelling": 0.0, "hladnije_C": -0.0, "izgledi": "vrlo slabi"}}, {"type": "Feature", "geometry": {"type": "Polygon", "coordinates": [[[18.73, 41.775], [18.7, 41.775], [18.695, 41.75], [18.72, 41.725], [18.73, 41.725], [18.74, 41.715], [18.76, 41.715], [18.765, 41.72], [18.765, 41.75], [18.73, 41.775]]]}, "properties": {"score_mean": 1.2, "score_max": 1.5, "area_km2": 28.7, "centroid": [18.7316, 41.7465], "razlog": "ivica selfa + povoljna dubina", "dubina_panule_m": 50.0, "sst_raspon_C": 0.1, "sst_promjena_3d_C": 0.1, "upwelling": 0.0, "hladnije_C": 0.0, "izgledi": "vrlo slabi"}}]}