{"type": "FeatureCollection", "properties": {"vrsta": "tuna", "naziv": "Tuna", "latinski": "Thunnus thynnus", "datum": "2026-08-29", "profil": null, "panula": {"dubina_m": [0.0, 50.0], "brzina_kn": [6.0, 8.0], "sati": "zora, sumrak i mijene struje", "granica_dubine_m": 50.0}, "vertikala": {"termoklina_m": 11.9, "termoklina_C_po_m": 0.2, "dcm_m": 91.2, "dcm_odnos": 1.0, "dcm_debljina_m": 33.7, "mld_m": 11.9, "sloj_plijena_m": [67.1, 100.5], "dohvatljivost": 0.0, "objasnjenje": "Termoklina na 12 m. Sloj plijena lezi pretezno ispod 50 m, dakle izvan dohvata panule. Najveca gustina hlorofila je na 91 m (sloj debljine 34 m) - tu se skuplja sitna riba koja se hrani planktonom, pa je i najveca vjerovatnoca da su grabljivice tu negdje."}, "bezbjednost": {"nivo": "zeleno", "razlog": "uslovi povoljni", "izlazak_preporucen": true}, "napomena": "", "razlog_praznog": null}, "features": [{"type": "Feature", "geometry": {"type": "Polygon", "coordinates": [[[19.25, 41.855], [19.225, 41.85], [19.225, 41.82], [19.23, 41.815], [19.255, 41.82], [19.255, 41.85], [19.25, 41.855]]]}, "properties": {"score_mean": 15.0, "score_max": 18.8, "area_km2": 11.1, "centroid": [19.24, 41.835], "razlog": "termalni front + gradijent hlorofila", "dubina_panule_m": 7.1, "sst_raspon_C": 0.6, "sst_promjena_3d_C": -0.8, "upwelling": 0.1, "hladnije_C": 0.0, "izgledi": "slabi"}}, {"type": "Feature", "geometry": {"type": "Polygon", "coordinates": [[[19.2, 41.855], [19.175, 41.85], [19.18, 41.825], [19.205, 41.83], [19.2, 41.855]]]}, "properties": {"score_mean": 9.7, "score_max": 13.9, "area_km2": 8.3, "centroid": [19.19, 41.84], "razlog": "termalni front + prisustvo mamca", "dubina_panule_m": 7.1, "sst_raspon_C": 0.5, "sst_promjena_3d_C": -0.7, "upwelling": 0.0, "hladnije_C": -0.1, "izgledi": "vrlo slabi"}}, {"type": "Feature", "geometry": {"type": "Polygon", "coordinates": [[[19.1, 41.915], [19.07, 41.915], [19.065, 41.91], [19.065, 41.88], [19.09, 41.875], [19.095, 41.86], [19.11, 41.845], [19.13, 41.845], [19.135, 41.85], [19.135, 41.89], [19.11, 41.895], [19.1, 41.915]]]}, "properties": {"score_mean": 3.3, "score_max": 15.5, "area_km2": 30.4, "centroid": [19.1018, 41.8818], "razlog": "termalni front + gradijent hlorofila", "dubina_panule_m": 50.0, "sst_raspon_C": 0.3, "sst_promjena_3d_C": -0.6, "upwelling": 0.0, "hladnije_C": -0.0, "izgledi": "vrlo slabi"}}, {"type": "Feature", "geometry": {"type": "Polygon", "coordinates": [[[19.06, 41.955], [19.02, 41.955], [19.015, 41.95], [19.015, 41.92], [19.02, 41.915], [19.06, 41.915], [19.065, 41.92], [19.065, 41.95], [19.06, 41.955]]]}, "properties": {"score_mean": 2.9, "score_max": 15.9, "area_km2": 18.4, "centroid": [19.04, 41.935], "razlog": "termalni front + gradijent hlorofila", "dubina_panule_m": 50.0, "sst_raspon_C": 0.4, "sst_promjena_3d_C": -0.5, "upwelling": 0.0, "hladnije_C": -0.1, "izgledi": "vrlo slabi"}}, {"type": "Feature", "geometry": {"type": "Polygon", "coordinates": [[[19.05, 41.715], [19.025, 41.71], [19.025, 41.7], [19.015, 41.69], [19.02, 41.665], [19.045, 41.67], [19.045, 41.68], [19.055, 41.69], [19.05, 41.715]]]}, "properties": {"score_mean": 0.7, "score_max": 0.8, "area_km2": 14.8, "centroid": [19.035, 41.69], "razlog": "povoljna dubina + termalni front", "dubina_panule_m": 50.0, "sst_raspon_C": 0.3, "sst_promjena_3d_C": -0.7, "upwelling": 0.0, "hladnije_C": 0.0, "izgledi": "vrlo slabi"}}, {"type": "Feature", "geometry": {"type": "Polygon", "coordinates": [[[18.86, 41.955], [18.79, 41.955], [18.785, 41.93], [18.79, 41.925], [18.86, 41.925], [18.865, 41.93], [18.86, 41.955]]]}, "properties": {"score_mean": 0.7, "score_max": 0.8, "area_km2": 22.1, "centroid": [18.825, 41.94], "razlog": "termalni front + povoljna dubina", "dubina_panule_m": 50.0, "sst_raspon_C": 0.5, "sst_promjena_3d_C": -0.9, "upwelling": 0.3, "hladnije_C": 0.1, "izgledi": "vrlo slabi"}}]}