{"type": "FeatureCollection", "properties": {"vrsta": "tuna", "naziv": "Tuna", "latinski": "Thunnus thynnus", "datum": "2026-10-05", "profil": null, "panula": {"dubina_m": [0.0, 50.0], "brzina_kn": [6.0, 8.0], "sati": "zora, sumrak i mijene struje", "granica_dubine_m": 50.0}, "vertikala": {"termoklina_m": 40.0, "termoklina_C_po_m": 0.1, "dcm_m": 97.9, "dcm_odnos": 1.0, "dcm_debljina_m": 39.8, "mld_m": 16.4, "sloj_plijena_m": [69.2, 109.0], "dohvatljivost": 0.0, "objasnjenje": "Termoklina na 40 m. Sloj plijena lezi pretezno ispod 50 m, dakle izvan dohvata panule. Najveca gustina hlorofila je na 98 m (sloj debljine 40 m) - tu se skuplja sitna riba koja se hrani planktonom, pa je i najveca vjerovatnoca da su grabljivice tu negdje."}, "bezbjednost": {"nivo": "zuto", "razlog": "vjetar 12 cv", "izlazak_preporucen": true}, "napomena": "", "razlog_praznog": null}, "features": [{"type": "Feature", "geometry": {"type": "Polygon", "coordinates": [[[18.7, 42.315], [18.67, 42.315], [18.665, 42.31], [18.665, 42.28], [18.695, 42.27], [18.695, 42.24], [18.71, 42.225], [18.74, 42.225], [18.745, 42.23], [18.745, 42.27], [18.74, 42.275], [18.71, 42.275], [18.7, 42.315]]]}, "properties": {"score_mean": 30.9, "score_max": 43.0, "area_km2": 36.7, "centroid": [18.7065, 42.2685], "razlog": "termalni front + povoljna dubina", "dubina_panule_m": 9.9, "sst_raspon_C": 0.4, "sst_promjena_3d_C": 0.0, "upwelling": 0.3, "hladnije_C": 0.3, "izgledi": "osrednji"}}, {"type": "Feature", "geometry": {"type": "Polygon", "coordinates": [[[18.91, 42.185], [18.88, 42.185], [18.875, 42.18], [18.875, 42.16], [18.89, 42.145], [18.915, 42.15], [18.915, 42.18], [18.91, 42.185]]]}, "properties": {"score_mean": 29.7, "score_max": 35.1, "area_km2": 13.8, "centroid": [18.896, 42.166], "razlog": "termalni front + prisustvo mamca", "dubina_panule_m": 11.1, "sst_raspon_C": 1.0, "sst_promjena_3d_C": 0.0, "upwelling": 0.0, "hladnije_C": -0.0, "izgledi": "osrednji"}}, {"type": "Feature", "geometry": {"type": "Polygon", "coordinates": [[[18.94, 42.145], [18.915, 42.14], [18.92, 42.115], [18.945, 42.12], [18.94, 42.145]]]}, "properties": {"score_mean": 27.9, "score_max": 32.4, "area_km2": 8.3, "centroid": [18.93, 42.13], "razlog": "termalni front + prisustvo mamca", "dubina_panule_m": 10.4, "sst_raspon_C": 1.1, "sst_promjena_3d_C": 0.0, "upwelling": 0.0, "hladnije_C": 0.0, "izgledi": "osrednji"}}, {"type": "Feature", "geometry": {"type": "Polygon", "coordinates": [[[18.87, 42.215], [18.845, 42.21], [18.85, 42.185], [18.875, 42.19], [18.87, 42.215]]]}, "properties": {"score_mean": 27.2, "score_max": 30.7, "area_km2": 8.3, "centroid": [18.86, 42.2], "razlog": "termalni front + prisustvo mamca", "dubina_panule_m": 11.4, "sst_raspon_C": 0.9, "sst_promjena_3d_C": 0.0, "upwelling": 0.0, "hladnije_C": -0.0, "izgledi": "osrednji"}}, {"type": "Feature", "geometry": {"type": "Polygon", "coordinates": [[[19.02, 42.085], [18.995, 42.08], [19.0, 42.055], [19.025, 42.06], [19.02, 42.085]]]}, "properties": {"score_mean": 26.1, "score_max": 30.2, "area_km2": 8.3, "centroid": [19.01, 42.07], "razlog": "termalni front + prisustvo mamca", "dubina_panule_m": 9.8, "sst_raspon_C": 0.7, "sst_promjena_3d_C": 0.0, "upwelling": 0.1, "hladnije_C": 0.0, "izgledi": "osrednji"}}, {"type": "Feature", "geometry": {"type": "Polygon", "coordinates": [[[18.945, 42.0], [18.92, 42.005], [18.885, 41.95], [18.885, 41.92], [18.9, 41.905], [18.94, 41.905], [18.945, 41.91], [18.945, 42.0]]]}, "properties": {"score_mean": 4.5, "score_max": 18.9, "area_km2": 45.2, "centroid": [18.9192, 41.9496], "razlog": "termalni front + povoljna dubina", "dubina_panule_m": 12.0, "sst_raspon_C": 0.3, "sst_promjena_3d_C": 0.0, "upwelling": 0.0, "hladnije_C": 0.2, "izgledi": "vrlo slabi"}}]}