{"type": "FeatureCollection", "properties": {"vrsta": "tuna", "naziv": "Tuna", "latinski": "Thunnus thynnus", "datum": "2026-09-14", "profil": null, "panula": {"dubina_m": [0.0, 50.0], "brzina_kn": [6.0, 8.0], "sati": "zora, sumrak i mijene struje", "granica_dubine_m": 50.0}, "vertikala": {"termoklina_m": 21.1, "termoklina_C_po_m": 0.3, "dcm_m": 97.9, "dcm_odnos": 1.0, "dcm_debljina_m": 40.7, "mld_m": 14.8, "sloj_plijena_m": [51.8, 102.9], "dohvatljivost": 0.0, "objasnjenje": "Termoklina na 21 m. Sloj plijena lezi pretezno ispod 50 m, dakle izvan dohvata panule. Najveca gustina hlorofila je na 98 m (sloj debljine 41 m) - tu se skuplja sitna riba koja se hrani planktonom, pa je i najveca vjerovatnoca da su grabljivice tu negdje."}, "bezbjednost": {"nivo": "crveno", "razlog": "talasi do 1.1 m, vjetar 15 cv, udari 20 cv", "izlazak_preporucen": false}, "napomena": "", "razlog_praznog": null}, "features": [{"type": "Feature", "geometry": {"type": "Polygon", "coordinates": [[[19.09, 41.825], [19.065, 41.82], [19.065, 41.77], [19.07, 41.765], [19.1, 41.765], [19.115, 41.78], [19.115, 41.8], [19.09, 41.825]]]}, "properties": {"score_mean": 26.5, "score_max": 30.0, "area_km2": 24.0, "centroid": [19.0873, 41.7935], "razlog": "termalni front + prisustvo mamca", "dubina_panule_m": 10.6, "sst_raspon_C": 0.6, "sst_promjena_3d_C": -0.7, "upwelling": 0.2, "hladnije_C": 0.2, "izgledi": "osrednji"}}, {"type": "Feature", "geometry": {"type": "Polygon", "coordinates": [[[18.945, 41.99], [18.92, 41.995], [18.91, 41.985], [18.88, 41.985], [18.875, 41.98], [18.875, 41.95], [18.89, 41.945], [18.92, 41.905], [18.945, 41.91], [18.945, 41.99]]]}, "properties": {"score_mean": 19.8, "score_max": 26.7, "area_km2": 43.3, "centroid": [18.9162, 41.9536], "razlog": "termalni front + prisustvo mamca", "dubina_panule_m": 10.0, "sst_raspon_C": 0.8, "sst_promjena_3d_C": -0.7, "upwelling": 0.2, "hladnije_C": 0.1, "izgledi": "slabi"}}, {"type": "Feature", "geometry": {"type": "Polygon", "coordinates": [[[18.69, 42.305], [18.665, 42.3], [18.67, 42.275], [18.695, 42.28], [18.69, 42.305]]]}, "properties": {"score_mean": 19.1, "score_max": 22.9, "area_km2": 8.3, "centroid": [18.68, 42.29], "razlog": "termalni front + povoljna dubina", "dubina_panule_m": 8.3, "sst_raspon_C": 0.5, "sst_promjena_3d_C": -0.4, "upwelling": 0.0, "hladnije_C": -0.1, "izgledi": "slabi"}}, {"type": "Feature", "geometry": {"type": "Polygon", "coordinates": [[[18.73, 42.275], [18.7, 42.275], [18.695, 42.27], [18.695, 42.25], [18.71, 42.235], [18.74, 42.235], [18.745, 42.24], [18.745, 42.26], [18.73, 42.275]]]}, "properties": {"score_mean": 16.3, "score_max": 21.3, "area_km2": 16.5, "centroid": [18.72, 42.255], "razlog": "termalni front + povoljna dubina", "dubina_panule_m": 33.8, "sst_raspon_C": 0.4, "sst_promjena_3d_C": -0.6, "upwelling": 0.0, "hladnije_C": -0.0, "izgledi": "slabi"}}]}