{"type": "FeatureCollection", "properties": {"vrsta": "tuna", "naziv": "Tuna", "latinski": "Thunnus thynnus", "datum": "2026-10-02", "profil": null, "panula": {"dubina_m": [0.0, 50.0], "brzina_kn": [6.0, 8.0], "sati": "zora, sumrak i mijene struje", "granica_dubine_m": 50.0}, "vertikala": {"termoklina_m": 35.8, "termoklina_C_po_m": 0.1, "dcm_m": 97.9, "dcm_odnos": 1.0, "dcm_debljina_m": 40.7, "mld_m": 19.4, "sloj_plijena_m": [67.5, 111.8], "dohvatljivost": 0.0, "objasnjenje": "Termoklina na 36 m. Sloj plijena lezi pretezno ispod 50 m, dakle izvan dohvata panule. Najveca gustina hlorofila je na 98 m (sloj debljine 41 m) - tu se skuplja sitna riba koja se hrani planktonom, pa je i najveca vjerovatnoca da su grabljivice tu negdje."}, "bezbjednost": {"nivo": "zuto", "razlog": "talasi do 1.1 m", "izlazak_preporucen": true}, "napomena": "", "razlog_praznog": null}, "features": [{"type": "Feature", "geometry": {"type": "Polygon", "coordinates": [[[18.7, 42.315], [18.67, 42.315], [18.665, 42.31], [18.665, 42.28], [18.67, 42.275], [18.7, 42.275], [18.705, 42.28], [18.705, 42.31], [18.7, 42.315]]]}, "properties": {"score_mean": 38.2, "score_max": 45.4, "area_km2": 14.7, "centroid": [18.685, 42.295], "razlog": "termalni front + povoljna dubina", "dubina_panule_m": 8.8, "sst_raspon_C": 0.8, "sst_promjena_3d_C": 0.0, "upwelling": 0.0, "hladnije_C": -0.4, "izgledi": "osrednji"}}, {"type": "Feature", "geometry": {"type": "Polygon", "coordinates": [[[18.73, 42.275], [18.705, 42.27], [18.705, 42.24], [18.71, 42.235], [18.74, 42.235], [18.745, 42.24], [18.745, 42.26], [18.73, 42.275]]]}, "properties": {"score_mean": 33.5, "score_max": 37.7, "area_km2": 13.8, "centroid": [18.724, 42.254], "razlog": "termalni front + povoljna dubina", "dubina_panule_m": 9.4, "sst_raspon_C": 0.8, "sst_promjena_3d_C": 0.0, "upwelling": 0.0, "hladnije_C": -0.2, "izgledi": "osrednji"}}, {"type": "Feature", "geometry": {"type": "Polygon", "coordinates": [[[18.875, 42.22], [18.85, 42.225], [18.835, 42.21], [18.84, 42.185], [18.87, 42.185], [18.875, 42.19], [18.875, 42.22]]]}, "properties": {"score_mean": 26.6, "score_max": 36.9, "area_km2": 13.8, "centroid": [18.856, 42.204], "razlog": "termalni front + prisustvo mamca", "dubina_panule_m": 9.9, "sst_raspon_C": 0.9, "sst_promjena_3d_C": 0.0, "upwelling": 0.0, "hladnije_C": 0.4, "izgledi": "osrednji"}}, {"type": "Feature", "geometry": {"type": "Polygon", "coordinates": [[[18.9, 42.185], [18.875, 42.18], [18.875, 42.16], [18.89, 42.145], [18.915, 42.15], [18.915, 42.17], [18.9, 42.185]]]}, "properties": {"score_mean": 23.9, "score_max": 27.2, "area_km2": 12.9, "centroid": [18.895, 42.165], "razlog": "termalni front + prisustvo mamca", "dubina_panule_m": 9.9, "sst_raspon_C": 0.7, "sst_promjena_3d_C": 0.0, "upwelling": 0.3, "hladnije_C": 0.4, "izgledi": "slabi"}}, {"type": "Feature", "geometry": {"type": "Polygon", "coordinates": [[[19.04, 42.095], [19.01, 42.095], [19.005, 42.09], [19.005, 42.06], [19.015, 42.05], [19.015, 42.04], [19.045, 42.01], [19.045, 41.97], [19.07, 41.965], [19.075, 41.97], [19.075, 42.05], [19.06, 42.065], [19.045, 42.07], [19.04, 42.095]]]}, "properties": {"score_mean": 23.8, "score_max": 41.8, "area_km2": 49.7, "centroid": [19.0448, 42.0359], "razlog": "termalni front + prisustvo mamca", "dubina_panule_m": 9.3, "sst_raspon_C": 0.6, "sst_promjena_3d_C": 0.0, "upwelling": 0.0, "hladnije_C": -0.3, "izgledi": "slabi"}}, {"type": "Feature", "geometry": {"type": "Polygon", "coordinates": [[[19.08, 41.935], [19.055, 41.93], [19.06, 41.905], [19.085, 41.91], [19.08, 41.935]]]}, "properties": {"score_mean": 20.7, "score_max": 22.6, "area_km2": 8.3, "centroid": [19.07, 41.92], "razlog": "termalni front + prisustvo mamca", "dubina_panule_m": 11.9, "sst_raspon_C": 0.4, "sst_promjena_3d_C": 0.0, "upwelling": 0.0, "hladnije_C": 0.1, "izgledi": "slabi"}}]}