{"type": "FeatureCollection", "properties": {"vrsta": "tuna", "naziv": "Tuna", "latinski": "Thunnus thynnus", "datum": "2026-09-16", "profil": null, "panula": {"dubina_m": [0.0, 50.0], "brzina_kn": [6.0, 8.0], "sati": "zora, sumrak i mijene struje", "granica_dubine_m": 50.0}, "vertikala": {"termoklina_m": 24.5, "termoklina_C_po_m": 0.3, "dcm_m": 97.9, "dcm_odnos": 1.0, "dcm_debljina_m": 39.6, "mld_m": 17.1, "sloj_plijena_m": [56.8, 102.9], "dohvatljivost": 0.0, "objasnjenje": "Termoklina na 24 m. Sloj plijena lezi pretezno ispod 50 m, dakle izvan dohvata panule. Najveca gustina hlorofila je na 98 m (sloj debljine 40 m) - tu se skuplja sitna riba koja se hrani planktonom, pa je i najveca vjerovatnoca da su grabljivice tu negdje."}, "bezbjednost": {"nivo": "zeleno", "razlog": "uslovi povoljni", "izlazak_preporucen": true}, "napomena": "", "razlog_praznog": null}, "features": [{"type": "Feature", "geometry": {"type": "Polygon", "coordinates": [[[19.09, 41.825], [19.065, 41.82], [19.065, 41.78], [19.08, 41.765], [19.12, 41.765], [19.125, 41.79], [19.09, 41.825]]]}, "properties": {"score_mean": 29.9, "score_max": 35.9, "area_km2": 26.8, "centroid": [19.0921, 41.7921], "razlog": "termalni front + prisustvo mamca", "dubina_panule_m": 9.7, "sst_raspon_C": 0.8, "sst_promjena_3d_C": -0.6, "upwelling": 0.0, "hladnije_C": 0.1, "izgledi": "osrednji"}}, {"type": "Feature", "geometry": {"type": "Polygon", "coordinates": [[[18.73, 42.275], [18.705, 42.27], [18.705, 42.23], [18.71, 42.225], [18.74, 42.225], [18.745, 42.23], [18.745, 42.26], [18.73, 42.275]]]}, "properties": {"score_mean": 23.5, "score_max": 28.7, "area_km2": 17.4, "centroid": [18.7242, 42.2489], "razlog": "termalni front + povoljna dubina", "dubina_panule_m": 33.8, "sst_raspon_C": 0.5, "sst_promjena_3d_C": -0.5, "upwelling": 0.0, "hladnije_C": -0.1, "izgledi": "slabi"}}, {"type": "Feature", "geometry": {"type": "Polygon", "coordinates": [[[18.94, 42.005], [18.9, 42.005], [18.89, 41.995], [18.86, 41.985], [18.855, 41.98], [18.855, 41.95], [18.86, 41.945], [18.94, 41.945], [18.945, 41.95], [18.945, 42.0], [18.94, 42.005]]]}, "properties": {"score_mean": 20.9, "score_max": 28.8, "area_km2": 44.2, "centroid": [18.9035, 41.9723], "razlog": "termalni front + prisustvo mamca", "dubina_panule_m": 12.4, "sst_raspon_C": 0.6, "sst_promjena_3d_C": -0.9, "upwelling": 0.0, "hladnije_C": 0.0, "izgledi": "slabi"}}]}