{"type": "FeatureCollection", "properties": {"vrsta": "tuna", "naziv": "Tuna", "latinski": "Thunnus thynnus", "datum": "2026-09-24", "profil": null, "panula": {"dubina_m": [0.0, 50.0], "brzina_kn": [6.0, 8.0], "sati": "zora, sumrak i mijene struje", "granica_dubine_m": 50.0}, "vertikala": {"termoklina_m": 31.8, "termoklina_C_po_m": 0.2, "dcm_m": 97.9, "dcm_odnos": 1.0, "dcm_debljina_m": 41.3, "mld_m": 20.3, "sloj_plijena_m": [64.8, 108.5], "dohvatljivost": 0.0, "objasnjenje": "Termoklina na 32 m. Sloj plijena lezi pretezno ispod 50 m, dakle izvan dohvata panule. Najveca gustina hlorofila je na 98 m (sloj debljine 41 m) - tu se skuplja sitna riba koja se hrani planktonom, pa je i najveca vjerovatnoca da su grabljivice tu negdje."}, "bezbjednost": {"nivo": "crveno", "razlog": "vjetar 16 cv, udari 26 cv", "izlazak_preporucen": false}, "napomena": "", "razlog_praznog": null}, "features": [{"type": "Feature", "geometry": {"type": "Polygon", "coordinates": [[[19.11, 41.965], [19.08, 41.965], [19.075, 41.96], [19.075, 41.93], [19.09, 41.915], [19.115, 41.92], [19.115, 41.96], [19.11, 41.965]]]}, "properties": {"score_mean": 33.9, "score_max": 39.8, "area_km2": 17.5, "centroid": [19.0958, 41.9411], "razlog": "termalni front + gradijent hlorofila", "dubina_panule_m": 8.6, "sst_raspon_C": 0.7, "sst_promjena_3d_C": 0.3, "upwelling": 0.2, "hladnije_C": 0.0, "izgledi": "osrednji"}}, {"type": "Feature", "geometry": {"type": "Polygon", "coordinates": [[[18.78, 42.045], [18.75, 42.045], [18.745, 42.02], [18.77, 41.995], [18.8, 41.995], [18.805, 42.02], [18.78, 42.045]]]}, "properties": {"score_mean": 26.8, "score_max": 38.8, "area_km2": 22.1, "centroid": [18.775, 42.02], "razlog": "termalni front + povoljna dubina", "dubina_panule_m": 15.5, "sst_raspon_C": 0.3, "sst_promjena_3d_C": 0.3, "upwelling": 0.0, "hladnije_C": 0.1, "izgledi": "osrednji"}}, {"type": "Feature", "geometry": {"type": "Polygon", "coordinates": [[[18.69, 42.315], [18.665, 42.31], [18.665, 42.28], [18.68, 42.265], [18.695, 42.26], [18.695, 42.24], [18.71, 42.225], [18.74, 42.225], [18.745, 42.23], [18.745, 42.27], [18.74, 42.275], [18.71, 42.275], [18.705, 42.3], [18.69, 42.315]]]}, "properties": {"score_mean": 24.2, "score_max": 35.2, "area_km2": 37.6, "centroid": [18.7056, 42.2676], "razlog": "povoljna dubina + termalni front", "dubina_panule_m": 8.8, "sst_raspon_C": 0.2, "sst_promjena_3d_C": 0.2, "upwelling": 0.0, "hladnije_C": -0.0, "izgledi": "slabi"}}, {"type": "Feature", "geometry": {"type": "Polygon", "coordinates": [[[18.92, 42.045], [18.895, 42.04], [18.9, 42.015], [18.925, 42.02], [18.92, 42.045]]]}, "properties": {"score_mean": 13.4, "score_max": 16.4, "area_km2": 8.3, "centroid": [18.91, 42.03], "razlog": "prisustvo mamca + termalni front", "dubina_panule_m": 12.1, "sst_raspon_C": 0.1, "sst_promjena_3d_C": 0.1, "upwelling": 0.0, "hladnije_C": -0.0, "izgledi": "slabi"}}]}