{"type": "FeatureCollection", "properties": {"vrsta": "tuna", "naziv": "Tuna", "latinski": "Thunnus thynnus", "datum": "2026-09-18", "profil": null, "panula": {"dubina_m": [0.0, 50.0], "brzina_kn": [6.0, 8.0], "sati": "zora, sumrak i mijene struje", "granica_dubine_m": 50.0}, "vertikala": {"termoklina_m": 28.0, "termoklina_C_po_m": 0.2, "dcm_m": 97.9, "dcm_odnos": 1.0, "dcm_debljina_m": 34.9, "mld_m": 15.0, "sloj_plijena_m": [59.4, 104.5], "dohvatljivost": 0.0, "objasnjenje": "Termoklina na 28 m. Sloj plijena lezi pretezno ispod 50 m, dakle izvan dohvata panule. Najveca gustina hlorofila je na 98 m (sloj debljine 35 m) - tu se skuplja sitna riba koja se hrani planktonom, pa je i najveca vjerovatnoca da su grabljivice tu negdje."}, "bezbjednost": {"nivo": "zeleno", "razlog": "uslovi povoljni", "izlazak_preporucen": true}, "napomena": "", "razlog_praznog": null}, "features": [{"type": "Feature", "geometry": {"type": "Polygon", "coordinates": [[[18.93, 41.975], [18.87, 41.975], [18.865, 41.97], [18.865, 41.95], [18.92, 41.905], [18.945, 41.91], [18.945, 41.96], [18.93, 41.975]]]}, "properties": {"score_mean": 24.6, "score_max": 28.8, "area_km2": 39.6, "centroid": [18.91, 41.9451], "razlog": "termalni front + povoljna dubina", "dubina_panule_m": 12.7, "sst_raspon_C": 0.5, "sst_promjena_3d_C": 0.0, "upwelling": 0.0, "hladnije_C": 0.0, "izgledi": "slabi"}}, {"type": "Feature", "geometry": {"type": "Polygon", "coordinates": [[[18.7, 42.315], [18.66, 42.315], [18.655, 42.31], [18.655, 42.28], [18.67, 42.265], [18.695, 42.26], [18.695, 42.23], [18.71, 42.215], [18.74, 42.215], [18.745, 42.22], [18.745, 42.27], [18.74, 42.275], [18.71, 42.275], [18.7, 42.315]]]}, "properties": {"score_mean": 15.6, "score_max": 28.8, "area_km2": 47.7, "centroid": [18.7027, 42.2662], "razlog": "termalni front + povoljna dubina", "dubina_panule_m": 50.0, "sst_raspon_C": 0.6, "sst_promjena_3d_C": 0.0, "upwelling": 0.0, "hladnije_C": -0.1, "izgledi": "slabi"}}, {"type": "Feature", "geometry": {"type": "Polygon", "coordinates": [[[18.86, 42.225], [18.84, 42.225], [18.825, 42.21], [18.825, 42.18], [18.87, 42.145], [18.9, 42.145], [18.905, 42.17], [18.89, 42.185], [18.875, 42.19], [18.875, 42.21], [18.86, 42.225]]]}, "properties": {"score_mean": 9.6, "score_max": 16.2, "area_km2": 37.6, "centroid": [18.8622, 42.1832], "razlog": "termalni front + prisustvo mamca", "dubina_panule_m": 46.7, "sst_raspon_C": 0.6, "sst_promjena_3d_C": 0.0, "upwelling": 0.1, "hladnije_C": 0.0, "izgledi": "vrlo slabi"}}]}