{"type": "FeatureCollection", "properties": {"vrsta": "tuna", "naziv": "Tuna", "latinski": "Thunnus thynnus", "datum": "2026-09-11", "profil": null, "panula": {"dubina_m": [0.0, 50.0], "brzina_kn": [6.0, 8.0], "sati": "zora, sumrak i mijene struje", "granica_dubine_m": 50.0}, "vertikala": {"termoklina_m": 17.8, "termoklina_C_po_m": 0.3, "dcm_m": 97.9, "dcm_odnos": 1.0, "dcm_debljina_m": 44.5, "mld_m": 11.9, "sloj_plijena_m": [52.7, 106.5], "dohvatljivost": 0.0, "objasnjenje": "Termoklina na 18 m. Sloj plijena lezi pretezno ispod 50 m, dakle izvan dohvata panule. Najveca gustina hlorofila je na 98 m (sloj debljine 44 m) - tu se skuplja sitna riba koja se hrani planktonom, pa je i najveca vjerovatnoca da su grabljivice tu negdje."}, "bezbjednost": {"nivo": "zuto", "razlog": "vjetar 12 cv", "izlazak_preporucen": true}, "napomena": "", "razlog_praznog": null}, "features": [{"type": "Feature", "geometry": {"type": "Polygon", "coordinates": [[[19.14, 41.785], [19.1, 41.785], [19.085, 41.77], [19.085, 41.75], [19.12, 41.725], [19.14, 41.725], [19.145, 41.73], [19.145, 41.78], [19.14, 41.785]]]}, "properties": {"score_mean": 23.3, "score_max": 28.3, "area_km2": 28.7, "centroid": [19.1181, 41.7571], "razlog": "termalni front + prisustvo mamca", "dubina_panule_m": 7.1, "sst_raspon_C": 0.8, "sst_promjena_3d_C": 0.0, "upwelling": 0.0, "hladnije_C": 0.2, "izgledi": "slabi"}}, {"type": "Feature", "geometry": {"type": "Polygon", "coordinates": [[[18.7, 42.315], [18.67, 42.315], [18.665, 42.31], [18.665, 42.28], [18.695, 42.27], [18.695, 42.25], [18.71, 42.225], [18.73, 42.225], [18.745, 42.24], [18.745, 42.26], [18.73, 42.275], [18.705, 42.28], [18.705, 42.31], [18.7, 42.315]]]}, "properties": {"score_mean": 14.0, "score_max": 20.7, "area_km2": 33.9, "centroid": [18.7049, 42.2703], "razlog": "termalni front + povoljna dubina", "dubina_panule_m": 50.0, "sst_raspon_C": 0.7, "sst_promjena_3d_C": 0.0, "upwelling": 0.0, "hladnije_C": -0.1, "izgledi": "slabi"}}, {"type": "Feature", "geometry": {"type": "Polygon", "coordinates": [[[18.92, 41.975], [18.88, 41.975], [18.875, 41.95], [18.92, 41.905], [18.94, 41.905], [18.945, 41.91], [18.945, 41.95], [18.92, 41.975]]]}, "properties": {"score_mean": 13.9, "score_max": 19.1, "area_km2": 33.2, "centroid": [18.9133, 41.9433], "razlog": "termalni front + prisustvo mamca", "dubina_panule_m": 8.6, "sst_raspon_C": 0.4, "sst_promjena_3d_C": 0.0, "upwelling": 0.0, "hladnije_C": -0.1, "izgledi": "slabi"}}, {"type": "Feature", "geometry": {"type": "Polygon", "coordinates": [[[18.86, 42.215], [18.835, 42.21], [18.84, 42.185], [18.865, 42.19], [18.86, 42.215]]]}, "properties": {"score_mean": 11.4, "score_max": 13.3, "area_km2": 8.3, "centroid": [18.85, 42.2], "razlog": "termalni front + prisustvo mamca", "dubina_panule_m": 42.1, "sst_raspon_C": 0.6, "sst_promjena_3d_C": 0.0, "upwelling": 0.0, "hladnije_C": -0.0, "izgledi": "vrlo slabi"}}, {"type": "Feature", "geometry": {"type": "Polygon", "coordinates": [[[18.94, 42.135], [18.915, 42.13], [18.92, 42.105], [18.945, 42.11], [18.94, 42.135]]]}, "properties": {"score_mean": 10.5, "score_max": 12.2, "area_km2": 8.3, "centroid": [18.93, 42.12], "razlog": "termalni front + prisustvo mamca", "dubina_panule_m": 46.7, "sst_raspon_C": 1.2, "sst_promjena_3d_C": 0.0, "upwelling": 0.5, "hladnije_C": 0.4, "izgledi": "vrlo slabi"}}]}