{"type": "FeatureCollection", "properties": {"vrsta": "tuna", "naziv": "Tuna", "latinski": "Thunnus thynnus", "datum": "2026-08-22", "panula": {"dubina_m": [0.0, 50.0], "brzina_kn": [6.0, 8.0], "granica_dubine_m": 50.0}, "vertikala": {"termoklina_m": 4.3, "termoklina_C_po_m": 0.5, "dcm_m": 91.2, "dcm_odnos": 1.0, "mld_m": 11.9, "sloj_plijena_m": [61.2, 121.2], "dohvatljivost": 0.0, "objasnjenje": "Termoklina na 4 m, sloj plijena oko 91 m — ispod dohvata panule od 50 m."}, "bezbjednost": {"nivo": "zuto", "razlog": "vjetar 12 cv", "izlazak_preporucen": true}, "napomena": ""}, "features": [{"type": "Feature", "geometry": {"type": "Polygon", "coordinates": [[[19.23, 41.895], [19.16, 41.895], [19.155, 41.87], [19.21, 41.825], [19.24, 41.825], [19.245, 41.83], [19.245, 41.88], [19.23, 41.895]]]}, "properties": {"score_mean": 18.2, "score_max": 32.8, "area_km2": 46.1, "centroid": [19.2054, 41.8644], "razlog": "termalni front + povoljna dubina", "dubina_panule_m": 7.1}}, {"type": "Feature", "geometry": {"type": "Polygon", "coordinates": [[[19.08, 41.985], [19.06, 41.985], [19.055, 41.96], [19.085, 41.93], [19.085, 41.92], [19.1, 41.905], [19.12, 41.905], [19.125, 41.91], [19.125, 41.94], [19.08, 41.985]]]}, "properties": {"score_mean": 16.2, "score_max": 23.7, "area_km2": 30.4, "centroid": [19.0918, 41.9455], "razlog": "termalni front + povoljna dubina", "dubina_panule_m": 7.1}}, {"type": "Feature", "geometry": {"type": "Polygon", "coordinates": [[[19.41, 41.655], [19.385, 41.65], [19.385, 41.63], [19.4, 41.615], [19.43, 41.615], [19.435, 41.64], [19.41, 41.655]]]}, "properties": {"score_mean": 14.8, "score_max": 16.7, "area_km2": 15.7, "centroid": [19.4094, 41.6341], "razlog": "gradijent hlorofila + povoljna dubina", "dubina_panule_m": 7.1}}]}