{"type": "FeatureCollection", "properties": {"vrsta": "tuna", "naziv": "Tuna", "latinski": "Thunnus thynnus", "datum": "2026-10-01", "profil": null, "panula": {"dubina_m": [0.0, 50.0], "brzina_kn": [6.0, 8.0], "sati": "zora, sumrak i mijene struje", "granica_dubine_m": 50.0}, "vertikala": {"termoklina_m": 35.8, "termoklina_C_po_m": 0.1, "dcm_m": 91.2, "dcm_odnos": 1.0, "dcm_debljina_m": 40.7, "mld_m": 19.3, "sloj_plijena_m": [65.7, 111.0], "dohvatljivost": 0.0, "objasnjenje": "Termoklina na 36 m. Sloj plijena lezi pretezno ispod 50 m, dakle izvan dohvata panule. Najveca gustina hlorofila je na 91 m (sloj debljine 41 m) - tu se skuplja sitna riba koja se hrani planktonom, pa je i najveca vjerovatnoca da su grabljivice tu negdje."}, "bezbjednost": {"nivo": "zuto", "razlog": "talasi do 1.0 m", "izlazak_preporucen": true}, "napomena": "", "razlog_praznog": null}, "features": [{"type": "Feature", "geometry": {"type": "Polygon", "coordinates": [[[18.7, 42.315], [18.67, 42.315], [18.665, 42.31], [18.665, 42.28], [18.67, 42.275], [18.7, 42.275], [18.705, 42.28], [18.705, 42.31], [18.7, 42.315]]]}, "properties": {"score_mean": 36.9, "score_max": 43.9, "area_km2": 14.7, "centroid": [18.685, 42.295], "razlog": "termalni front + povoljna dubina", "dubina_panule_m": 8.7, "sst_raspon_C": 0.8, "sst_promjena_3d_C": -0.2, "upwelling": 0.0, "hladnije_C": -0.4, "izgledi": "osrednji"}}, {"type": "Feature", "geometry": {"type": "Polygon", "coordinates": [[[18.73, 42.275], [18.705, 42.27], [18.705, 42.24], [18.71, 42.235], [18.74, 42.235], [18.745, 42.24], [18.745, 42.26], [18.73, 42.275]]]}, "properties": {"score_mean": 34.2, "score_max": 39.7, "area_km2": 13.8, "centroid": [18.724, 42.254], "razlog": "termalni front + povoljna dubina", "dubina_panule_m": 8.8, "sst_raspon_C": 0.8, "sst_promjena_3d_C": -0.2, "upwelling": 0.0, "hladnije_C": -0.2, "izgledi": "osrednji"}}, {"type": "Feature", "geometry": {"type": "Polygon", "coordinates": [[[18.87, 42.225], [18.84, 42.225], [18.835, 42.22], [18.835, 42.19], [18.84, 42.185], [18.87, 42.185], [18.875, 42.19], [18.875, 42.22], [18.87, 42.225]]]}, "properties": {"score_mean": 30.3, "score_max": 43.6, "area_km2": 14.7, "centroid": [18.855, 42.205], "razlog": "termalni front + prisustvo mamca", "dubina_panule_m": 9.1, "sst_raspon_C": 1.2, "sst_promjena_3d_C": -0.5, "upwelling": 0.0, "hladnije_C": 0.5, "izgledi": "osrednji"}}, {"type": "Feature", "geometry": {"type": "Polygon", "coordinates": [[[18.9, 42.185], [18.875, 42.18], [18.875, 42.15], [18.88, 42.145], [18.91, 42.145], [18.915, 42.15], [18.915, 42.17], [18.9, 42.185]]]}, "properties": {"score_mean": 26.4, "score_max": 29.1, "area_km2": 13.8, "centroid": [18.894, 42.164], "razlog": "termalni front + prisustvo mamca", "dubina_panule_m": 9.2, "sst_raspon_C": 0.9, "sst_promjena_3d_C": -0.2, "upwelling": 0.2, "hladnije_C": 0.3, "izgledi": "osrednji"}}, {"type": "Feature", "geometry": {"type": "Polygon", "coordinates": [[[19.03, 42.095], [19.005, 42.09], [19.005, 42.06], [19.015, 42.05], [19.015, 42.03], [19.03, 42.015], [19.06, 42.015], [19.075, 42.03], [19.075, 42.05], [19.06, 42.055], [19.03, 42.095]]]}, "properties": {"score_mean": 25.1, "score_max": 41.3, "area_km2": 35.0, "centroid": [19.0368, 42.0518], "razlog": "termalni front + prisustvo mamca", "dubina_panule_m": 9.0, "sst_raspon_C": 0.6, "sst_promjena_3d_C": 0.2, "upwelling": 0.0, "hladnije_C": -0.2, "izgledi": "osrednji"}}, {"type": "Feature", "geometry": {"type": "Polygon", "coordinates": [[[19.06, 41.935], [19.035, 41.93], [19.04, 41.905], [19.065, 41.91], [19.06, 41.935]]]}, "properties": {"score_mean": 22.0, "score_max": 25.6, "area_km2": 8.3, "centroid": [19.05, 41.92], "razlog": "termalni front + prisustvo mamca", "dubina_panule_m": 11.5, "sst_raspon_C": 0.4, "sst_promjena_3d_C": -0.5, "upwelling": 0.0, "hladnije_C": 0.1, "izgledi": "slabi"}}]}