{"type": "FeatureCollection", "properties": {"vrsta": "tuna", "naziv": "Tuna", "latinski": "Thunnus thynnus", "datum": "2026-08-24", "panula": {"dubina_m": [0.0, 50.0], "brzina_kn": [6.0, 8.0], "granica_dubine_m": 50.0}, "vertikala": {"termoklina_m": 4.3, "termoklina_C_po_m": 0.5, "dcm_m": 91.2, "dcm_odnos": 1.0, "dcm_debljina_m": 38.0, "mld_m": 11.9, "sloj_plijena_m": [64.2, 103.3], "dohvatljivost": 0.0, "objasnjenje": "Termoklina na 4 m. Sloj plijena leži pretežno ispod 50 m, dakle izvan dohvata panule. Najveća gustina hlorofila je na 91 m (sloj debljine 38 m) — tu se skuplja sitna riba koja se hrani planktonom, pa je i najveća vjerovatnoća da su grabljivice tu negdje."}, "bezbjednost": {"nivo": "zuto", "razlog": "vjetar 12 cv", "izlazak_preporucen": true}, "napomena": ""}, "features": [{"type": "Feature", "geometry": {"type": "Polygon", "coordinates": [[[19.23, 41.885], [19.18, 41.885], [19.175, 41.88], [19.175, 41.86], [19.2, 41.835], [19.21, 41.835], [19.22, 41.825], [19.245, 41.83], [19.245, 41.87], [19.23, 41.885]]]}, "properties": {"score_mean": 19.7, "score_max": 31.1, "area_km2": 31.4, "centroid": [19.2132, 41.8582], "razlog": "termalni front + povoljna dubina", "dubina_panule_m": 7.1, "sst_raspon_C": 1.6, "sst_promjena_3d_C": 0.6, "izgledi": "slabi"}}, {"type": "Feature", "geometry": {"type": "Polygon", "coordinates": [[[19.08, 41.995], [19.055, 41.99], [19.055, 41.95], [19.085, 41.92], [19.09, 41.905], [19.12, 41.905], [19.125, 41.91], [19.125, 41.94], [19.085, 41.98], [19.08, 41.995]]]}, "properties": {"score_mean": 16.6, "score_max": 25.1, "area_km2": 36.9, "centroid": [19.0885, 41.9475], "razlog": "termalni front + povoljna dubina", "dubina_panule_m": 7.1, "sst_raspon_C": 1.3, "sst_promjena_3d_C": 0.8, "izgledi": "slabi"}}, {"type": "Feature", "geometry": {"type": "Polygon", "coordinates": [[[18.71, 42.275], [18.67, 42.275], [18.665, 42.27], [18.665, 42.23], [18.675, 42.22], [18.675, 42.21], [18.7, 42.195], [18.76, 42.195], [18.765, 42.22], [18.74, 42.235], [18.72, 42.235], [18.71, 42.275]]]}, "properties": {"score_mean": 3.5, "score_max": 22.3, "area_km2": 48.6, "centroid": [18.7077, 42.2304], "razlog": "termalni front + povoljna dubina", "dubina_panule_m": 7.1, "sst_raspon_C": 0.8, "sst_promjena_3d_C": -0.8, "izgledi": "vrlo slabi"}}, {"type": "Feature", "geometry": {"type": "Polygon", "coordinates": [[[19.12, 41.755], [19.095, 41.75], [19.1, 41.725], [19.125, 41.73], [19.12, 41.755]]]}, "properties": {"score_mean": 0.8, "score_max": 0.9, "area_km2": 8.3, "centroid": [19.11, 41.74], "razlog": "termalni front + povoljna dubina", "dubina_panule_m": 50.0, "sst_raspon_C": 1.0, "sst_promjena_3d_C": 0.7, "izgledi": "vrlo slabi"}}]}