{"type": "FeatureCollection", "properties": {"vrsta": "tuna", "naziv": "Tuna", "latinski": "Thunnus thynnus", "datum": "2026-08-28", "profil": null, "panula": {"dubina_m": [0.0, 50.0], "brzina_kn": [6.0, 8.0], "sati": "zora, sumrak i mijene struje", "granica_dubine_m": 50.0}, "vertikala": {"termoklina_m": 11.9, "termoklina_C_po_m": 0.1, "dcm_m": 91.2, "dcm_odnos": 1.0, "dcm_debljina_m": 32.3, "mld_m": 11.9, "sloj_plijena_m": [64.7, 100.5], "dohvatljivost": 0.0, "objasnjenje": "Termoklina na 12 m. Sloj plijena lezi pretezno ispod 50 m, dakle izvan dohvata panule. Najveca gustina hlorofila je na 91 m (sloj debljine 32 m) - tu se skuplja sitna riba koja se hrani planktonom, pa je i najveca vjerovatnoca da su grabljivice tu negdje."}, "bezbjednost": {"nivo": "crveno", "razlog": "vjetar 17 cv, udari 22 cv", "izlazak_preporucen": false}, "napomena": "", "razlog_praznog": null}, "features": [{"type": "Feature", "geometry": {"type": "Polygon", "coordinates": [[[18.91, 42.185], [18.88, 42.185], [18.875, 42.18], [18.875, 42.15], [18.88, 42.145], [18.91, 42.145], [18.915, 42.15], [18.915, 42.18], [18.91, 42.185]]]}, "properties": {"score_mean": 15.5, "score_max": 18.4, "area_km2": 14.7, "centroid": [18.895, 42.165], "razlog": "termalni front + gradijent hlorofila", "dubina_panule_m": 46.7, "sst_raspon_C": 0.8, "sst_promjena_3d_C": 0.0, "upwelling": 0.5, "hladnije_C": 0.3, "izgledi": "slabi"}}, {"type": "Feature", "geometry": {"type": "Polygon", "coordinates": [[[18.69, 42.305], [18.665, 42.3], [18.67, 42.275], [18.695, 42.28], [18.69, 42.305]]]}, "properties": {"score_mean": 15.4, "score_max": 16.8, "area_km2": 8.3, "centroid": [18.68, 42.29], "razlog": "termalni front + povoljna dubina", "dubina_panule_m": 7.1, "sst_raspon_C": 0.5, "sst_promjena_3d_C": 0.0, "upwelling": 0.0, "hladnije_C": 0.2, "izgledi": "slabi"}}, {"type": "Feature", "geometry": {"type": "Polygon", "coordinates": [[[18.74, 42.255], [18.71, 42.255], [18.705, 42.23], [18.71, 42.225], [18.74, 42.225], [18.745, 42.23], [18.74, 42.255]]]}, "properties": {"score_mean": 15.2, "score_max": 19.2, "area_km2": 11.0, "centroid": [18.725, 42.24], "razlog": "termalni front + povoljna dubina", "dubina_panule_m": 7.1, "sst_raspon_C": 0.7, "sst_promjena_3d_C": 0.0, "upwelling": 0.0, "hladnije_C": 0.2, "izgledi": "slabi"}}, {"type": "Feature", "geometry": {"type": "Polygon", "coordinates": [[[19.23, 41.885], [19.2, 41.885], [19.195, 41.86], [19.23, 41.845], [19.24, 41.825], [19.25, 41.825], [19.26, 41.815], [19.28, 41.815], [19.285, 41.84], [19.25, 41.855], [19.245, 41.87], [19.23, 41.885]]]}, "properties": {"score_mean": 14.9, "score_max": 19.2, "area_km2": 29.5, "centroid": [19.2397, 41.8509], "razlog": "termalni front + gradijent hlorofila", "dubina_panule_m": 7.1, "sst_raspon_C": 0.8, "sst_promjena_3d_C": 0.0, "upwelling": 0.2, "hladnije_C": 0.3, "izgledi": "slabi"}}, {"type": "Feature", "geometry": {"type": "Polygon", "coordinates": [[[18.87, 42.215], [18.845, 42.21], [18.85, 42.185], [18.875, 42.19], [18.87, 42.215]]]}, "properties": {"score_mean": 13.9, "score_max": 18.1, "area_km2": 8.3, "centroid": [18.86, 42.2], "razlog": "termalni front + prisustvo mamca", "dubina_panule_m": 7.1, "sst_raspon_C": 0.6, "sst_promjena_3d_C": 0.0, "upwelling": 0.6, "hladnije_C": 0.3, "izgledi": "slabi"}}, {"type": "Feature", "geometry": {"type": "Polygon", "coordinates": [[[19.1, 42.015], [19.07, 42.015], [19.065, 42.01], [19.065, 41.98], [19.08, 41.955], [19.105, 41.96], [19.105, 42.01], [19.1, 42.015]]]}, "properties": {"score_mean": 10.8, "score_max": 15.2, "area_km2": 20.3, "centroid": [19.0864, 41.9868], "razlog": "termalni front + prisustvo mamca", "dubina_panule_m": 7.1, "sst_raspon_C": 0.6, "sst_promjena_3d_C": 0.0, "upwelling": 0.5, "hladnije_C": 0.2, "izgledi": "vrlo slabi"}}]}