{"type": "FeatureCollection", "properties": {"vrsta": "tuna", "naziv": "Tuna", "latinski": "Thunnus thynnus", "datum": "2026-09-19", "profil": null, "panula": {"dubina_m": [0.0, 50.0], "brzina_kn": [6.0, 8.0], "sati": "zora, sumrak i mijene struje", "granica_dubine_m": 50.0}, "vertikala": {"termoklina_m": 24.5, "termoklina_C_po_m": 0.2, "dcm_m": 97.9, "dcm_odnos": 1.0, "dcm_debljina_m": 38.1, "mld_m": 13.1, "sloj_plijena_m": [59.4, 106.0], "dohvatljivost": 0.0, "objasnjenje": "Termoklina na 24 m. Sloj plijena lezi pretezno ispod 50 m, dakle izvan dohvata panule. Najveca gustina hlorofila je na 98 m (sloj debljine 38 m) - tu se skuplja sitna riba koja se hrani planktonom, pa je i najveca vjerovatnoca da su grabljivice tu negdje."}, "bezbjednost": {"nivo": "zuto", "razlog": "vjetar 11 cv", "izlazak_preporucen": true}, "napomena": "", "razlog_praznog": null}, "features": [{"type": "Feature", "geometry": {"type": "Polygon", "coordinates": [[[19.16, 41.765], [19.135, 41.76], [19.14, 41.735], [19.165, 41.74], [19.16, 41.765]]]}, "properties": {"score_mean": 43.8, "score_max": 48.8, "area_km2": 8.3, "centroid": [19.15, 41.75], "razlog": "termalni front + gradijent hlorofila", "dubina_panule_m": 7.1, "sst_raspon_C": 0.5, "sst_promjena_3d_C": -0.4, "upwelling": 0.4, "hladnije_C": 0.2, "izgledi": "dobri"}}, {"type": "Feature", "geometry": {"type": "Polygon", "coordinates": [[[18.86, 42.035], [18.8, 42.035], [18.795, 42.01], [18.8, 42.005], [18.83, 42.005], [18.845, 41.98], [18.85, 41.955], [18.88, 41.955], [18.895, 41.97], [18.895, 41.99], [18.885, 42.0], [18.885, 42.01], [18.865, 42.02], [18.86, 42.035]]]}, "properties": {"score_mean": 27.7, "score_max": 37.2, "area_km2": 44.2, "centroid": [18.8506, 41.9994], "razlog": "termalni front + prisustvo mamca", "dubina_panule_m": 13.0, "sst_raspon_C": 0.7, "sst_promjena_3d_C": -1.0, "upwelling": 0.2, "hladnije_C": 0.5, "izgledi": "osrednji"}}, {"type": "Feature", "geometry": {"type": "Polygon", "coordinates": [[[18.7, 42.315], [18.66, 42.315], [18.655, 42.29], [18.68, 42.265], [18.695, 42.26], [18.695, 42.23], [18.71, 42.215], [18.74, 42.215], [18.745, 42.22], [18.745, 42.27], [18.74, 42.275], [18.71, 42.275], [18.7, 42.315]]]}, "properties": {"score_mean": 25.0, "score_max": 41.8, "area_km2": 45.9, "centroid": [18.7042, 42.2658], "razlog": "termalni front + povoljna dubina", "dubina_panule_m": 50.0, "sst_raspon_C": 0.5, "sst_promjena_3d_C": -0.2, "upwelling": 0.0, "hladnije_C": -0.1, "izgledi": "osrednji"}}, {"type": "Feature", "geometry": {"type": "Polygon", "coordinates": [[[18.87, 42.215], [18.84, 42.215], [18.835, 42.19], [18.84, 42.185], [18.87, 42.185], [18.875, 42.19], [18.87, 42.215]]]}, "properties": {"score_mean": 19.4, "score_max": 26.9, "area_km2": 11.0, "centroid": [18.855, 42.2], "razlog": "termalni front + prisustvo mamca", "dubina_panule_m": 42.1, "sst_raspon_C": 0.5, "sst_promjena_3d_C": -0.7, "upwelling": 0.0, "hladnije_C": 0.0, "izgledi": "slabi"}}]}