{"type": "FeatureCollection", "properties": {"vrsta": "tuna", "naziv": "Tuna", "latinski": "Thunnus thynnus", "datum": "2026-09-21", "profil": null, "panula": {"dubina_m": [0.0, 50.0], "brzina_kn": [6.0, 8.0], "sati": "zora, sumrak i mijene struje", "granica_dubine_m": 50.0}, "vertikala": {"termoklina_m": 24.5, "termoklina_C_po_m": 0.2, "dcm_m": 97.9, "dcm_odnos": 1.0, "dcm_debljina_m": 39.6, "mld_m": 12.1, "sloj_plijena_m": [59.4, 108.5], "dohvatljivost": 0.0, "objasnjenje": "Termoklina na 24 m. Sloj plijena lezi pretezno ispod 50 m, dakle izvan dohvata panule. Najveca gustina hlorofila je na 98 m (sloj debljine 40 m) - tu se skuplja sitna riba koja se hrani planktonom, pa je i najveca vjerovatnoca da su grabljivice tu negdje."}, "bezbjednost": {"nivo": "crveno", "razlog": "vjetar 21 cv, udari 30 cv", "izlazak_preporucen": false}, "napomena": "", "razlog_praznog": null}, "features": [{"type": "Feature", "geometry": {"type": "Polygon", "coordinates": [[[19.14, 41.825], [19.08, 41.825], [19.075, 41.8], [19.085, 41.79], [19.085, 41.78], [19.11, 41.765], [19.14, 41.765], [19.145, 41.77], [19.145, 41.82], [19.14, 41.825]]]}, "properties": {"score_mean": 30.8, "score_max": 44.4, "area_km2": 34.2, "centroid": [19.1132, 41.7976], "razlog": "termalni front + prisustvo mamca", "dubina_panule_m": 7.1, "sst_raspon_C": 0.7, "sst_promjena_3d_C": 0.2, "upwelling": 0.0, "hladnije_C": -0.1, "izgledi": "osrednji"}}, {"type": "Feature", "geometry": {"type": "Polygon", "coordinates": [[[18.69, 42.315], [18.665, 42.31], [18.665, 42.28], [18.695, 42.27], [18.695, 42.24], [18.71, 42.225], [18.74, 42.225], [18.745, 42.23], [18.745, 42.27], [18.74, 42.275], [18.71, 42.275], [18.705, 42.3], [18.69, 42.315]]]}, "properties": {"score_mean": 27.7, "score_max": 38.5, "area_km2": 35.8, "centroid": [18.7067, 42.2674], "razlog": "termalni front + povoljna dubina", "dubina_panule_m": 8.2, "sst_raspon_C": 0.4, "sst_promjena_3d_C": 0.1, "upwelling": 0.0, "hladnije_C": -0.1, "izgledi": "osrednji"}}, {"type": "Feature", "geometry": {"type": "Polygon", "coordinates": [[[19.09, 42.005], [19.05, 42.005], [19.045, 42.0], [19.045, 41.97], [19.05, 41.965], [19.09, 41.965], [19.095, 41.97], [19.095, 42.0], [19.09, 42.005]]]}, "properties": {"score_mean": 24.0, "score_max": 26.5, "area_km2": 18.4, "centroid": [19.07, 41.985], "razlog": "termalni front + prisustvo mamca", "dubina_panule_m": 7.1, "sst_raspon_C": 0.7, "sst_promjena_3d_C": 0.4, "upwelling": 0.0, "hladnije_C": 0.2, "izgledi": "slabi"}}, {"type": "Feature", "geometry": {"type": "Polygon", "coordinates": [[[18.9, 42.015], [18.87, 42.015], [18.865, 42.01], [18.865, 41.96], [18.87, 41.955], [18.89, 41.955], [18.915, 41.97], [18.915, 42.0], [18.9, 42.015]]]}, "properties": {"score_mean": 22.6, "score_max": 28.3, "area_km2": 24.9, "centroid": [18.8881, 41.9859], "razlog": "termalni front + prisustvo mamca", "dubina_panule_m": 9.2, "sst_raspon_C": 0.3, "sst_promjena_3d_C": 0.2, "upwelling": 0.3, "hladnije_C": 0.1, "izgledi": "slabi"}}, {"type": "Feature", "geometry": {"type": "Polygon", "coordinates": [[[18.86, 42.205], [18.84, 42.205], [18.835, 42.18], [18.82, 42.175], [18.805, 42.16], [18.805, 42.12], [18.82, 42.105], [18.84, 42.105], [18.875, 42.14], [18.875, 42.17], [18.865, 42.18], [18.86, 42.205]]]}, "properties": {"score_mean": 19.9, "score_max": 31.7, "area_km2": 45.9, "centroid": [18.8402, 42.1518], "razlog": "termalni front + prisustvo mamca", "dubina_panule_m": 10.2, "sst_raspon_C": 0.6, "sst_promjena_3d_C": 0.1, "upwelling": 0.0, "hladnije_C": -0.1, "izgledi": "slabi"}}]}