{"type": "FeatureCollection", "properties": {"vrsta": "tuna", "naziv": "Tuna", "latinski": "Thunnus thynnus", "datum": "2026-09-25", "profil": null, "panula": {"dubina_m": [0.0, 50.0], "brzina_kn": [6.0, 8.0], "sati": "zora, sumrak i mijene struje", "granica_dubine_m": 50.0}, "vertikala": {"termoklina_m": 28.0, "termoklina_C_po_m": 0.2, "dcm_m": 91.2, "dcm_odnos": 1.0, "dcm_debljina_m": 41.3, "mld_m": 20.0, "sloj_plijena_m": [65.8, 105.3], "dohvatljivost": 0.0, "objasnjenje": "Termoklina na 28 m. Sloj plijena lezi pretezno ispod 50 m, dakle izvan dohvata panule. Najveca gustina hlorofila je na 91 m (sloj debljine 41 m) - tu se skuplja sitna riba koja se hrani planktonom, pa je i najveca vjerovatnoca da su grabljivice tu negdje."}, "bezbjednost": {"nivo": "crveno", "razlog": "vjetar 18 cv, udari 33 cv", "izlazak_preporucen": false}, "napomena": "", "razlog_praznog": null}, "features": [{"type": "Feature", "geometry": {"type": "Polygon", "coordinates": [[[19.07, 42.005], [19.05, 42.005], [19.03, 41.985], [19.025, 41.96], [19.06, 41.925], [19.07, 41.925], [19.08, 41.915], [19.1, 41.915], [19.105, 41.92], [19.105, 41.95], [19.075, 41.98], [19.07, 42.005]]]}, "properties": {"score_mean": 35.0, "score_max": 43.4, "area_km2": 42.4, "centroid": [19.0654, 41.9587], "razlog": "termalni front + gradijent hlorofila", "dubina_panule_m": 7.4, "sst_raspon_C": 0.9, "sst_promjena_3d_C": -2.4, "upwelling": 0.2, "hladnije_C": 0.4, "izgledi": "osrednji"}}, {"type": "Feature", "geometry": {"type": "Polygon", "coordinates": [[[18.7, 42.315], [18.67, 42.315], [18.655, 42.3], [18.655, 42.28], [18.67, 42.265], [18.69, 42.265], [18.695, 42.24], [18.71, 42.225], [18.74, 42.225], [18.745, 42.23], [18.745, 42.27], [18.74, 42.275], [18.71, 42.275], [18.7, 42.315]]]}, "properties": {"score_mean": 32.5, "score_max": 54.9, "area_km2": 42.2, "centroid": [18.7017, 42.27], "razlog": "termalni front + povoljna dubina", "dubina_panule_m": 50.0, "sst_raspon_C": 0.6, "sst_promjena_3d_C": -1.9, "upwelling": 0.4, "hladnije_C": 0.3, "izgledi": "osrednji"}}, {"type": "Feature", "geometry": {"type": "Polygon", "coordinates": [[[18.94, 42.065], [18.91, 42.065], [18.895, 42.05], [18.895, 42.04], [18.885, 42.03], [18.885, 42.01], [18.875, 42.0], [18.875, 41.97], [18.88, 41.965], [18.93, 41.965], [18.945, 41.98], [18.945, 42.06], [18.94, 42.065]]]}, "properties": {"score_mean": 23.9, "score_max": 29.7, "area_km2": 54.3, "centroid": [18.9137, 42.0112], "razlog": "termalni front + prisustvo mamca", "dubina_panule_m": 11.8, "sst_raspon_C": 0.6, "sst_promjena_3d_C": -1.5, "upwelling": 0.0, "hladnije_C": -0.2, "izgledi": "slabi"}}]}