{"type": "FeatureCollection", "properties": {"vrsta": "tuna", "naziv": "Tuna", "latinski": "Thunnus thynnus", "datum": "2026-10-11", "profil": null, "panula": {"dubina_m": [0.0, 50.0], "brzina_kn": [6.0, 8.0], "sati": "zora, sumrak i mijene struje", "granica_dubine_m": 50.0}, "vertikala": {"termoklina_m": 35.8, "termoklina_C_po_m": 0.1, "dcm_m": 78.6, "dcm_odnos": 1.0, "dcm_debljina_m": 44.5, "mld_m": 23.0, "sloj_plijena_m": [45.6, 92.1], "dohvatljivost": 0.1, "objasnjenje": "Termoklina na 36 m. Sloj plijena lezi pretezno ispod 50 m, dakle izvan dohvata panule. Najveca gustina hlorofila je na 79 m (sloj debljine 44 m) - tu se skuplja sitna riba koja se hrani planktonom, pa je i najveca vjerovatnoca da su grabljivice tu negdje."}, "bezbjednost": {"nivo": "crveno", "razlog": "talasi do 1.8 m, vjetar 18 cv, udari 24 cv", "izlazak_preporucen": false}, "napomena": "", "razlog_praznog": null}, "features": [{"type": "Feature", "geometry": {"type": "Polygon", "coordinates": [[[19.09, 41.925], [19.07, 41.925], [19.065, 41.9], [19.085, 41.89], [19.085, 41.88], [19.1, 41.865], [19.13, 41.865], [19.135, 41.89], [19.11, 41.915], [19.1, 41.915], [19.09, 41.925]]]}, "properties": {"score_mean": 28.3, "score_max": 34.9, "area_km2": 25.8, "centroid": [19.1007, 41.8943], "razlog": "termalni front + gradijent hlorofila", "dubina_panule_m": 12.9, "sst_raspon_C": 0.3, "sst_promjena_3d_C": -0.2, "upwelling": 0.0, "hladnije_C": -0.1, "izgledi": "osrednji"}}, {"type": "Feature", "geometry": {"type": "Polygon", "coordinates": [[[18.6, 42.355], [18.55, 42.355], [18.545, 42.33], [18.57, 42.325], [18.58, 42.315], [18.62, 42.315], [18.625, 42.34], [18.6, 42.355]]]}, "properties": {"score_mean": 27.6, "score_max": 36.7, "area_km2": 24.7, "centroid": [18.5856, 42.3356], "razlog": "povoljna dubina + termalni front", "dubina_panule_m": 12.0, "sst_raspon_C": 0.5, "sst_promjena_3d_C": -0.1, "upwelling": 0.0, "hladnije_C": -0.1, "izgledi": "osrednji"}}, {"type": "Feature", "geometry": {"type": "Polygon", "coordinates": [[[18.73, 42.265], [18.69, 42.265], [18.685, 42.24], [18.71, 42.225], [18.74, 42.225], [18.745, 42.25], [18.73, 42.265]]]}, "properties": {"score_mean": 23.7, "score_max": 30.7, "area_km2": 19.3, "centroid": [18.7157, 42.2457], "razlog": "termalni front + povoljna dubina", "dubina_panule_m": 9.4, "sst_raspon_C": 0.6, "sst_promjena_3d_C": -0.2, "upwelling": 0.0, "hladnije_C": -0.1, "izgledi": "slabi"}}, {"type": "Feature", "geometry": {"type": "Polygon", "coordinates": [[[19.01, 42.055], [18.985, 42.05], [18.985, 42.02], [19.0, 42.005], [19.025, 42.01], [19.025, 42.04], [19.01, 42.055]]]}, "properties": {"score_mean": 23.1, "score_max": 32.6, "area_km2": 16.6, "centroid": [19.005, 42.03], "razlog": "termalni front + gradijent hlorofila", "dubina_panule_m": 14.5, "sst_raspon_C": 0.6, "sst_promjena_3d_C": -0.0, "upwelling": 0.2, "hladnije_C": 0.1, "izgledi": "slabi"}}, {"type": "Feature", "geometry": {"type": "Polygon", "coordinates": [[[18.855, 42.21], [18.83, 42.215], [18.805, 42.2], [18.805, 42.18], [18.82, 42.165], [18.84, 42.165], [18.855, 42.18], [18.855, 42.21]]]}, "properties": {"score_mean": 18.9, "score_max": 25.3, "area_km2": 19.3, "centroid": [18.8314, 42.19], "razlog": "termalni front + prisustvo mamca", "dubina_panule_m": 13.1, "sst_raspon_C": 0.4, "sst_promjena_3d_C": 0.0, "upwelling": 0.0, "hladnije_C": -0.1, "izgledi": "slabi"}}, {"type": "Feature", "geometry": {"type": "Polygon", "coordinates": [[[18.66, 41.795], [18.635, 41.79], [18.635, 41.76], [18.645, 41.75], [18.645, 41.74], [18.66, 41.725], [18.71, 41.725], [18.715, 41.75], [18.68, 41.785], [18.67, 41.785], [18.66, 41.795]]]}, "properties": {"score_mean": 5.4, "score_max": 9.3, "area_km2": 37.9, "centroid": [18.6722, 41.7566], "razlog": "ivica selfa + povoljna dubina", "dubina_panule_m": 50.0, "sst_raspon_C": 0.3, "sst_promjena_3d_C": -0.0, "upwelling": 0.1, "hladnije_C": 0.1, "izgledi": "vrlo slabi"}}]}