{"type": "FeatureCollection", "properties": {"vrsta": "tuna", "naziv": "Tuna", "latinski": "Thunnus thynnus", "datum": "2026-09-09", "profil": null, "panula": {"dubina_m": [0.0, 50.0], "brzina_kn": [6.0, 8.0], "sati": "zora, sumrak i mijene struje", "granica_dubine_m": 50.0}, "vertikala": {"termoklina_m": 21.1, "termoklina_C_po_m": 0.3, "dcm_m": 91.2, "dcm_odnos": 1.0, "dcm_debljina_m": 34.9, "mld_m": 11.9, "sloj_plijena_m": [59.7, 107.6], "dohvatljivost": 0.0, "objasnjenje": "Termoklina na 21 m. Sloj plijena lezi pretezno ispod 50 m, dakle izvan dohvata panule. Najveca gustina hlorofila je na 91 m (sloj debljine 35 m) - tu se skuplja sitna riba koja se hrani planktonom, pa je i najveca vjerovatnoca da su grabljivice tu negdje."}, "bezbjednost": {"nivo": "zeleno", "razlog": "uslovi povoljni", "izlazak_preporucen": true}, "napomena": "", "razlog_praznog": null}, "features": [{"type": "Feature", "geometry": {"type": "Polygon", "coordinates": [[[18.7, 42.305], [18.67, 42.305], [18.665, 42.28], [18.67, 42.275], [18.7, 42.275], [18.705, 42.28], [18.7, 42.305]]]}, "properties": {"score_mean": 15.2, "score_max": 19.1, "area_km2": 11.0, "centroid": [18.685, 42.29], "razlog": "termalni front + povoljna dubina", "dubina_panule_m": 7.1, "sst_raspon_C": 0.4, "sst_promjena_3d_C": -0.1, "upwelling": 0.0, "hladnije_C": -0.1, "izgledi": "slabi"}}, {"type": "Feature", "geometry": {"type": "Polygon", "coordinates": [[[18.73, 42.275], [18.705, 42.27], [18.705, 42.24], [18.71, 42.235], [18.74, 42.235], [18.745, 42.24], [18.745, 42.26], [18.73, 42.275]]]}, "properties": {"score_mean": 15.1, "score_max": 17.6, "area_km2": 13.8, "centroid": [18.724, 42.254], "razlog": "termalni front + povoljna dubina", "dubina_panule_m": 33.8, "sst_raspon_C": 0.5, "sst_promjena_3d_C": 0.1, "upwelling": 0.0, "hladnije_C": -0.2, "izgledi": "slabi"}}, {"type": "Feature", "geometry": {"type": "Polygon", "coordinates": [[[18.87, 42.225], [18.83, 42.225], [18.825, 42.22], [18.825, 42.2], [18.85, 42.175], [18.875, 42.18], [18.875, 42.22], [18.87, 42.225]]]}, "properties": {"score_mean": 14.2, "score_max": 24.9, "area_km2": 20.2, "centroid": [18.8523, 42.2023], "razlog": "termalni front + gradijent hlorofila", "dubina_panule_m": 42.1, "sst_raspon_C": 1.1, "sst_promjena_3d_C": 0.0, "upwelling": 0.2, "hladnije_C": 0.1, "izgledi": "slabi"}}, {"type": "Feature", "geometry": {"type": "Polygon", "coordinates": [[[19.145, 41.88], [19.12, 41.885], [19.115, 41.87], [19.095, 41.85], [19.105, 41.8], [19.12, 41.785], [19.145, 41.79], [19.145, 41.88]]]}, "properties": {"score_mean": 12.1, "score_max": 20.2, "area_km2": 36.9, "centroid": [19.1243, 41.8345], "razlog": "termalni front + prisustvo mamca", "dubina_panule_m": 7.4, "sst_raspon_C": 0.9, "sst_promjena_3d_C": 0.3, "upwelling": 0.0, "hladnije_C": -0.1, "izgledi": "slabi"}}, {"type": "Feature", "geometry": {"type": "Polygon", "coordinates": [[[19.11, 42.015], [19.08, 42.015], [19.075, 42.01], [19.075, 41.98], [19.09, 41.965], [19.115, 41.97], [19.115, 42.01], [19.11, 42.015]]]}, "properties": {"score_mean": 11.1, "score_max": 15.9, "area_km2": 17.5, "centroid": [19.0958, 41.9911], "razlog": "termalni front + prisustvo mamca", "dubina_panule_m": 7.1, "sst_raspon_C": 0.4, "sst_promjena_3d_C": 0.3, "upwelling": 0.0, "hladnije_C": -0.2, "izgledi": "vrlo slabi"}}, {"type": "Feature", "geometry": {"type": "Polygon", "coordinates": [[[18.91, 42.005], [18.89, 42.005], [18.875, 41.99], [18.875, 41.97], [18.89, 41.945], [18.94, 41.945], [18.945, 41.95], [18.945, 41.99], [18.92, 41.995], [18.91, 42.005]]]}, "properties": {"score_mean": 3.9, "score_max": 5.2, "area_km2": 33.2, "centroid": [18.9108, 41.9733], "razlog": "termalni front + gradijent hlorofila", "dubina_panule_m": 50.0, "sst_raspon_C": 0.4, "sst_promjena_3d_C": -0.0, "upwelling": 0.2, "hladnije_C": 0.2, "izgledi": "vrlo slabi"}}]}