{"type": "FeatureCollection", "properties": {"vrsta": "tuna", "naziv": "Tuna", "latinski": "Thunnus thynnus", "datum": "2026-09-28", "profil": null, "panula": {"dubina_m": [0.0, 50.0], "brzina_kn": [6.0, 8.0], "sati": "zora, sumrak i mijene struje", "granica_dubine_m": 50.0}, "vertikala": {"termoklina_m": 31.8, "termoklina_C_po_m": 0.2, "dcm_m": 91.2, "dcm_odnos": 1.0, "dcm_debljina_m": 38.0, "mld_m": 17.7, "sloj_plijena_m": [70.4, 106.7], "dohvatljivost": 0.0, "objasnjenje": "Termoklina na 32 m. Sloj plijena lezi pretezno ispod 50 m, dakle izvan dohvata panule. Najveca gustina hlorofila je na 91 m (sloj debljine 38 m) - tu se skuplja sitna riba koja se hrani planktonom, pa je i najveca vjerovatnoca da su grabljivice tu negdje."}, "bezbjednost": {"nivo": "zuto", "razlog": "talasi do 1.1 m", "izlazak_preporucen": true}, "napomena": "", "razlog_praznog": null}, "features": [{"type": "Feature", "geometry": {"type": "Polygon", "coordinates": [[[18.69, 42.315], [18.665, 42.31], [18.665, 42.28], [18.695, 42.27], [18.695, 42.24], [18.71, 42.225], [18.74, 42.225], [18.745, 42.23], [18.745, 42.27], [18.74, 42.275], [18.71, 42.275], [18.705, 42.3], [18.69, 42.315]]]}, "properties": {"score_mean": 33.1, "score_max": 43.3, "area_km2": 35.8, "centroid": [18.7067, 42.2674], "razlog": "termalni front + povoljna dubina", "dubina_panule_m": 7.1, "sst_raspon_C": 1.0, "sst_promjena_3d_C": -0.5, "upwelling": 0.0, "hladnije_C": -0.3, "izgledi": "osrednji"}}, {"type": "Feature", "geometry": {"type": "Polygon", "coordinates": [[[19.03, 42.075], [19.005, 42.07], [19.005, 42.04], [19.025, 42.02], [19.03, 42.005], [19.05, 42.005], [19.055, 42.01], [19.055, 42.04], [19.035, 42.06], [19.03, 42.075]]]}, "properties": {"score_mean": 28.3, "score_max": 34.3, "area_km2": 23.0, "centroid": [19.03, 42.04], "razlog": "termalni front + prisustvo mamca", "dubina_panule_m": 7.3, "sst_raspon_C": 0.8, "sst_promjena_3d_C": -0.6, "upwelling": 0.0, "hladnije_C": 0.2, "izgledi": "osrednji"}}, {"type": "Feature", "geometry": {"type": "Polygon", "coordinates": [[[18.9, 42.185], [18.875, 42.18], [18.875, 42.15], [18.88, 42.145], [18.91, 42.145], [18.915, 42.15], [18.915, 42.17], [18.9, 42.185]]]}, "properties": {"score_mean": 27.6, "score_max": 31.1, "area_km2": 13.8, "centroid": [18.894, 42.164], "razlog": "termalni front + prisustvo mamca", "dubina_panule_m": 8.1, "sst_raspon_C": 0.9, "sst_promjena_3d_C": -1.0, "upwelling": 0.0, "hladnije_C": -0.2, "izgledi": "osrednji"}}, {"type": "Feature", "geometry": {"type": "Polygon", "coordinates": [[[18.87, 42.215], [18.845, 42.21], [18.85, 42.185], [18.875, 42.19], [18.87, 42.215]]]}, "properties": {"score_mean": 26.2, "score_max": 28.9, "area_km2": 8.3, "centroid": [18.86, 42.2], "razlog": "termalni front + prisustvo mamca", "dubina_panule_m": 7.6, "sst_raspon_C": 0.7, "sst_promjena_3d_C": -1.4, "upwelling": 0.0, "hladnije_C": 0.2, "izgledi": "osrednji"}}, {"type": "Feature", "geometry": {"type": "Polygon", "coordinates": [[[18.92, 42.015], [18.89, 42.015], [18.885, 42.01], [18.885, 41.97], [18.89, 41.965], [18.93, 41.965], [18.935, 41.97], [18.935, 41.99], [18.92, 42.015]]]}, "properties": {"score_mean": 22.1, "score_max": 29.1, "area_km2": 21.2, "centroid": [18.9083, 41.9887], "razlog": "termalni front + prisustvo mamca", "dubina_panule_m": 11.0, "sst_raspon_C": 0.5, "sst_promjena_3d_C": -1.1, "upwelling": 0.0, "hladnije_C": 0.0, "izgledi": "slabi"}}, {"type": "Feature", "geometry": {"type": "Polygon", "coordinates": [[[18.79, 41.715], [18.765, 41.71], [18.765, 41.69], [18.79, 41.665], [18.81, 41.665], [18.815, 41.69], [18.79, 41.715]]]}, "properties": {"score_mean": 2.1, "score_max": 2.4, "area_km2": 17.6, "centroid": [18.79, 41.69], "razlog": "ivica selfa + povoljna dubina", "dubina_panule_m": 50.0, "sst_raspon_C": 0.9, "sst_promjena_3d_C": -1.9, "upwelling": 0.5, "hladnije_C": 0.2, "izgledi": "vrlo slabi"}}]}