{"type": "FeatureCollection", "properties": {"vrsta": "tuna", "naziv": "Tuna", "latinski": "Thunnus thynnus", "datum": "2026-09-27", "profil": null, "panula": {"dubina_m": [0.0, 50.0], "brzina_kn": [6.0, 8.0], "sati": "zora, sumrak i mijene struje", "granica_dubine_m": 50.0}, "vertikala": {"termoklina_m": 28.0, "termoklina_C_po_m": 0.2, "dcm_m": 91.2, "dcm_odnos": 1.0, "dcm_debljina_m": 39.6, "mld_m": 18.3, "sloj_plijena_m": [67.7, 104.5], "dohvatljivost": 0.0, "objasnjenje": "Termoklina na 28 m. Sloj plijena lezi pretezno ispod 50 m, dakle izvan dohvata panule. Najveca gustina hlorofila je na 91 m (sloj debljine 40 m) - tu se skuplja sitna riba koja se hrani planktonom, pa je i najveca vjerovatnoca da su grabljivice tu negdje."}, "bezbjednost": {"nivo": "zuto", "razlog": "talasi do 1.3 m", "izlazak_preporucen": true}, "napomena": "", "razlog_praznog": null}, "features": [{"type": "Feature", "geometry": {"type": "Polygon", "coordinates": [[[18.7, 42.315], [18.68, 42.315], [18.67, 42.305], [18.665, 42.28], [18.695, 42.27], [18.695, 42.25], [18.71, 42.225], [18.74, 42.225], [18.745, 42.23], [18.745, 42.27], [18.74, 42.275], [18.71, 42.275], [18.7, 42.315]]]}, "properties": {"score_mean": 35.2, "score_max": 43.6, "area_km2": 34.8, "centroid": [18.7076, 42.2682], "razlog": "termalni front + povoljna dubina", "dubina_panule_m": 7.1, "sst_raspon_C": 0.6, "sst_promjena_3d_C": -0.4, "upwelling": 0.0, "hladnije_C": 0.0, "izgledi": "osrednji"}}, {"type": "Feature", "geometry": {"type": "Polygon", "coordinates": [[[19.06, 42.055], [19.035, 42.05], [19.035, 42.01], [19.025, 42.0], [19.025, 41.97], [19.04, 41.955], [19.07, 41.955], [19.075, 41.96], [19.075, 42.04], [19.06, 42.055]]]}, "properties": {"score_mean": 25.0, "score_max": 36.2, "area_km2": 39.6, "centroid": [19.0523, 42.0021], "razlog": "termalni front + prisustvo mamca", "dubina_panule_m": 7.8, "sst_raspon_C": 0.8, "sst_promjena_3d_C": 0.3, "upwelling": 0.0, "hladnije_C": -0.0, "izgledi": "osrednji"}}, {"type": "Feature", "geometry": {"type": "Polygon", "coordinates": [[[18.87, 42.215], [18.845, 42.21], [18.85, 42.185], [18.875, 42.19], [18.87, 42.215]]]}, "properties": {"score_mean": 23.4, "score_max": 25.5, "area_km2": 8.3, "centroid": [18.86, 42.2], "razlog": "termalni front + prisustvo mamca", "dubina_panule_m": 7.9, "sst_raspon_C": 0.2, "sst_promjena_3d_C": -1.3, "upwelling": 0.0, "hladnije_C": 0.2, "izgledi": "slabi"}}, {"type": "Feature", "geometry": {"type": "Polygon", "coordinates": [[[18.94, 42.135], [18.915, 42.13], [18.92, 42.105], [18.945, 42.11], [18.94, 42.135]]]}, "properties": {"score_mean": 18.3, "score_max": 20.4, "area_km2": 8.3, "centroid": [18.93, 42.12], "razlog": "termalni front + prisustvo mamca", "dubina_panule_m": 8.4, "sst_raspon_C": 0.3, "sst_promjena_3d_C": -0.5, "upwelling": 0.0, "hladnije_C": -0.2, "izgledi": "slabi"}}, {"type": "Feature", "geometry": {"type": "Polygon", "coordinates": [[[18.945, 42.06], [18.92, 42.065], [18.91, 42.055], [18.885, 42.05], [18.885, 42.02], [18.875, 42.01], [18.875, 41.98], [18.88, 41.975], [18.94, 41.975], [18.945, 41.98], [18.945, 42.06]]]}, "properties": {"score_mean": 18.2, "score_max": 23.2, "area_km2": 50.6, "centroid": [18.9133, 42.016], "razlog": "termalni front + prisustvo mamca", "dubina_panule_m": 9.0, "sst_raspon_C": 0.3, "sst_promjena_3d_C": -0.7, "upwelling": 0.0, "hladnije_C": -0.0, "izgledi": "slabi"}}, {"type": "Feature", "geometry": {"type": "Polygon", "coordinates": [[[18.82, 41.695], [18.78, 41.695], [18.775, 41.67], [18.79, 41.665], [18.81, 41.645], [18.84, 41.645], [18.87, 41.625], [18.9, 41.625], [18.905, 41.63], [18.905, 41.66], [18.9, 41.665], [18.89, 41.665], [18.88, 41.675], [18.85, 41.675], [18.82, 41.695]]]}, "properties": {"score_mean": 2.0, "score_max": 2.4, "area_km2": 50.0, "centroid": [18.8424, 41.6611], "razlog": "ivica selfa + povoljna dubina", "dubina_panule_m": 50.0, "sst_raspon_C": 0.5, "sst_promjena_3d_C": -1.0, "upwelling": 0.0, "hladnije_C": -0.0, "izgledi": "vrlo slabi"}}]}