{"type": "FeatureCollection", "properties": {"vrsta": "tuna", "naziv": "Tuna", "latinski": "Thunnus thynnus", "datum": "2026-08-23", "panula": {"dubina_m": [0.0, 50.0], "brzina_kn": [6.0, 8.0], "granica_dubine_m": 50.0}, "vertikala": {"termoklina_m": 6.7, "termoklina_C_po_m": 0.5, "dcm_m": 91.2, "dcm_odnos": 1.0, "mld_m": 11.9, "sloj_plijena_m": [54.7, 114.7], "dohvatljivost": 0.0, "objasnjenje": "Termoklina na 7 m, sloj plijena oko 91 m — ispod dohvata panule od 50 m."}, "bezbjednost": {"nivo": "zuto", "razlog": "vjetar 12 cv", "izlazak_preporucen": true}, "napomena": ""}, "features": [{"type": "Feature", "geometry": {"type": "Polygon", "coordinates": [[[19.23, 41.895], [19.17, 41.895], [19.165, 41.89], [19.165, 41.86], [19.21, 41.825], [19.24, 41.825], [19.245, 41.83], [19.245, 41.88], [19.23, 41.895]]]}, "properties": {"score_mean": 18.2, "score_max": 32.8, "area_km2": 43.4, "centroid": [19.2083, 41.8634], "razlog": "termalni front + povoljna dubina", "dubina_panule_m": 7.1}}, {"type": "Feature", "geometry": {"type": "Polygon", "coordinates": [[[19.09, 41.975], [19.065, 41.97], [19.065, 41.95], [19.1, 41.905], [19.12, 41.905], [19.125, 41.93], [19.115, 41.94], [19.115, 41.95], [19.09, 41.975]]]}, "properties": {"score_mean": 16.7, "score_max": 23.7, "area_km2": 24.9, "centroid": [19.0956, 41.9404], "razlog": "termalni front + povoljna dubina", "dubina_panule_m": 7.1}}, {"type": "Feature", "geometry": {"type": "Polygon", "coordinates": [[[19.4, 41.675], [19.375, 41.67], [19.375, 41.62], [19.38, 41.615], [19.4, 41.615], [19.41, 41.605], [19.44, 41.605], [19.45, 41.615], [19.48, 41.615], [19.485, 41.62], [19.48, 41.645], [19.44, 41.645], [19.42, 41.665], [19.41, 41.665], [19.4, 41.675]]]}, "properties": {"score_mean": 14.5, "score_max": 21.7, "area_km2": 47.2, "centroid": [19.4214, 41.6361], "razlog": "gradijent hlorofila + povoljna dubina", "dubina_panule_m": 7.1}}]}