{"type": "FeatureCollection", "properties": {"vrsta": "tuna", "naziv": "Tuna", "latinski": "Thunnus thynnus", "datum": "2026-10-04", "profil": null, "panula": {"dubina_m": [0.0, 50.0], "brzina_kn": [6.0, 8.0], "sati": "zora, sumrak i mijene struje", "granica_dubine_m": 50.0}, "vertikala": {"termoklina_m": 40.0, "termoklina_C_po_m": 0.1, "dcm_m": 97.9, "dcm_odnos": 1.0, "dcm_debljina_m": 39.6, "mld_m": 19.3, "sloj_plijena_m": [69.9, 111.8], "dohvatljivost": 0.0, "objasnjenje": "Termoklina na 40 m. Sloj plijena lezi pretezno ispod 50 m, dakle izvan dohvata panule. Najveca gustina hlorofila je na 98 m (sloj debljine 40 m) - tu se skuplja sitna riba koja se hrani planktonom, pa je i najveca vjerovatnoca da su grabljivice tu negdje."}, "bezbjednost": {"nivo": "zuto", "razlog": "vjetar 12 cv", "izlazak_preporucen": true}, "napomena": "", "razlog_praznog": null}, "features": [{"type": "Feature", "geometry": {"type": "Polygon", "coordinates": [[[18.875, 42.22], [18.85, 42.225], [18.835, 42.21], [18.84, 42.185], [18.87, 42.185], [18.875, 42.19], [18.875, 42.22]]]}, "properties": {"score_mean": 30.8, "score_max": 41.9, "area_km2": 13.8, "centroid": [18.856, 42.204], "razlog": "termalni front + prisustvo mamca", "dubina_panule_m": 10.8, "sst_raspon_C": 1.1, "sst_promjena_3d_C": -0.3, "upwelling": 0.2, "hladnije_C": 0.2, "izgledi": "osrednji"}}, {"type": "Feature", "geometry": {"type": "Polygon", "coordinates": [[[18.7, 42.315], [18.67, 42.315], [18.665, 42.31], [18.665, 42.28], [18.695, 42.27], [18.695, 42.25], [18.71, 42.225], [18.74, 42.225], [18.745, 42.23], [18.745, 42.26], [18.73, 42.275], [18.705, 42.28], [18.705, 42.31], [18.7, 42.315]]]}, "properties": {"score_mean": 29.5, "score_max": 40.8, "area_km2": 34.8, "centroid": [18.7058, 42.2692], "razlog": "termalni front + povoljna dubina", "dubina_panule_m": 9.7, "sst_raspon_C": 0.4, "sst_promjena_3d_C": -0.3, "upwelling": 0.0, "hladnije_C": -0.1, "izgledi": "osrednji"}}, {"type": "Feature", "geometry": {"type": "Polygon", "coordinates": [[[19.11, 41.915], [19.085, 41.91], [19.085, 41.89], [19.095, 41.88], [19.095, 41.87], [19.12, 41.845], [19.14, 41.845], [19.145, 41.85], [19.145, 41.89], [19.13, 41.895], [19.11, 41.915]]]}, "properties": {"score_mean": 27.9, "score_max": 38.9, "area_km2": 27.7, "centroid": [19.1167, 41.8803], "razlog": "termalni front + prisustvo mamca", "dubina_panule_m": 10.1, "sst_raspon_C": 0.6, "sst_promjena_3d_C": 0.1, "upwelling": 0.0, "hladnije_C": -0.2, "izgledi": "osrednji"}}, {"type": "Feature", "geometry": {"type": "Polygon", "coordinates": [[[18.9, 42.185], [18.875, 42.18], [18.875, 42.16], [18.89, 42.145], [18.915, 42.15], [18.915, 42.17], [18.9, 42.185]]]}, "properties": {"score_mean": 27.8, "score_max": 30.5, "area_km2": 12.9, "centroid": [18.895, 42.165], "razlog": "termalni front + prisustvo mamca", "dubina_panule_m": 11.0, "sst_raspon_C": 1.2, "sst_promjena_3d_C": -0.2, "upwelling": 0.0, "hladnije_C": 0.0, "izgledi": "osrednji"}}, {"type": "Feature", "geometry": {"type": "Polygon", "coordinates": [[[18.94, 42.145], [18.915, 42.14], [18.92, 42.115], [18.945, 42.12], [18.94, 42.145]]]}, "properties": {"score_mean": 27.5, "score_max": 31.4, "area_km2": 8.3, "centroid": [18.93, 42.13], "razlog": "termalni front + prisustvo mamca", "dubina_panule_m": 10.6, "sst_raspon_C": 1.2, "sst_promjena_3d_C": 0.3, "upwelling": 0.0, "hladnije_C": -0.1, "izgledi": "osrednji"}}, {"type": "Feature", "geometry": {"type": "Polygon", "coordinates": [[[19.02, 42.095], [18.995, 42.09], [18.995, 42.07], [19.005, 42.06], [19.005, 42.04], [19.015, 42.03], [19.015, 42.02], [19.04, 42.015], [19.055, 42.03], [19.055, 42.05], [19.02, 42.095]]]}, "properties": {"score_mean": 21.3, "score_max": 26.3, "area_km2": 29.4, "centroid": [19.0244, 42.0544], "razlog": "termalni front + prisustvo mamca", "dubina_panule_m": 9.7, "sst_raspon_C": 0.6, "sst_promjena_3d_C": -0.3, "upwelling": 0.1, "hladnije_C": 0.1, "izgledi": "slabi"}}]}