{"type": "FeatureCollection", "properties": {"vrsta": "tuna", "naziv": "Tuna", "latinski": "Thunnus thynnus", "datum": "2026-10-12", "profil": null, "panula": {"dubina_m": [0.0, 50.0], "brzina_kn": [6.0, 8.0], "sati": "zora, sumrak i mijene struje", "granica_dubine_m": 50.0}, "vertikala": {"termoklina_m": 40.0, "termoklina_C_po_m": 0.1, "dcm_m": 78.6, "dcm_odnos": 1.0, "dcm_debljina_m": 39.8, "mld_m": 23.9, "sloj_plijena_m": [45.6, 90.8], "dohvatljivost": 0.1, "objasnjenje": "Termoklina na 40 m. Sloj plijena lezi pretezno ispod 50 m, dakle izvan dohvata panule. Najveca gustina hlorofila je na 79 m (sloj debljine 40 m) - tu se skuplja sitna riba koja se hrani planktonom, pa je i najveca vjerovatnoca da su grabljivice tu negdje."}, "bezbjednost": {"nivo": "crveno", "razlog": "vjetar 18 cv, udari 24 cv", "izlazak_preporucen": false}, "napomena": "", "razlog_praznog": null}, "features": [{"type": "Feature", "geometry": {"type": "Polygon", "coordinates": [[[19.01, 42.025], [18.98, 42.025], [18.975, 42.02], [18.975, 42.0], [18.995, 41.98], [18.995, 41.95], [19.0, 41.945], [19.025, 41.95], [19.025, 41.98], [19.015, 41.99], [19.015, 42.02], [19.01, 42.025]]]}, "properties": {"score_mean": 26.4, "score_max": 33.3, "area_km2": 24.9, "centroid": [19.0022, 41.9878], "razlog": "termalni front + gradijent hlorofila", "dubina_panule_m": 18.0, "sst_raspon_C": 0.5, "sst_promjena_3d_C": 0.0, "upwelling": 0.0, "hladnije_C": 0.2, "izgledi": "osrednji"}}, {"type": "Feature", "geometry": {"type": "Polygon", "coordinates": [[[18.65, 42.335], [18.625, 42.33], [18.63, 42.305], [18.655, 42.31], [18.65, 42.335]]]}, "properties": {"score_mean": 21.2, "score_max": 24.1, "area_km2": 8.2, "centroid": [18.64, 42.32], "razlog": "termalni front + povoljna dubina", "dubina_panule_m": 11.2, "sst_raspon_C": 0.5, "sst_promjena_3d_C": 0.0, "upwelling": 0.0, "hladnije_C": -0.2, "izgledi": "slabi"}}, {"type": "Feature", "geometry": {"type": "Polygon", "coordinates": [[[18.86, 42.215], [18.78, 42.215], [18.775, 42.19], [18.82, 42.165], [18.83, 42.165], [18.87, 42.125], [18.89, 42.125], [18.895, 42.13], [18.895, 42.16], [18.88, 42.165], [18.865, 42.18], [18.865, 42.21], [18.86, 42.215]]]}, "properties": {"score_mean": 20.1, "score_max": 29.7, "area_km2": 53.3, "centroid": [18.8397, 42.1783], "razlog": "termalni front + prisustvo mamca", "dubina_panule_m": 18.4, "sst_raspon_C": 0.5, "sst_promjena_3d_C": 0.0, "upwelling": 0.0, "hladnije_C": -0.1, "izgledi": "slabi"}}, {"type": "Feature", "geometry": {"type": "Polygon", "coordinates": [[[18.63, 41.835], [18.605, 41.83], [18.605, 41.81], [18.64, 41.755], [18.66, 41.755], [18.665, 41.76], [18.665, 41.79], [18.655, 41.8], [18.655, 41.81], [18.63, 41.835]]]}, "properties": {"score_mean": 7.9, "score_max": 9.1, "area_km2": 28.6, "centroid": [18.6365, 41.7961], "razlog": "ivica selfa + povoljna dubina", "dubina_panule_m": 50.0, "sst_raspon_C": 0.3, "sst_promjena_3d_C": 0.0, "upwelling": 0.0, "hladnije_C": -0.1, "izgledi": "vrlo slabi"}}]}