{"type": "FeatureCollection", "properties": {"vrsta": "tuna", "naziv": "Tuna", "latinski": "Thunnus thynnus", "datum": "2026-09-12", "profil": null, "panula": {"dubina_m": [0.0, 50.0], "brzina_kn": [6.0, 8.0], "sati": "zora, sumrak i mijene struje", "granica_dubine_m": 50.0}, "vertikala": {"termoklina_m": 17.8, "termoklina_C_po_m": 0.2, "dcm_m": 97.9, "dcm_odnos": 1.0, "dcm_debljina_m": 42.1, "mld_m": 11.9, "sloj_plijena_m": [51.8, 99.4], "dohvatljivost": 0.0, "objasnjenje": "Termoklina na 18 m. Sloj plijena lezi pretezno ispod 50 m, dakle izvan dohvata panule. Najveca gustina hlorofila je na 98 m (sloj debljine 42 m) - tu se skuplja sitna riba koja se hrani planktonom, pa je i najveca vjerovatnoca da su grabljivice tu negdje."}, "bezbjednost": {"nivo": "zuto", "razlog": "vjetar 12 cv", "izlazak_preporucen": true}, "napomena": "", "razlog_praznog": null}, "features": [{"type": "Feature", "geometry": {"type": "Polygon", "coordinates": [[[18.96, 41.975], [18.93, 41.975], [18.92, 41.965], [18.88, 41.965], [18.875, 41.94], [18.91, 41.905], [18.96, 41.905], [18.975, 41.92], [18.975, 41.96], [18.96, 41.975]]]}, "properties": {"score_mean": 18.8, "score_max": 24.5, "area_km2": 52.5, "centroid": [18.9296, 41.9398], "razlog": "termalni front + prisustvo mamca", "dubina_panule_m": 7.4, "sst_raspon_C": 0.6, "sst_promjena_3d_C": 0.4, "upwelling": 0.3, "hladnije_C": 0.2, "izgledi": "slabi"}}, {"type": "Feature", "geometry": {"type": "Polygon", "coordinates": [[[18.73, 42.275], [18.705, 42.27], [18.705, 42.24], [18.71, 42.235], [18.74, 42.235], [18.745, 42.24], [18.745, 42.26], [18.73, 42.275]]]}, "properties": {"score_mean": 18.6, "score_max": 22.0, "area_km2": 13.8, "centroid": [18.724, 42.254], "razlog": "termalni front + povoljna dubina", "dubina_panule_m": 33.8, "sst_raspon_C": 0.5, "sst_promjena_3d_C": 0.2, "upwelling": 0.0, "hladnije_C": -0.2, "izgledi": "slabi"}}, {"type": "Feature", "geometry": {"type": "Polygon", "coordinates": [[[18.7, 42.305], [18.67, 42.305], [18.665, 42.28], [18.67, 42.275], [18.7, 42.275], [18.705, 42.28], [18.7, 42.305]]]}, "properties": {"score_mean": 18.4, "score_max": 25.2, "area_km2": 11.0, "centroid": [18.685, 42.29], "razlog": "termalni front + povoljna dubina", "dubina_panule_m": 26.2, "sst_raspon_C": 0.5, "sst_promjena_3d_C": 0.2, "upwelling": 0.0, "hladnije_C": -0.1, "izgledi": "slabi"}}]}