{"type": "FeatureCollection", "properties": {"vrsta": "tuna", "naziv": "Tuna", "latinski": "Thunnus thynnus", "datum": "2026-09-02", "profil": null, "panula": {"dubina_m": [0.0, 50.0], "brzina_kn": [6.0, 8.0], "sati": "zora, sumrak i mijene struje", "granica_dubine_m": 50.0}, "vertikala": {"termoklina_m": 14.8, "termoklina_C_po_m": 0.3, "dcm_m": 91.2, "dcm_odnos": 1.0, "dcm_debljina_m": 33.7, "mld_m": 11.9, "sloj_plijena_m": [64.9, 101.3], "dohvatljivost": 0.0, "objasnjenje": "Termoklina na 15 m. Sloj plijena lezi pretezno ispod 50 m, dakle izvan dohvata panule. Najveca gustina hlorofila je na 91 m (sloj debljine 34 m) - tu se skuplja sitna riba koja se hrani planktonom, pa je i najveca vjerovatnoca da su grabljivice tu negdje."}, "bezbjednost": {"nivo": "zuto", "razlog": "vjetar 14 cv", "izlazak_preporucen": true}, "napomena": "", "razlog_praznog": null}, "features": [{"type": "Feature", "geometry": {"type": "Polygon", "coordinates": [[[19.22, 41.885], [19.19, 41.885], [19.185, 41.88], [19.185, 41.86], [19.2, 41.845], [19.23, 41.845], [19.235, 41.85], [19.235, 41.87], [19.22, 41.885]]]}, "properties": {"score_mean": 17.9, "score_max": 25.4, "area_km2": 16.6, "centroid": [19.21, 41.865], "razlog": "termalni front + prisustvo mamca", "dubina_panule_m": 7.1, "sst_raspon_C": 0.9, "sst_promjena_3d_C": 0.0, "upwelling": 0.6, "hladnije_C": 0.5, "izgledi": "slabi"}}, {"type": "Feature", "geometry": {"type": "Polygon", "coordinates": [[[19.28, 41.845], [19.255, 41.84], [19.26, 41.815], [19.285, 41.82], [19.28, 41.845]]]}, "properties": {"score_mean": 16.8, "score_max": 18.6, "area_km2": 8.3, "centroid": [19.27, 41.83], "razlog": "termalni front + gradijent hlorofila", "dubina_panule_m": 7.1, "sst_raspon_C": 0.8, "sst_promjena_3d_C": 0.0, "upwelling": 0.1, "hladnije_C": 0.0, "izgledi": "slabi"}}, {"type": "Feature", "geometry": {"type": "Polygon", "coordinates": [[[19.1, 41.975], [19.075, 41.97], [19.075, 41.95], [19.09, 41.925], [19.115, 41.93], [19.115, 41.95], [19.1, 41.975]]]}, "properties": {"score_mean": 14.6, "score_max": 20.6, "area_km2": 14.7, "centroid": [19.095, 41.95], "razlog": "termalni front + prisustvo mamca", "dubina_panule_m": 7.1, "sst_raspon_C": 0.5, "sst_promjena_3d_C": 0.0, "upwelling": 0.2, "hladnije_C": 0.2, "izgledi": "slabi"}}, {"type": "Feature", "geometry": {"type": "Polygon", "coordinates": [[[18.72, 42.265], [18.7, 42.265], [18.695, 42.24], [18.71, 42.225], [18.74, 42.225], [18.745, 42.25], [18.72, 42.265]]]}, "properties": {"score_mean": 10.9, "score_max": 16.1, "area_km2": 15.6, "centroid": [18.7194, 42.2441], "razlog": "termalni front + povoljna dubina", "dubina_panule_m": 33.8, "sst_raspon_C": 0.6, "sst_promjena_3d_C": 0.0, "upwelling": 0.0, "hladnije_C": -0.1, "izgledi": "vrlo slabi"}}, {"type": "Feature", "geometry": {"type": "Polygon", "coordinates": [[[18.8, 41.715], [18.77, 41.715], [18.765, 41.69], [18.79, 41.655], [18.8, 41.655], [18.81, 41.645], [18.83, 41.645], [18.835, 41.67], [18.825, 41.68], [18.825, 41.69], [18.8, 41.715]]]}, "properties": {"score_mean": 1.3, "score_max": 1.4, "area_km2": 31.5, "centroid": [18.8, 41.6809], "razlog": "ivica selfa + povoljna dubina", "dubina_panule_m": 50.0, "sst_raspon_C": 0.2, "sst_promjena_3d_C": 0.0, "upwelling": 0.0, "hladnije_C": 0.1, "izgledi": "vrlo slabi"}}]}