{"type": "FeatureCollection", "properties": {"vrsta": "tuna", "naziv": "Tuna", "latinski": "Thunnus thynnus", "datum": "2026-10-03", "profil": null, "panula": {"dubina_m": [0.0, 50.0], "brzina_kn": [6.0, 8.0], "sati": "zora, sumrak i mijene struje", "granica_dubine_m": 50.0}, "vertikala": {"termoklina_m": 40.0, "termoklina_C_po_m": 0.1, "dcm_m": 97.9, "dcm_odnos": 1.0, "dcm_debljina_m": 39.6, "mld_m": 21.9, "sloj_plijena_m": [68.1, 111.8], "dohvatljivost": 0.0, "objasnjenje": "Termoklina na 40 m. Sloj plijena lezi pretezno ispod 50 m, dakle izvan dohvata panule. Najveca gustina hlorofila je na 98 m (sloj debljine 40 m) - tu se skuplja sitna riba koja se hrani planktonom, pa je i najveca vjerovatnoca da su grabljivice tu negdje."}, "bezbjednost": {"nivo": "zuto", "razlog": "talasi do 1.3 m", "izlazak_preporucen": true}, "napomena": "", "razlog_praznog": null}, "features": [{"type": "Feature", "geometry": {"type": "Polygon", "coordinates": [[[18.7, 42.315], [18.68, 42.315], [18.67, 42.305], [18.665, 42.28], [18.695, 42.27], [18.695, 42.24], [18.71, 42.225], [18.74, 42.225], [18.745, 42.23], [18.745, 42.27], [18.74, 42.275], [18.71, 42.275], [18.7, 42.315]]]}, "properties": {"score_mean": 29.5, "score_max": 41.1, "area_km2": 35.8, "centroid": [18.7074, 42.2674], "razlog": "termalni front + povoljna dubina", "dubina_panule_m": 8.9, "sst_raspon_C": 0.5, "sst_promjena_3d_C": -0.3, "upwelling": 0.0, "hladnije_C": -0.0, "izgledi": "osrednji"}}, {"type": "Feature", "geometry": {"type": "Polygon", "coordinates": [[[18.86, 42.225], [18.835, 42.22], [18.835, 42.19], [18.84, 42.185], [18.87, 42.185], [18.875, 42.19], [18.875, 42.21], [18.86, 42.225]]]}, "properties": {"score_mean": 28.8, "score_max": 37.8, "area_km2": 13.8, "centroid": [18.854, 42.204], "razlog": "termalni front + prisustvo mamca", "dubina_panule_m": 9.9, "sst_raspon_C": 1.2, "sst_promjena_3d_C": -0.2, "upwelling": 0.1, "hladnije_C": 0.1, "izgledi": "osrednji"}}, {"type": "Feature", "geometry": {"type": "Polygon", "coordinates": [[[18.9, 42.185], [18.875, 42.18], [18.875, 42.16], [18.89, 42.145], [18.915, 42.15], [18.915, 42.17], [18.9, 42.185]]]}, "properties": {"score_mean": 27.1, "score_max": 31.5, "area_km2": 12.9, "centroid": [18.895, 42.165], "razlog": "termalni front + prisustvo mamca", "dubina_panule_m": 10.2, "sst_raspon_C": 1.4, "sst_promjena_3d_C": 0.1, "upwelling": 0.0, "hladnije_C": -0.0, "izgledi": "osrednji"}}, {"type": "Feature", "geometry": {"type": "Polygon", "coordinates": [[[18.94, 42.145], [18.915, 42.14], [18.92, 42.115], [18.945, 42.12], [18.94, 42.145]]]}, "properties": {"score_mean": 26.0, "score_max": 32.3, "area_km2": 8.3, "centroid": [18.93, 42.13], "razlog": "termalni front + prisustvo mamca", "dubina_panule_m": 9.8, "sst_raspon_C": 1.5, "sst_promjena_3d_C": 0.3, "upwelling": 0.4, "hladnije_C": 0.3, "izgledi": "osrednji"}}, {"type": "Feature", "geometry": {"type": "Polygon", "coordinates": [[[19.02, 42.095], [18.995, 42.09], [19.0, 42.065], [19.025, 42.07], [19.02, 42.095]]]}, "properties": {"score_mean": 25.1, "score_max": 30.2, "area_km2": 8.3, "centroid": [19.01, 42.08], "razlog": "termalni front + prisustvo mamca", "dubina_panule_m": 8.6, "sst_raspon_C": 1.1, "sst_promjena_3d_C": 0.1, "upwelling": 0.0, "hladnije_C": -0.0, "izgledi": "osrednji"}}, {"type": "Feature", "geometry": {"type": "Polygon", "coordinates": [[[18.61, 41.895], [18.585, 41.89], [18.59, 41.865], [18.615, 41.87], [18.61, 41.895]]]}, "properties": {"score_mean": 2.0, "score_max": 2.2, "area_km2": 8.3, "centroid": [18.6, 41.88], "razlog": "ivica selfa + povoljna dubina", "dubina_panule_m": 50.0, "sst_raspon_C": 0.4, "sst_promjena_3d_C": 0.4, "upwelling": 0.0, "hladnije_C": 0.1, "izgledi": "vrlo slabi"}}]}