{"type": "FeatureCollection", "properties": {"vrsta": "tuna", "naziv": "Tuna", "latinski": "Thunnus thynnus", "datum": "2026-09-15", "profil": null, "panula": {"dubina_m": [0.0, 50.0], "brzina_kn": [6.0, 8.0], "sati": "zora, sumrak i mijene struje", "granica_dubine_m": 50.0}, "vertikala": {"termoklina_m": 24.5, "termoklina_C_po_m": 0.3, "dcm_m": 97.9, "dcm_odnos": 1.0, "dcm_debljina_m": 39.8, "mld_m": 15.8, "sloj_plijena_m": [54.2, 102.9], "dohvatljivost": 0.0, "objasnjenje": "Termoklina na 24 m. Sloj plijena lezi pretezno ispod 50 m, dakle izvan dohvata panule. Najveca gustina hlorofila je na 98 m (sloj debljine 40 m) - tu se skuplja sitna riba koja se hrani planktonom, pa je i najveca vjerovatnoca da su grabljivice tu negdje."}, "bezbjednost": {"nivo": "crveno", "razlog": "vjetar 15 cv, udari 20 cv", "izlazak_preporucen": false}, "napomena": "", "razlog_praznog": null}, "features": [{"type": "Feature", "geometry": {"type": "Polygon", "coordinates": [[[19.085, 41.88], [19.06, 41.885], [19.045, 41.87], [19.045, 41.84], [19.065, 41.81], [19.065, 41.76], [19.07, 41.755], [19.095, 41.76], [19.095, 41.81], [19.085, 41.82], [19.085, 41.88]]]}, "properties": {"score_mean": 25.8, "score_max": 32.0, "area_km2": 39.7, "centroid": [19.0723, 41.8233], "razlog": "termalni front + gradijent hlorofila", "dubina_panule_m": 11.5, "sst_raspon_C": 0.5, "sst_promjena_3d_C": -1.0, "upwelling": 0.0, "hladnije_C": 0.3, "izgledi": "osrednji"}}, {"type": "Feature", "geometry": {"type": "Polygon", "coordinates": [[[18.7, 42.305], [18.67, 42.305], [18.665, 42.28], [18.68, 42.265], [18.705, 42.26], [18.705, 42.23], [18.71, 42.225], [18.74, 42.225], [18.745, 42.23], [18.745, 42.26], [18.73, 42.275], [18.71, 42.275], [18.7, 42.305]]]}, "properties": {"score_mean": 17.8, "score_max": 22.9, "area_km2": 31.2, "centroid": [18.7074, 42.2653], "razlog": "termalni front + povoljna dubina", "dubina_panule_m": 8.0, "sst_raspon_C": 0.4, "sst_promjena_3d_C": -0.4, "upwelling": 0.0, "hladnije_C": -0.1, "izgledi": "slabi"}}, {"type": "Feature", "geometry": {"type": "Polygon", "coordinates": [[[18.89, 41.995], [18.865, 41.99], [18.865, 41.96], [18.88, 41.945], [18.89, 41.945], [18.92, 41.925], [18.94, 41.925], [18.945, 41.93], [18.945, 41.98], [18.94, 41.985], [18.9, 41.985], [18.89, 41.995]]]}, "properties": {"score_mean": 17.3, "score_max": 25.5, "area_km2": 38.7, "centroid": [18.9076, 41.9617], "razlog": "termalni front + prisustvo mamca", "dubina_panule_m": 10.9, "sst_raspon_C": 0.8, "sst_promjena_3d_C": -0.4, "upwelling": 0.0, "hladnije_C": -0.0, "izgledi": "slabi"}}]}