{"type": "FeatureCollection", "properties": {"vrsta": "tuna", "naziv": "Tuna", "latinski": "Thunnus thynnus", "datum": "2026-10-08", "profil": null, "panula": {"dubina_m": [0.0, 50.0], "brzina_kn": [6.0, 8.0], "sati": "zora, sumrak i mijene struje", "granica_dubine_m": 50.0}, "vertikala": {"termoklina_m": 28.0, "termoklina_C_po_m": 0.1, "dcm_m": 91.2, "dcm_odnos": 1.0, "dcm_debljina_m": 41.3, "mld_m": 20.0, "sloj_plijena_m": [62.0, 103.3], "dohvatljivost": 0.0, "objasnjenje": "Termoklina na 28 m. Sloj plijena lezi pretezno ispod 50 m, dakle izvan dohvata panule. Najveca gustina hlorofila je na 91 m (sloj debljine 41 m) - tu se skuplja sitna riba koja se hrani planktonom, pa je i najveca vjerovatnoca da su grabljivice tu negdje."}, "bezbjednost": {"nivo": "crveno", "razlog": "talasi do 1.5 m, vjetar 18 cv, udari 24 cv", "izlazak_preporucen": false}, "napomena": "", "razlog_praznog": null}, "features": [{"type": "Feature", "geometry": {"type": "Polygon", "coordinates": [[[18.74, 42.265], [18.71, 42.265], [18.705, 42.26], [18.705, 42.24], [18.72, 42.225], [18.745, 42.23], [18.745, 42.26], [18.74, 42.265]]]}, "properties": {"score_mean": 30.0, "score_max": 36.0, "area_km2": 13.8, "centroid": [18.726, 42.246], "razlog": "termalni front + povoljna dubina", "dubina_panule_m": 11.6, "sst_raspon_C": 0.9, "sst_promjena_3d_C": 0.0, "upwelling": 0.0, "hladnije_C": -0.0, "izgledi": "osrednji"}}, {"type": "Feature", "geometry": {"type": "Polygon", "coordinates": [[[18.86, 42.225], [18.81, 42.225], [18.805, 42.22], [18.805, 42.19], [18.81, 42.185], [18.87, 42.185], [18.875, 42.21], [18.86, 42.225]]]}, "properties": {"score_mean": 29.1, "score_max": 38.0, "area_km2": 24.8, "centroid": [18.8389, 42.2044], "razlog": "termalni front + prisustvo mamca", "dubina_panule_m": 12.2, "sst_raspon_C": 1.3, "sst_promjena_3d_C": 0.0, "upwelling": 0.1, "hladnije_C": 0.1, "izgledi": "osrednji"}}, {"type": "Feature", "geometry": {"type": "Polygon", "coordinates": [[[18.9, 42.185], [18.875, 42.18], [18.875, 42.16], [18.89, 42.145], [18.915, 42.15], [18.915, 42.17], [18.9, 42.185]]]}, "properties": {"score_mean": 28.2, "score_max": 33.1, "area_km2": 12.9, "centroid": [18.895, 42.165], "razlog": "termalni front + prisustvo mamca", "dubina_panule_m": 11.1, "sst_raspon_C": 1.3, "sst_promjena_3d_C": 0.0, "upwelling": 0.0, "hladnije_C": 0.4, "izgledi": "osrednji"}}, {"type": "Feature", "geometry": {"type": "Polygon", "coordinates": [[[18.95, 42.105], [18.925, 42.1], [18.925, 42.03], [18.93, 42.025], [18.955, 42.03], [18.955, 42.05], [18.965, 42.06], [18.965, 42.09], [18.95, 42.105]]]}, "properties": {"score_mean": 22.8, "score_max": 28.0, "area_km2": 25.8, "centroid": [18.9429, 42.0664], "razlog": "termalni front + prisustvo mamca", "dubina_panule_m": 11.3, "sst_raspon_C": 0.9, "sst_promjena_3d_C": 0.0, "upwelling": 0.1, "hladnije_C": 0.2, "izgledi": "slabi"}}, {"type": "Feature", "geometry": {"type": "Polygon", "coordinates": [[[18.81, 41.675], [18.785, 41.67], [18.79, 41.645], [18.8, 41.645], [18.81, 41.635], [18.83, 41.635], [18.84, 41.625], [18.865, 41.63], [18.86, 41.655], [18.84, 41.655], [18.81, 41.675]]]}, "properties": {"score_mean": 3.6, "score_max": 5.2, "area_km2": 23.1, "centroid": [18.8244, 41.6496], "razlog": "ivica selfa + povoljna dubina", "dubina_panule_m": 50.0, "sst_raspon_C": 1.0, "sst_promjena_3d_C": 0.0, "upwelling": 0.1, "hladnije_C": 0.3, "izgledi": "vrlo slabi"}}]}