{"type": "FeatureCollection", "properties": {"vrsta": "tuna", "naziv": "Tuna", "latinski": "Thunnus thynnus", "datum": "2026-10-09", "profil": null, "panula": {"dubina_m": [0.0, 50.0], "brzina_kn": [6.0, 8.0], "sati": "zora, sumrak i mijene struje", "granica_dubine_m": 50.0}, "vertikala": {"termoklina_m": 31.8, "termoklina_C_po_m": 0.1, "dcm_m": 91.2, "dcm_odnos": 1.0, "dcm_debljina_m": 42.6, "mld_m": 20.2, "sloj_plijena_m": [59.4, 103.3], "dohvatljivost": 0.0, "objasnjenje": "Termoklina na 32 m. Sloj plijena lezi pretezno ispod 50 m, dakle izvan dohvata panule. Najveca gustina hlorofila je na 91 m (sloj debljine 43 m) - tu se skuplja sitna riba koja se hrani planktonom, pa je i najveca vjerovatnoca da su grabljivice tu negdje."}, "bezbjednost": {"nivo": "crveno", "razlog": "talasi do 2.3 m, vjetar 17 cv, udari 24 cv", "izlazak_preporucen": false}, "napomena": "", "razlog_praznog": null}, "features": [{"type": "Feature", "geometry": {"type": "Polygon", "coordinates": [[[18.73, 42.275], [18.705, 42.27], [18.705, 42.24], [18.71, 42.235], [18.74, 42.235], [18.745, 42.24], [18.745, 42.26], [18.73, 42.275]]]}, "properties": {"score_mean": 32.1, "score_max": 39.0, "area_km2": 13.8, "centroid": [18.724, 42.254], "razlog": "termalni front + povoljna dubina", "dubina_panule_m": 11.3, "sst_raspon_C": 0.8, "sst_promjena_3d_C": 0.0, "upwelling": 0.0, "hladnije_C": -0.1, "izgledi": "osrednji"}}, {"type": "Feature", "geometry": {"type": "Polygon", "coordinates": [[[18.84, 42.225], [18.81, 42.225], [18.805, 42.22], [18.805, 42.19], [18.81, 42.185], [18.85, 42.185], [18.855, 42.19], [18.855, 42.21], [18.84, 42.225]]]}, "properties": {"score_mean": 30.7, "score_max": 38.2, "area_km2": 17.4, "centroid": [18.8289, 42.2042], "razlog": "termalni front + gradijent hlorofila", "dubina_panule_m": 11.5, "sst_raspon_C": 1.0, "sst_promjena_3d_C": 0.0, "upwelling": 0.1, "hladnije_C": 0.0, "izgledi": "osrednji"}}, {"type": "Feature", "geometry": {"type": "Polygon", "coordinates": [[[18.63, 42.345], [18.6, 42.345], [18.595, 42.32], [18.62, 42.305], [18.625, 42.29], [18.64, 42.275], [18.66, 42.275], [18.665, 42.28], [18.665, 42.31], [18.655, 42.32], [18.655, 42.33], [18.63, 42.345]]]}, "properties": {"score_mean": 30.2, "score_max": 40.5, "area_km2": 29.3, "centroid": [18.6334, 42.3128], "razlog": "termalni front + povoljna dubina", "dubina_panule_m": 11.8, "sst_raspon_C": 0.9, "sst_promjena_3d_C": 0.0, "upwelling": 0.0, "hladnije_C": -0.3, "izgledi": "osrednji"}}, {"type": "Feature", "geometry": {"type": "Polygon", "coordinates": [[[19.07, 41.965], [19.045, 41.96], [19.05, 41.935], [19.075, 41.94], [19.07, 41.965]]]}, "properties": {"score_mean": 20.4, "score_max": 26.6, "area_km2": 8.3, "centroid": [19.06, 41.95], "razlog": "termalni front + gradijent hlorofila", "dubina_panule_m": 7.4, "sst_raspon_C": 0.6, "sst_promjena_3d_C": 0.0, "upwelling": 0.0, "hladnije_C": 0.1, "izgledi": "slabi"}}, {"type": "Feature", "geometry": {"type": "Polygon", "coordinates": [[[18.91, 42.125], [18.885, 42.12], [18.885, 42.1], [18.9, 42.085], [18.925, 42.09], [18.925, 42.11], [18.91, 42.125]]]}, "properties": {"score_mean": 19.7, "score_max": 23.7, "area_km2": 12.9, "centroid": [18.905, 42.105], "razlog": "termalni front + prisustvo mamca", "dubina_panule_m": 9.9, "sst_raspon_C": 0.8, "sst_promjena_3d_C": 0.0, "upwelling": 0.0, "hladnije_C": -0.0, "izgledi": "slabi"}}, {"type": "Feature", "geometry": {"type": "Polygon", "coordinates": [[[18.73, 41.725], [18.71, 41.725], [18.705, 41.7], [18.74, 41.665], [18.79, 41.645], [18.8, 41.635], [18.83, 41.635], [18.835, 41.64], [18.835, 41.67], [18.83, 41.675], [18.82, 41.675], [18.78, 41.705], [18.76, 41.705], [18.75, 41.715], [18.74, 41.715], [18.73, 41.725]]]}, "properties": {"score_mean": 2.9, "score_max": 4.6, "area_km2": 57.4, "centroid": [18.7716, 41.6787], "razlog": "ivica selfa + povoljna dubina", "dubina_panule_m": 50.0, "sst_raspon_C": 0.4, "sst_promjena_3d_C": 0.0, "upwelling": 0.0, "hladnije_C": 0.2, "izgledi": "vrlo slabi"}}]}