{"type": "FeatureCollection", "properties": {"vrsta": "tuna", "naziv": "Tuna", "latinski": "Thunnus thynnus", "datum": "2026-09-08", "profil": null, "panula": {"dubina_m": [0.0, 50.0], "brzina_kn": [6.0, 8.0], "sati": "zora, sumrak i mijene struje", "granica_dubine_m": 50.0}, "vertikala": {"termoklina_m": 17.8, "termoklina_C_po_m": 0.3, "dcm_m": 91.2, "dcm_odnos": 1.0, "dcm_debljina_m": 39.6, "mld_m": 11.9, "sloj_plijena_m": [59.7, 106.5], "dohvatljivost": 0.0, "objasnjenje": "Termoklina na 18 m. Sloj plijena lezi pretezno ispod 50 m, dakle izvan dohvata panule. Najveca gustina hlorofila je na 91 m (sloj debljine 40 m) - tu se skuplja sitna riba koja se hrani planktonom, pa je i najveca vjerovatnoca da su grabljivice tu negdje."}, "bezbjednost": {"nivo": "zuto", "razlog": "vjetar 12 cv", "izlazak_preporucen": true}, "napomena": "", "razlog_praznog": null}, "features": [{"type": "Feature", "geometry": {"type": "Polygon", "coordinates": [[[18.87, 42.225], [18.84, 42.225], [18.835, 42.22], [18.835, 42.19], [18.84, 42.185], [18.87, 42.185], [18.875, 42.19], [18.875, 42.22], [18.87, 42.225]]]}, "properties": {"score_mean": 17.8, "score_max": 25.6, "area_km2": 14.7, "centroid": [18.855, 42.205], "razlog": "termalni front + prisustvo mamca", "dubina_panule_m": 42.1, "sst_raspon_C": 1.1, "sst_promjena_3d_C": 0.0, "upwelling": 0.4, "hladnije_C": 0.2, "izgledi": "slabi"}}, {"type": "Feature", "geometry": {"type": "Polygon", "coordinates": [[[19.11, 42.005], [19.085, 42.0], [19.09, 41.975], [19.115, 41.98], [19.11, 42.005]]]}, "properties": {"score_mean": 14.8, "score_max": 19.3, "area_km2": 8.3, "centroid": [19.1, 41.99], "razlog": "termalni front + gradijent hlorofila", "dubina_panule_m": 7.1, "sst_raspon_C": 0.5, "sst_promjena_3d_C": 0.0, "upwelling": 0.0, "hladnije_C": -0.1, "izgledi": "slabi"}}, {"type": "Feature", "geometry": {"type": "Polygon", "coordinates": [[[18.7, 42.305], [18.675, 42.3], [18.68, 42.275], [18.705, 42.28], [18.7, 42.305]]]}, "properties": {"score_mean": 13.8, "score_max": 16.1, "area_km2": 8.3, "centroid": [18.69, 42.29], "razlog": "termalni front + povoljna dubina", "dubina_panule_m": 7.1, "sst_raspon_C": 0.5, "sst_promjena_3d_C": -0.2, "upwelling": 0.0, "hladnije_C": -0.2, "izgledi": "slabi"}}, {"type": "Feature", "geometry": {"type": "Polygon", "coordinates": [[[18.73, 42.275], [18.705, 42.27], [18.705, 42.23], [18.71, 42.225], [18.74, 42.225], [18.745, 42.23], [18.745, 42.26], [18.73, 42.275]]]}, "properties": {"score_mean": 13.6, "score_max": 15.7, "area_km2": 17.4, "centroid": [18.7242, 42.2489], "razlog": "termalni front + povoljna dubina", "dubina_panule_m": 33.8, "sst_raspon_C": 0.5, "sst_promjena_3d_C": -0.3, "upwelling": 0.0, "hladnije_C": -0.2, "izgledi": "slabi"}}, {"type": "Feature", "geometry": {"type": "Polygon", "coordinates": [[[19.14, 41.875], [19.115, 41.87], [19.115, 41.84], [19.12, 41.835], [19.145, 41.84], [19.145, 41.87], [19.14, 41.875]]]}, "properties": {"score_mean": 12.6, "score_max": 14.2, "area_km2": 11.1, "centroid": [19.13, 41.855], "razlog": "termalni front + prisustvo mamca", "dubina_panule_m": 7.3, "sst_raspon_C": 0.7, "sst_promjena_3d_C": -0.5, "upwelling": 0.2, "hladnije_C": 0.1, "izgledi": "slabi"}}, {"type": "Feature", "geometry": {"type": "Polygon", "coordinates": [[[18.94, 42.005], [18.88, 42.005], [18.875, 42.0], [18.875, 41.99], [18.865, 41.98], [18.865, 41.93], [18.87, 41.925], [18.94, 41.925], [18.945, 41.93], [18.945, 42.0], [18.94, 42.005]]]}, "properties": {"score_mean": 2.1, "score_max": 6.2, "area_km2": 57.1, "centroid": [18.9061, 41.964], "razlog": "termalni front + gradijent hlorofila", "dubina_panule_m": 50.0, "sst_raspon_C": 0.3, "sst_promjena_3d_C": -0.3, "upwelling": 0.2, "hladnije_C": 0.1, "izgledi": "vrlo slabi"}}]}