{"type": "FeatureCollection", "properties": {"vrsta": "tuna", "naziv": "Tuna", "latinski": "Thunnus thynnus", "datum": "2026-09-17", "profil": null, "panula": {"dubina_m": [0.0, 50.0], "brzina_kn": [6.0, 8.0], "sati": "zora, sumrak i mijene struje", "granica_dubine_m": 50.0}, "vertikala": {"termoklina_m": 24.5, "termoklina_C_po_m": 0.2, "dcm_m": 97.9, "dcm_odnos": 1.0, "dcm_debljina_m": 35.1, "mld_m": 16.6, "sloj_plijena_m": [58.4, 104.5], "dohvatljivost": 0.0, "objasnjenje": "Termoklina na 24 m. Sloj plijena lezi pretezno ispod 50 m, dakle izvan dohvata panule. Najveca gustina hlorofila je na 98 m (sloj debljine 35 m) - tu se skuplja sitna riba koja se hrani planktonom, pa je i najveca vjerovatnoca da su grabljivice tu negdje."}, "bezbjednost": {"nivo": "zeleno", "razlog": "uslovi povoljni", "izlazak_preporucen": true}, "napomena": "", "razlog_praznog": null}, "features": [{"type": "Feature", "geometry": {"type": "Polygon", "coordinates": [[[19.1, 41.925], [19.075, 41.92], [19.08, 41.895], [19.105, 41.9], [19.1, 41.925]]]}, "properties": {"score_mean": 33.6, "score_max": 41.3, "area_km2": 8.3, "centroid": [19.09, 41.91], "razlog": "termalni front + prisustvo mamca", "dubina_panule_m": 7.5, "sst_raspon_C": 1.0, "sst_promjena_3d_C": -0.3, "upwelling": 0.2, "hladnije_C": 0.0, "izgledi": "osrednji"}}, {"type": "Feature", "geometry": {"type": "Polygon", "coordinates": [[[18.69, 42.315], [18.665, 42.31], [18.665, 42.28], [18.695, 42.27], [18.695, 42.25], [18.71, 42.225], [18.74, 42.225], [18.745, 42.23], [18.745, 42.26], [18.73, 42.275], [18.71, 42.275], [18.705, 42.3], [18.69, 42.315]]]}, "properties": {"score_mean": 26.7, "score_max": 36.3, "area_km2": 33.9, "centroid": [18.7059, 42.2681], "razlog": "termalni front + povoljna dubina", "dubina_panule_m": 33.8, "sst_raspon_C": 0.4, "sst_promjena_3d_C": -1.0, "upwelling": 0.1, "hladnije_C": 0.1, "izgledi": "osrednji"}}, {"type": "Feature", "geometry": {"type": "Polygon", "coordinates": [[[18.94, 42.065], [18.91, 42.065], [18.885, 42.04], [18.885, 42.0], [18.9, 41.975], [18.92, 41.975], [18.945, 42.02], [18.945, 42.06], [18.94, 42.065]]]}, "properties": {"score_mean": 19.8, "score_max": 29.1, "area_km2": 39.6, "centroid": [18.9147, 42.023], "razlog": "termalni front + prisustvo mamca", "dubina_panule_m": 11.7, "sst_raspon_C": 0.6, "sst_promjena_3d_C": -0.5, "upwelling": 0.1, "hladnije_C": 0.1, "izgledi": "slabi"}}]}