{"type": "FeatureCollection", "properties": {"vrsta": "tuna", "naziv": "Tuna", "latinski": "Thunnus thynnus", "datum": "2026-10-07", "profil": null, "panula": {"dubina_m": [0.0, 50.0], "brzina_kn": [6.0, 8.0], "sati": "zora, sumrak i mijene struje", "granica_dubine_m": 50.0}, "vertikala": {"termoklina_m": 31.8, "termoklina_C_po_m": 0.1, "dcm_m": 91.2, "dcm_odnos": 1.0, "dcm_debljina_m": 39.8, "mld_m": 17.8, "sloj_plijena_m": [67.4, 105.8], "dohvatljivost": 0.0, "objasnjenje": "Termoklina na 32 m. Sloj plijena lezi pretezno ispod 50 m, dakle izvan dohvata panule. Najveca gustina hlorofila je na 91 m (sloj debljine 40 m) - tu se skuplja sitna riba koja se hrani planktonom, pa je i najveca vjerovatnoca da su grabljivice tu negdje."}, "bezbjednost": {"nivo": "crveno", "razlog": "vjetar 17 cv, udari 24 cv", "izlazak_preporucen": false}, "napomena": "", "razlog_praznog": null}, "features": [{"type": "Feature", "geometry": {"type": "Polygon", "coordinates": [[[18.87, 42.225], [18.84, 42.225], [18.825, 42.21], [18.825, 42.19], [18.86, 42.175], [18.865, 42.16], [18.88, 42.145], [18.9, 42.145], [18.905, 42.12], [18.92, 42.105], [18.94, 42.105], [18.945, 42.11], [18.945, 42.14], [18.915, 42.15], [18.915, 42.18], [18.91, 42.185], [18.88, 42.185], [18.875, 42.19], [18.875, 42.22], [18.87, 42.225]]]}, "properties": {"score_mean": 24.4, "score_max": 45.3, "area_km2": 50.5, "centroid": [18.8855, 42.1687], "razlog": "termalni front + prisustvo mamca", "dubina_panule_m": 10.9, "sst_raspon_C": 0.8, "sst_promjena_3d_C": 0.0, "upwelling": 0.2, "hladnije_C": 0.1, "izgledi": "slabi"}}, {"type": "Feature", "geometry": {"type": "Polygon", "coordinates": [[[19.04, 41.985], [19.015, 41.98], [19.02, 41.955], [19.045, 41.96], [19.04, 41.985]]]}, "properties": {"score_mean": 23.9, "score_max": 28.1, "area_km2": 8.3, "centroid": [19.03, 41.97], "razlog": "termalni front + prisustvo mamca", "dubina_panule_m": 8.4, "sst_raspon_C": 0.6, "sst_promjena_3d_C": -0.0, "upwelling": 0.0, "hladnije_C": -0.1, "izgledi": "slabi"}}, {"type": "Feature", "geometry": {"type": "Polygon", "coordinates": [[[18.74, 42.275], [18.7, 42.275], [18.695, 42.27], [18.695, 42.24], [18.72, 42.215], [18.745, 42.22], [18.745, 42.27], [18.74, 42.275]]]}, "properties": {"score_mean": 23.8, "score_max": 36.4, "area_km2": 24.8, "centroid": [18.7219, 42.2474], "razlog": "termalni front + povoljna dubina", "dubina_panule_m": 8.7, "sst_raspon_C": 0.8, "sst_promjena_3d_C": 0.1, "upwelling": 0.0, "hladnije_C": -0.1, "izgledi": "slabi"}}, {"type": "Feature", "geometry": {"type": "Polygon", "coordinates": [[[18.66, 42.345], [18.63, 42.345], [18.625, 42.32], [18.64, 42.305], [18.66, 42.305], [18.67, 42.285], [18.69, 42.285], [18.695, 42.31], [18.67, 42.315], [18.66, 42.345]]]}, "properties": {"score_mean": 22.2, "score_max": 37.9, "area_km2": 22.0, "centroid": [18.6588, 42.3162], "razlog": "termalni front + povoljna dubina", "dubina_panule_m": 7.9, "sst_raspon_C": 0.8, "sst_promjena_3d_C": 0.2, "upwelling": 0.0, "hladnije_C": -0.2, "izgledi": "slabi"}}, {"type": "Feature", "geometry": {"type": "Polygon", "coordinates": [[[18.89, 41.645], [18.865, 41.64], [18.87, 41.615], [18.895, 41.62], [18.89, 41.645]]]}, "properties": {"score_mean": 1.9, "score_max": 2.4, "area_km2": 8.3, "centroid": [18.88, 41.63], "razlog": "ivica selfa + povoljna dubina", "dubina_panule_m": 50.0, "sst_raspon_C": 0.4, "sst_promjena_3d_C": 0.7, "upwelling": 0.0, "hladnije_C": 0.0, "izgledi": "vrlo slabi"}}, {"type": "Feature", "geometry": {"type": "Polygon", "coordinates": [[[18.57, 42.035], [18.545, 42.03], [18.545, 42.0], [18.555, 41.99], [18.555, 41.97], [18.565, 41.96], [18.565, 41.95], [18.58, 41.935], [18.6, 41.935], [18.615, 41.96], [18.615, 42.0], [18.59, 42.025], [18.58, 42.025], [18.57, 42.035]]]}, "properties": {"score_mean": 1.9, "score_max": 2.3, "area_km2": 47.0, "centroid": [18.581, 41.9865], "razlog": "ivica selfa + povoljna dubina", "dubina_panule_m": 50.0, "sst_raspon_C": 0.3, "sst_promjena_3d_C": -0.5, "upwelling": 0.2, "hladnije_C": 0.1, "izgledi": "vrlo slabi"}}]}