{"type": "FeatureCollection", "properties": {"vrsta": "tuna", "naziv": "Tuna", "latinski": "Thunnus thynnus", "datum": "2026-10-10", "profil": null, "panula": {"dubina_m": [0.0, 50.0], "brzina_kn": [6.0, 8.0], "sati": "zora, sumrak i mijene struje", "granica_dubine_m": 50.0}, "vertikala": {"termoklina_m": 31.8, "termoklina_C_po_m": 0.1, "dcm_m": 84.7, "dcm_odnos": 1.0, "dcm_debljina_m": 44.5, "mld_m": 21.8, "sloj_plijena_m": [47.0, 98.3], "dohvatljivost": 0.1, "objasnjenje": "Termoklina na 32 m. Sloj plijena lezi pretezno ispod 50 m, dakle izvan dohvata panule. Najveca gustina hlorofila je na 85 m (sloj debljine 44 m) - tu se skuplja sitna riba koja se hrani planktonom, pa je i najveca vjerovatnoca da su grabljivice tu negdje."}, "bezbjednost": {"nivo": "crveno", "razlog": "talasi do 1.1 m, vjetar 15 cv, udari 22 cv", "izlazak_preporucen": false}, "napomena": "", "razlog_praznog": null}, "features": [{"type": "Feature", "geometry": {"type": "Polygon", "coordinates": [[[18.6, 42.345], [18.55, 42.345], [18.545, 42.32], [18.55, 42.315], [18.6, 42.315], [18.605, 42.32], [18.6, 42.345]]]}, "properties": {"score_mean": 36.4, "score_max": 43.5, "area_km2": 16.5, "centroid": [18.575, 42.33], "razlog": "povoljna dubina + termalni front", "dubina_panule_m": 12.4, "sst_raspon_C": 0.6, "sst_promjena_3d_C": 0.0, "upwelling": 0.0, "hladnije_C": -0.1, "izgledi": "osrednji"}}, {"type": "Feature", "geometry": {"type": "Polygon", "coordinates": [[[19.08, 41.935], [19.055, 41.93], [19.055, 41.91], [19.07, 41.895], [19.08, 41.895], [19.12, 41.855], [19.14, 41.855], [19.145, 41.88], [19.1, 41.925], [19.09, 41.925], [19.08, 41.935]]]}, "properties": {"score_mean": 33.1, "score_max": 41.9, "area_km2": 34.1, "centroid": [19.1008, 41.8962], "razlog": "termalni front + gradijent hlorofila", "dubina_panule_m": 8.5, "sst_raspon_C": 1.0, "sst_promjena_3d_C": 0.2, "upwelling": 0.0, "hladnije_C": -0.1, "izgledi": "osrednji"}}, {"type": "Feature", "geometry": {"type": "Polygon", "coordinates": [[[19.03, 41.985], [19.005, 41.98], [19.005, 41.96], [19.02, 41.945], [19.045, 41.95], [19.045, 41.97], [19.03, 41.985]]]}, "properties": {"score_mean": 31.3, "score_max": 39.9, "area_km2": 12.9, "centroid": [19.025, 41.965], "razlog": "termalni front + gradijent hlorofila", "dubina_panule_m": 9.8, "sst_raspon_C": 0.6, "sst_promjena_3d_C": -0.5, "upwelling": 0.2, "hladnije_C": 0.2, "izgledi": "osrednji"}}, {"type": "Feature", "geometry": {"type": "Polygon", "coordinates": [[[18.82, 42.205], [18.795, 42.2], [18.795, 42.18], [18.81, 42.165], [18.835, 42.17], [18.835, 42.19], [18.82, 42.205]]]}, "properties": {"score_mean": 22.9, "score_max": 31.7, "area_km2": 12.9, "centroid": [18.815, 42.185], "razlog": "termalni front + povoljna dubina", "dubina_panule_m": 11.6, "sst_raspon_C": 0.7, "sst_promjena_3d_C": 0.2, "upwelling": 0.0, "hladnije_C": -0.2, "izgledi": "slabi"}}]}