{"type": "FeatureCollection", "properties": {"vrsta": "tuna", "naziv": "Tuna", "latinski": "Thunnus thynnus", "datum": "2026-10-06", "profil": null, "panula": {"dubina_m": [0.0, 50.0], "brzina_kn": [6.0, 8.0], "sati": "zora, sumrak i mijene struje", "granica_dubine_m": 50.0}, "vertikala": {"termoklina_m": 35.8, "termoklina_C_po_m": 0.1, "dcm_m": 91.2, "dcm_odnos": 1.0, "dcm_debljina_m": 41.6, "mld_m": 17.1, "sloj_plijena_m": [67.5, 107.6], "dohvatljivost": 0.0, "objasnjenje": "Termoklina na 36 m. Sloj plijena lezi pretezno ispod 50 m, dakle izvan dohvata panule. Najveca gustina hlorofila je na 91 m (sloj debljine 42 m) - tu se skuplja sitna riba koja se hrani planktonom, pa je i najveca vjerovatnoca da su grabljivice tu negdje."}, "bezbjednost": {"nivo": "crveno", "razlog": "vjetar 18 cv, udari 24 cv", "izlazak_preporucen": false}, "napomena": "", "razlog_praznog": null}, "features": [{"type": "Feature", "geometry": {"type": "Polygon", "coordinates": [[[19.13, 41.895], [19.105, 41.89], [19.105, 41.87], [19.13, 41.845], [19.17, 41.845], [19.185, 41.86], [19.18, 41.885], [19.14, 41.885], [19.13, 41.895]]]}, "properties": {"score_mean": 29.0, "score_max": 38.5, "area_km2": 28.6, "centroid": [19.1445, 41.869], "razlog": "termalni front + gradijent hlorofila", "dubina_panule_m": 8.3, "sst_raspon_C": 1.3, "sst_promjena_3d_C": -0.6, "upwelling": 0.0, "hladnije_C": -0.5, "izgledi": "osrednji"}}, {"type": "Feature", "geometry": {"type": "Polygon", "coordinates": [[[18.86, 42.225], [18.835, 42.22], [18.835, 42.19], [18.85, 42.175], [18.87, 42.175], [18.875, 42.16], [18.89, 42.145], [18.91, 42.145], [18.915, 42.17], [18.9, 42.185], [18.875, 42.19], [18.875, 42.21], [18.86, 42.225]]]}, "properties": {"score_mean": 27.9, "score_max": 39.7, "area_km2": 29.4, "centroid": [18.8725, 42.1847], "razlog": "termalni front + prisustvo mamca", "dubina_panule_m": 50.0, "sst_raspon_C": 1.3, "sst_promjena_3d_C": -1.0, "upwelling": 0.1, "hladnije_C": 0.3, "izgledi": "osrednji"}}, {"type": "Feature", "geometry": {"type": "Polygon", "coordinates": [[[18.94, 42.145], [18.915, 42.14], [18.92, 42.115], [18.945, 42.12], [18.94, 42.145]]]}, "properties": {"score_mean": 25.1, "score_max": 27.2, "area_km2": 8.3, "centroid": [18.93, 42.13], "razlog": "termalni front + prisustvo mamca", "dubina_panule_m": 10.1, "sst_raspon_C": 0.9, "sst_promjena_3d_C": -1.4, "upwelling": 0.2, "hladnije_C": 0.5, "izgledi": "osrednji"}}, {"type": "Feature", "geometry": {"type": "Polygon", "coordinates": [[[18.7, 42.315], [18.66, 42.315], [18.655, 42.31], [18.655, 42.28], [18.67, 42.265], [18.695, 42.26], [18.695, 42.23], [18.71, 42.215], [18.74, 42.215], [18.745, 42.22], [18.745, 42.27], [18.74, 42.275], [18.71, 42.275], [18.7, 42.315]]]}, "properties": {"score_mean": 23.0, "score_max": 40.5, "area_km2": 47.7, "centroid": [18.7027, 42.2662], "razlog": "termalni front + povoljna dubina", "dubina_panule_m": 50.0, "sst_raspon_C": 0.9, "sst_promjena_3d_C": -0.3, "upwelling": 0.0, "hladnije_C": -0.0, "izgledi": "slabi"}}, {"type": "Feature", "geometry": {"type": "Polygon", "coordinates": [[[18.61, 41.895], [18.585, 41.89], [18.585, 41.86], [18.61, 41.835], [18.63, 41.835], [18.635, 41.86], [18.61, 41.895]]]}, "properties": {"score_mean": 1.9, "score_max": 2.1, "area_km2": 21.2, "centroid": [18.6091, 41.8648], "razlog": "ivica selfa + povoljna dubina", "dubina_panule_m": 50.0, "sst_raspon_C": 0.7, "sst_promjena_3d_C": -0.6, "upwelling": 0.0, "hladnije_C": -0.2, "izgledi": "vrlo slabi"}}]}