{"type": "FeatureCollection", "properties": {"vrsta": "tuna", "naziv": "Tuna", "latinski": "Thunnus thynnus", "datum": "2026-09-10", "profil": null, "panula": {"dubina_m": [0.0, 50.0], "brzina_kn": [6.0, 8.0], "sati": "zora, sumrak i mijene struje", "granica_dubine_m": 50.0}, "vertikala": {"termoklina_m": 17.8, "termoklina_C_po_m": 0.3, "dcm_m": 97.9, "dcm_odnos": 1.0, "dcm_debljina_m": 38.0, "mld_m": 11.9, "sloj_plijena_m": [59.4, 108.5], "dohvatljivost": 0.0, "objasnjenje": "Termoklina na 18 m. Sloj plijena lezi pretezno ispod 50 m, dakle izvan dohvata panule. Najveca gustina hlorofila je na 98 m (sloj debljine 38 m) - tu se skuplja sitna riba koja se hrani planktonom, pa je i najveca vjerovatnoca da su grabljivice tu negdje."}, "bezbjednost": {"nivo": "zeleno", "razlog": "uslovi povoljni", "izlazak_preporucen": true}, "napomena": "", "razlog_praznog": null}, "features": [{"type": "Feature", "geometry": {"type": "Polygon", "coordinates": [[[18.73, 42.275], [18.705, 42.27], [18.705, 42.24], [18.71, 42.235], [18.74, 42.235], [18.745, 42.24], [18.745, 42.26], [18.73, 42.275]]]}, "properties": {"score_mean": 14.9, "score_max": 17.6, "area_km2": 13.8, "centroid": [18.724, 42.254], "razlog": "termalni front + povoljna dubina", "dubina_panule_m": 33.8, "sst_raspon_C": 0.5, "sst_promjena_3d_C": 0.0, "upwelling": 0.0, "hladnije_C": -0.2, "izgledi": "slabi"}}, {"type": "Feature", "geometry": {"type": "Polygon", "coordinates": [[[18.7, 42.305], [18.67, 42.305], [18.665, 42.28], [18.67, 42.275], [18.7, 42.275], [18.705, 42.28], [18.7, 42.305]]]}, "properties": {"score_mean": 14.9, "score_max": 18.7, "area_km2": 11.0, "centroid": [18.685, 42.29], "razlog": "termalni front + povoljna dubina", "dubina_panule_m": 7.1, "sst_raspon_C": 0.4, "sst_promjena_3d_C": 0.0, "upwelling": 0.0, "hladnije_C": -0.1, "izgledi": "slabi"}}, {"type": "Feature", "geometry": {"type": "Polygon", "coordinates": [[[18.87, 42.225], [18.83, 42.225], [18.825, 42.22], [18.825, 42.2], [18.85, 42.175], [18.875, 42.18], [18.875, 42.22], [18.87, 42.225]]]}, "properties": {"score_mean": 14.2, "score_max": 24.9, "area_km2": 20.2, "centroid": [18.8523, 42.2023], "razlog": "termalni front + gradijent hlorofila", "dubina_panule_m": 42.1, "sst_raspon_C": 1.1, "sst_promjena_3d_C": 0.0, "upwelling": 0.2, "hladnije_C": 0.1, "izgledi": "slabi"}}, {"type": "Feature", "geometry": {"type": "Polygon", "coordinates": [[[19.11, 42.015], [19.08, 42.015], [19.075, 42.01], [19.075, 41.99], [19.09, 41.965], [19.115, 41.97], [19.115, 42.01], [19.11, 42.015]]]}, "properties": {"score_mean": 11.3, "score_max": 15.9, "area_km2": 16.6, "centroid": [19.0967, 41.9917], "razlog": "termalni front + prisustvo mamca", "dubina_panule_m": 7.1, "sst_raspon_C": 0.4, "sst_promjena_3d_C": 0.0, "upwelling": 0.0, "hladnije_C": -0.2, "izgledi": "vrlo slabi"}}, {"type": "Feature", "geometry": {"type": "Polygon", "coordinates": [[[19.145, 41.88], [19.12, 41.885], [19.115, 41.87], [19.095, 41.86], [19.095, 41.84], [19.12, 41.795], [19.145, 41.8], [19.145, 41.88]]]}, "properties": {"score_mean": 11.2, "score_max": 17.0, "area_km2": 32.3, "centroid": [19.1246, 41.8409], "razlog": "termalni front + prisustvo mamca", "dubina_panule_m": 7.1, "sst_raspon_C": 0.9, "sst_promjena_3d_C": 0.0, "upwelling": 0.0, "hladnije_C": -0.2, "izgledi": "vrlo slabi"}}, {"type": "Feature", "geometry": {"type": "Polygon", "coordinates": [[[18.91, 42.015], [18.89, 42.015], [18.855, 41.99], [18.855, 41.96], [18.86, 41.955], [18.88, 41.955], [18.89, 41.945], [18.94, 41.945], [18.945, 41.95], [18.945, 42.0], [18.92, 42.005], [18.91, 42.015]]]}, "properties": {"score_mean": 4.4, "score_max": 5.7, "area_km2": 48.8, "centroid": [18.9025, 41.9779], "razlog": "termalni front + gradijent hlorofila", "dubina_panule_m": 50.0, "sst_raspon_C": 0.4, "sst_promjena_3d_C": 0.0, "upwelling": 0.4, "hladnije_C": 0.2, "izgledi": "vrlo slabi"}}]}