{"type": "FeatureCollection", "properties": {"vrsta": "trupac", "naziv": "Trupac", "latinski": "Auxis rochei", "datum": "2026-08-22", "panula": {"dubina_m": [0.0, 30.0], "brzina_kn": [4.0, 6.0], "granica_dubine_m": 50.0}, "vertikala": {"termoklina_m": 40.0, "termoklina_C_po_m": 0.2, "dcm_m": 50.0, "dcm_odnos": 5.0, "mld_m": 22.0, "sloj_plijena_m": [40.0, 60.0], "dohvatljivost": 0.5, "objasnjenje": "Termoklina na 40 m drži plijen stisnut, dubinski maksimum hlorofila na 50 m."}, "bezbjednost": {"nivo": "crveno", "razlog": "talasi do 1.7 m", "izlazak_preporucen": false}, "napomena": ""}, "features": [{"type": "Feature", "geometry": {"type": "Polygon", "coordinates": [[[19.47, 41.915], [19.46, 41.915], [19.45, 41.915], [19.44, 41.915], [19.435, 41.91], [19.435, 41.9], [19.435, 41.89], [19.44, 41.885], [19.445, 41.88], [19.445, 41.87], [19.445, 41.86], [19.45, 41.855], [19.46, 41.855], [19.47, 41.855], [19.475, 41.86], [19.475, 41.87], [19.48, 41.875], [19.485, 41.88], [19.485, 41.89], [19.485, 41.9], [19.48, 41.905], [19.475, 41.91], [19.47, 41.915]]]}, "properties": {"score_mean": 23.2, "score_max": 26.0, "area_km2": 22.1, "centroid": [19.46, 41.8875], "razlog": "prisustvo mamca + povoljna dubina", "dubina_panule_m": 30.0}}, {"type": "Feature", "geometry": {"type": "Polygon", "coordinates": [[[19.43, 41.985], [19.42, 41.985], [19.41, 41.985], [19.405, 41.98], [19.405, 41.97], [19.405, 41.96], [19.41, 41.955], [19.42, 41.955], [19.43, 41.955], [19.435, 41.96], [19.435, 41.97], [19.435, 41.98], [19.43, 41.985]]]}, "properties": {"score_mean": 22.4, "score_max": 24.1, "area_km2": 8.3, "centroid": [19.42, 41.97], "razlog": "prisustvo mamca + povoljna dubina", "dubina_panule_m": 30.0}}, {"type": "Feature", "geometry": {"type": "Polygon", "coordinates": [[[19.06, 41.975], [19.05, 41.975], [19.04, 41.975], [19.035, 41.97], [19.035, 41.96], [19.035, 41.95], [19.035, 41.94], [19.04, 41.935], [19.05, 41.935], [19.06, 41.935], [19.065, 41.94], [19.065, 41.95], [19.065, 41.96], [19.065, 41.97], [19.06, 41.975]]]}, "properties": {"score_mean": 20.5, "score_max": 23.0, "area_km2": 11.1, "centroid": [19.05, 41.955], "razlog": "termalni front + prisustvo mamca", "dubina_panule_m": 30.0}}, {"type": "Feature", "geometry": {"type": "Polygon", "coordinates": [[[19.06, 42.255], [19.05, 42.255], [19.04, 42.255], [19.035, 42.25], [19.035, 42.24], [19.035, 42.23], [19.035, 42.22], [19.035, 42.21], [19.035, 42.2], [19.035, 42.19], [19.04, 42.185], [19.05, 42.185], [19.06, 42.185], [19.065, 42.19], [19.07, 42.195], [19.075, 42.2], [19.075, 42.21], [19.075, 42.22], [19.075, 42.23], [19.075, 42.24], [19.07, 42.245], [19.065, 42.25], [19.06, 42.255]]]}, "properties": {"score_mean": 19.5, "score_max": 22.1, "area_km2": 23.9, "centroid": [19.0538, 42.22], "razlog": "termalni front + zora/sumrak", "dubina_panule_m": 30.0}}]}